<?xml version="1.0" encoding="UTF-8"?>
<gpx version="1.1" creator="Marokko Motorreis 2026"
     xmlns="http://www.topografix.com/GPX/1/1"
     xmlns:xsi="http://www.w3.org/2001/XMLSchema-instance"
     xsi:schemaLocation="http://www.topografix.com/GPX/1/1 http://www.topografix.com/GPX/1/1/gpx.xsd">
  <metadata><name>Dag 6 (17 okt) Dades-haarspelden - Ouarzazate - Ait Benhaddou</name><desc>205 km, ca. 4u05 rijden. R704-haarspelden heen en terug, dan via Ouarzazate naar de UNESCO-ksar.</desc></metadata>
  <wpt lat="31.372713" lon="-5.986583"><name>Boumalne Dades</name><sym>Flag, Blue</sym></wpt>
  <wpt lat="31.521815" lon="-5.928896"><name>Dades-haarspelden (R704)</name><sym>Flag, Blue</sym></wpt>
  <wpt lat="31.372713" lon="-5.986583"><name>Boumalne (terug)</name><sym>Flag, Blue</sym></wpt>
  <wpt lat="31.060392" lon="-6.557583"><name>Skoura (palmoase)</name><sym>Flag, Blue</sym></wpt>
  <wpt lat="30.920053" lon="-6.893019"><name>Ouarzazate - tank + lunch</name><sym>Flag, Blue</sym></wpt>
  <wpt lat="31.044800" lon="-7.130802"><name>Ait Benhaddou</name><sym>Flag, Blue</sym></wpt>
  <trk>
    <name>Dag 6 (17 okt) Dades-haarspelden - Ouarzazate - Ait Benhaddou</name>
    <desc>205 km, ca. 4u05 rijden. R704-haarspelden heen en terug, dan via Ouarzazate naar de UNESCO-ksar.</desc>
    <trkseg>
      <trkpt lat="31.37271" lon="-5.98658"></trkpt>
      <trkpt lat="31.37409" lon="-5.98797"></trkpt>
      <trkpt lat="31.37455" lon="-5.98876"></trkpt>
      <trkpt lat="31.37479" lon="-5.99241"></trkpt>
      <trkpt lat="31.37857" lon="-5.99319"></trkpt>
      <trkpt lat="31.38331" lon="-5.99228"></trkpt>
      <trkpt lat="31.38521" lon="-5.99087"></trkpt>
      <trkpt lat="31.38702" lon="-5.99008"></trkpt>
      <trkpt lat="31.38833" lon="-5.99081"></trkpt>
      <trkpt lat="31.38954" lon="-5.99217"></trkpt>
      <trkpt lat="31.39124" lon="-5.99266"></trkpt>
      <trkpt lat="31.39406" lon="-5.99240"></trkpt>
      <trkpt lat="31.39500" lon="-5.99178"></trkpt>
      <trkpt lat="31.39642" lon="-5.99154"></trkpt>
      <trkpt lat="31.39839" lon="-5.99015"></trkpt>
      <trkpt lat="31.40029" lon="-5.98969"></trkpt>
      <trkpt lat="31.40208" lon="-5.98988"></trkpt>
      <trkpt lat="31.40407" lon="-5.99136"></trkpt>
      <trkpt lat="31.40519" lon="-5.99160"></trkpt>
      <trkpt lat="31.40632" lon="-5.99217"></trkpt>
      <trkpt lat="31.40712" lon="-5.99222"></trkpt>
      <trkpt lat="31.40848" lon="-5.99166"></trkpt>
      <trkpt lat="31.40947" lon="-5.99054"></trkpt>
      <trkpt lat="31.41152" lon="-5.98971"></trkpt>
      <trkpt lat="31.41208" lon="-5.98974"></trkpt>
      <trkpt lat="31.41262" lon="-5.99012"></trkpt>
      <trkpt lat="31.41308" lon="-5.99097"></trkpt>
      <trkpt lat="31.41367" lon="-5.99492"></trkpt>
      <trkpt lat="31.41503" lon="-5.99547"></trkpt>
      <trkpt lat="31.41528" lon="-5.99583"></trkpt>
      <trkpt lat="31.41347" lon="-5.99819"></trkpt>
      <trkpt lat="31.41231" lon="-6.00018"></trkpt>
      <trkpt lat="31.41217" lon="-6.00157"></trkpt>
      <trkpt lat="31.41246" lon="-6.00294"></trkpt>
      <trkpt lat="31.41291" lon="-6.00298"></trkpt>
      <trkpt lat="31.41327" lon="-6.00200"></trkpt>
      <trkpt lat="31.41466" lon="-6.00350"></trkpt>
      <trkpt lat="31.41923" lon="-6.00599"></trkpt>
      <trkpt lat="31.41967" lon="-6.00771"></trkpt>
      <trkpt lat="31.42062" lon="-6.00877"></trkpt>
      <trkpt lat="31.42167" lon="-6.01112"></trkpt>
      <trkpt lat="31.42280" lon="-6.01148"></trkpt>
      <trkpt lat="31.42380" lon="-6.01128"></trkpt>
      <trkpt lat="31.42415" lon="-6.01227"></trkpt>
      <trkpt lat="31.42699" lon="-6.01455"></trkpt>
      <trkpt lat="31.42797" lon="-6.01406"></trkpt>
      <trkpt lat="31.42885" lon="-6.01418"></trkpt>
      <trkpt lat="31.43019" lon="-6.01384"></trkpt>
      <trkpt lat="31.43167" lon="-6.01434"></trkpt>
      <trkpt lat="31.43296" lon="-6.01336"></trkpt>
      <trkpt lat="31.43337" lon="-6.01270"></trkpt>
      <trkpt lat="31.43443" lon="-6.01262"></trkpt>
      <trkpt lat="31.43460" lon="-6.01221"></trkpt>
      <trkpt lat="31.43430" lon="-6.01140"></trkpt>
      <trkpt lat="31.43514" lon="-6.01119"></trkpt>
      <trkpt lat="31.43602" lon="-6.01153"></trkpt>
      <trkpt lat="31.43683" lon="-6.01145"></trkpt>
      <trkpt lat="31.43679" lon="-6.01283"></trkpt>
      <trkpt lat="31.43785" lon="-6.01520"></trkpt>
      <trkpt lat="31.43868" lon="-6.01505"></trkpt>
      <trkpt lat="31.43927" lon="-6.01420"></trkpt>
      <trkpt lat="31.44094" lon="-6.01354"></trkpt>
      <trkpt lat="31.44171" lon="-6.01349"></trkpt>
      <trkpt lat="31.44238" lon="-6.01308"></trkpt>
      <trkpt lat="31.44330" lon="-6.01336"></trkpt>
      <trkpt lat="31.44405" lon="-6.01433"></trkpt>
      <trkpt lat="31.44425" lon="-6.01402"></trkpt>
      <trkpt lat="31.44391" lon="-6.01283"></trkpt>
      <trkpt lat="31.44260" lon="-6.01201"></trkpt>
      <trkpt lat="31.44227" lon="-6.01154"></trkpt>
      <trkpt lat="31.44099" lon="-6.01110"></trkpt>
      <trkpt lat="31.44046" lon="-6.01050"></trkpt>
      <trkpt lat="31.43982" lon="-6.00890"></trkpt>
      <trkpt lat="31.43857" lon="-6.00745"></trkpt>
      <trkpt lat="31.43790" lon="-6.00729"></trkpt>
      <trkpt lat="31.43789" lon="-6.00645"></trkpt>
      <trkpt lat="31.43827" lon="-6.00535"></trkpt>
      <trkpt lat="31.43764" lon="-6.00468"></trkpt>
      <trkpt lat="31.43698" lon="-6.00286"></trkpt>
      <trkpt lat="31.43756" lon="-5.99874"></trkpt>
      <trkpt lat="31.43748" lon="-5.99605"></trkpt>
      <trkpt lat="31.43885" lon="-5.99261"></trkpt>
      <trkpt lat="31.43919" lon="-5.99073"></trkpt>
      <trkpt lat="31.43943" lon="-5.99083"></trkpt>
      <trkpt lat="31.43953" lon="-5.99177"></trkpt>
      <trkpt lat="31.44002" lon="-5.99197"></trkpt>
      <trkpt lat="31.44041" lon="-5.99066"></trkpt>
      <trkpt lat="31.44154" lon="-5.98935"></trkpt>
      <trkpt lat="31.44212" lon="-5.98801"></trkpt>
      <trkpt lat="31.44438" lon="-5.98679"></trkpt>
      <trkpt lat="31.44502" lon="-5.98454"></trkpt>
      <trkpt lat="31.44620" lon="-5.98306"></trkpt>
      <trkpt lat="31.44606" lon="-5.98156"></trkpt>
      <trkpt lat="31.44698" lon="-5.98043"></trkpt>
      <trkpt lat="31.44799" lon="-5.98050"></trkpt>
      <trkpt lat="31.44826" lon="-5.97971"></trkpt>
      <trkpt lat="31.44928" lon="-5.97858"></trkpt>
      <trkpt lat="31.44914" lon="-5.97823"></trkpt>
      <trkpt lat="31.44840" lon="-5.97800"></trkpt>
      <trkpt lat="31.44896" lon="-5.97632"></trkpt>
      <trkpt lat="31.44811" lon="-5.97531"></trkpt>
      <trkpt lat="31.44766" lon="-5.97368"></trkpt>
      <trkpt lat="31.44783" lon="-5.97318"></trkpt>
      <trkpt lat="31.44908" lon="-5.97233"></trkpt>
      <trkpt lat="31.44947" lon="-5.97027"></trkpt>
      <trkpt lat="31.45047" lon="-5.96997"></trkpt>
      <trkpt lat="31.45100" lon="-5.96927"></trkpt>
      <trkpt lat="31.45236" lon="-5.96912"></trkpt>
      <trkpt lat="31.45336" lon="-5.97076"></trkpt>
      <trkpt lat="31.45370" lon="-5.97242"></trkpt>
      <trkpt lat="31.45595" lon="-5.97508"></trkpt>
      <trkpt lat="31.45716" lon="-5.97530"></trkpt>
      <trkpt lat="31.45760" lon="-5.97618"></trkpt>
      <trkpt lat="31.45812" lon="-5.97619"></trkpt>
      <trkpt lat="31.45856" lon="-5.97501"></trkpt>
      <trkpt lat="31.46036" lon="-5.97462"></trkpt>
      <trkpt lat="31.46351" lon="-5.97221"></trkpt>
      <trkpt lat="31.46833" lon="-5.96721"></trkpt>
      <trkpt lat="31.47001" lon="-5.96737"></trkpt>
      <trkpt lat="31.47134" lon="-5.96630"></trkpt>
      <trkpt lat="31.47314" lon="-5.96598"></trkpt>
      <trkpt lat="31.47559" lon="-5.96474"></trkpt>
      <trkpt lat="31.47694" lon="-5.96323"></trkpt>
      <trkpt lat="31.47761" lon="-5.96172"></trkpt>
      <trkpt lat="31.48025" lon="-5.96075"></trkpt>
      <trkpt lat="31.48129" lon="-5.95989"></trkpt>
      <trkpt lat="31.48250" lon="-5.95836"></trkpt>
      <trkpt lat="31.48393" lon="-5.95744"></trkpt>
      <trkpt lat="31.48487" lon="-5.95645"></trkpt>
      <trkpt lat="31.48682" lon="-5.95555"></trkpt>
      <trkpt lat="31.48891" lon="-5.95369"></trkpt>
      <trkpt lat="31.49015" lon="-5.95170"></trkpt>
      <trkpt lat="31.49461" lon="-5.95094"></trkpt>
      <trkpt lat="31.49615" lon="-5.94996"></trkpt>
      <trkpt lat="31.49720" lon="-5.94792"></trkpt>
      <trkpt lat="31.49913" lon="-5.94710"></trkpt>
      <trkpt lat="31.50037" lon="-5.94626"></trkpt>
      <trkpt lat="31.50245" lon="-5.94611"></trkpt>
      <trkpt lat="31.50411" lon="-5.94644"></trkpt>
      <trkpt lat="31.50473" lon="-5.94489"></trkpt>
      <trkpt lat="31.50553" lon="-5.94481"></trkpt>
      <trkpt lat="31.50697" lon="-5.94383"></trkpt>
      <trkpt lat="31.50822" lon="-5.94175"></trkpt>
      <trkpt lat="31.50848" lon="-5.94064"></trkpt>
      <trkpt lat="31.51306" lon="-5.93480"></trkpt>
      <trkpt lat="31.51459" lon="-5.93363"></trkpt>
      <trkpt lat="31.51661" lon="-5.93277"></trkpt>
      <trkpt lat="31.51900" lon="-5.93138"></trkpt>
      <trkpt lat="31.52096" lon="-5.92991"></trkpt>
      <trkpt lat="31.52318" lon="-5.92753"></trkpt>
      <trkpt lat="31.52525" lon="-5.92651"></trkpt>
      <trkpt lat="31.52584" lon="-5.92647"></trkpt>
      <trkpt lat="31.52666" lon="-5.92581"></trkpt>
      <trkpt lat="31.52701" lon="-5.92608"></trkpt>
      <trkpt lat="31.52808" lon="-5.92571"></trkpt>
      <trkpt lat="31.52802" lon="-5.92552"></trkpt>
      <trkpt lat="31.52722" lon="-5.92577"></trkpt>
      <trkpt lat="31.52797" lon="-5.92531"></trkpt>
      <trkpt lat="31.52920" lon="-5.92529"></trkpt>
      <trkpt lat="31.52820" lon="-5.92496"></trkpt>
      <trkpt lat="31.52744" lon="-5.92518"></trkpt>
      <trkpt lat="31.52818" lon="-5.92472"></trkpt>
      <trkpt lat="31.52925" lon="-5.92480"></trkpt>
      <trkpt lat="31.52985" lon="-5.92522"></trkpt>
      <trkpt lat="31.53020" lon="-5.92518"></trkpt>
      <trkpt lat="31.53067" lon="-5.92418"></trkpt>
      <trkpt lat="31.53039" lon="-5.92557"></trkpt>
      <trkpt lat="31.53063" lon="-5.92414"></trkpt>
      <trkpt lat="31.53009" lon="-5.92523"></trkpt>
      <trkpt lat="31.52940" lon="-5.92484"></trkpt>
      <trkpt lat="31.52825" lon="-5.92471"></trkpt>
      <trkpt lat="31.52746" lon="-5.92506"></trkpt>
      <trkpt lat="31.52756" lon="-5.92521"></trkpt>
      <trkpt lat="31.52820" lon="-5.92496"></trkpt>
      <trkpt lat="31.52920" lon="-5.92529"></trkpt>
      <trkpt lat="31.52797" lon="-5.92531"></trkpt>
      <trkpt lat="31.52722" lon="-5.92577"></trkpt>
      <trkpt lat="31.52802" lon="-5.92552"></trkpt>
      <trkpt lat="31.52808" lon="-5.92571"></trkpt>
      <trkpt lat="31.52701" lon="-5.92608"></trkpt>
      <trkpt lat="31.52666" lon="-5.92581"></trkpt>
      <trkpt lat="31.52584" lon="-5.92647"></trkpt>
      <trkpt lat="31.52525" lon="-5.92651"></trkpt>
      <trkpt lat="31.52318" lon="-5.92753"></trkpt>
      <trkpt lat="31.52096" lon="-5.92991"></trkpt>
      <trkpt lat="31.51900" lon="-5.93138"></trkpt>
      <trkpt lat="31.51661" lon="-5.93277"></trkpt>
      <trkpt lat="31.51459" lon="-5.93363"></trkpt>
      <trkpt lat="31.51306" lon="-5.93480"></trkpt>
      <trkpt lat="31.50848" lon="-5.94064"></trkpt>
      <trkpt lat="31.50822" lon="-5.94175"></trkpt>
      <trkpt lat="31.50697" lon="-5.94383"></trkpt>
      <trkpt lat="31.50553" lon="-5.94481"></trkpt>
      <trkpt lat="31.50473" lon="-5.94489"></trkpt>
      <trkpt lat="31.50411" lon="-5.94644"></trkpt>
      <trkpt lat="31.50245" lon="-5.94611"></trkpt>
      <trkpt lat="31.50037" lon="-5.94626"></trkpt>
      <trkpt lat="31.49913" lon="-5.94710"></trkpt>
      <trkpt lat="31.49720" lon="-5.94792"></trkpt>
      <trkpt lat="31.49615" lon="-5.94996"></trkpt>
      <trkpt lat="31.49461" lon="-5.95094"></trkpt>
      <trkpt lat="31.49015" lon="-5.95170"></trkpt>
      <trkpt lat="31.48891" lon="-5.95369"></trkpt>
      <trkpt lat="31.48682" lon="-5.95555"></trkpt>
      <trkpt lat="31.48487" lon="-5.95645"></trkpt>
      <trkpt lat="31.48393" lon="-5.95744"></trkpt>
      <trkpt lat="31.48250" lon="-5.95836"></trkpt>
      <trkpt lat="31.48129" lon="-5.95989"></trkpt>
      <trkpt lat="31.48025" lon="-5.96075"></trkpt>
      <trkpt lat="31.47761" lon="-5.96172"></trkpt>
      <trkpt lat="31.47694" lon="-5.96323"></trkpt>
      <trkpt lat="31.47559" lon="-5.96474"></trkpt>
      <trkpt lat="31.47314" lon="-5.96598"></trkpt>
      <trkpt lat="31.47134" lon="-5.96630"></trkpt>
      <trkpt lat="31.47001" lon="-5.96737"></trkpt>
      <trkpt lat="31.46833" lon="-5.96721"></trkpt>
      <trkpt lat="31.46351" lon="-5.97221"></trkpt>
      <trkpt lat="31.46036" lon="-5.97462"></trkpt>
      <trkpt lat="31.45856" lon="-5.97501"></trkpt>
      <trkpt lat="31.45812" lon="-5.97619"></trkpt>
      <trkpt lat="31.45760" lon="-5.97618"></trkpt>
      <trkpt lat="31.45716" lon="-5.97530"></trkpt>
      <trkpt lat="31.45595" lon="-5.97508"></trkpt>
      <trkpt lat="31.45370" lon="-5.97242"></trkpt>
      <trkpt lat="31.45336" lon="-5.97076"></trkpt>
      <trkpt lat="31.45236" lon="-5.96912"></trkpt>
      <trkpt lat="31.45100" lon="-5.96927"></trkpt>
      <trkpt lat="31.45047" lon="-5.96997"></trkpt>
      <trkpt lat="31.44947" lon="-5.97027"></trkpt>
      <trkpt lat="31.44908" lon="-5.97233"></trkpt>
      <trkpt lat="31.44783" lon="-5.97318"></trkpt>
      <trkpt lat="31.44766" lon="-5.97368"></trkpt>
      <trkpt lat="31.44811" lon="-5.97531"></trkpt>
      <trkpt lat="31.44896" lon="-5.97632"></trkpt>
      <trkpt lat="31.44840" lon="-5.97800"></trkpt>
      <trkpt lat="31.44914" lon="-5.97823"></trkpt>
      <trkpt lat="31.44928" lon="-5.97858"></trkpt>
      <trkpt lat="31.44826" lon="-5.97971"></trkpt>
      <trkpt lat="31.44799" lon="-5.98050"></trkpt>
      <trkpt lat="31.44698" lon="-5.98043"></trkpt>
      <trkpt lat="31.44606" lon="-5.98156"></trkpt>
      <trkpt lat="31.44620" lon="-5.98306"></trkpt>
      <trkpt lat="31.44502" lon="-5.98454"></trkpt>
      <trkpt lat="31.44438" lon="-5.98679"></trkpt>
      <trkpt lat="31.44212" lon="-5.98801"></trkpt>
      <trkpt lat="31.44154" lon="-5.98935"></trkpt>
      <trkpt lat="31.44041" lon="-5.99066"></trkpt>
      <trkpt lat="31.44002" lon="-5.99197"></trkpt>
      <trkpt lat="31.43953" lon="-5.99177"></trkpt>
      <trkpt lat="31.43943" lon="-5.99083"></trkpt>
      <trkpt lat="31.43919" lon="-5.99073"></trkpt>
      <trkpt lat="31.43885" lon="-5.99261"></trkpt>
      <trkpt lat="31.43748" lon="-5.99605"></trkpt>
      <trkpt lat="31.43756" lon="-5.99874"></trkpt>
      <trkpt lat="31.43698" lon="-6.00286"></trkpt>
      <trkpt lat="31.43764" lon="-6.00468"></trkpt>
      <trkpt lat="31.43827" lon="-6.00535"></trkpt>
      <trkpt lat="31.43789" lon="-6.00645"></trkpt>
      <trkpt lat="31.43790" lon="-6.00729"></trkpt>
      <trkpt lat="31.43857" lon="-6.00745"></trkpt>
      <trkpt lat="31.43982" lon="-6.00890"></trkpt>
      <trkpt lat="31.44046" lon="-6.01050"></trkpt>
      <trkpt lat="31.44099" lon="-6.01110"></trkpt>
      <trkpt lat="31.44227" lon="-6.01154"></trkpt>
      <trkpt lat="31.44260" lon="-6.01201"></trkpt>
      <trkpt lat="31.44391" lon="-6.01283"></trkpt>
      <trkpt lat="31.44425" lon="-6.01402"></trkpt>
      <trkpt lat="31.44405" lon="-6.01433"></trkpt>
      <trkpt lat="31.44330" lon="-6.01336"></trkpt>
      <trkpt lat="31.44238" lon="-6.01308"></trkpt>
      <trkpt lat="31.44171" lon="-6.01349"></trkpt>
      <trkpt lat="31.44094" lon="-6.01354"></trkpt>
      <trkpt lat="31.43927" lon="-6.01420"></trkpt>
      <trkpt lat="31.43868" lon="-6.01505"></trkpt>
      <trkpt lat="31.43785" lon="-6.01520"></trkpt>
      <trkpt lat="31.43679" lon="-6.01283"></trkpt>
      <trkpt lat="31.43683" lon="-6.01145"></trkpt>
      <trkpt lat="31.43602" lon="-6.01153"></trkpt>
      <trkpt lat="31.43514" lon="-6.01119"></trkpt>
      <trkpt lat="31.43430" lon="-6.01140"></trkpt>
      <trkpt lat="31.43460" lon="-6.01221"></trkpt>
      <trkpt lat="31.43443" lon="-6.01262"></trkpt>
      <trkpt lat="31.43337" lon="-6.01270"></trkpt>
      <trkpt lat="31.43296" lon="-6.01336"></trkpt>
      <trkpt lat="31.43167" lon="-6.01434"></trkpt>
      <trkpt lat="31.43019" lon="-6.01384"></trkpt>
      <trkpt lat="31.42885" lon="-6.01418"></trkpt>
      <trkpt lat="31.42797" lon="-6.01406"></trkpt>
      <trkpt lat="31.42699" lon="-6.01455"></trkpt>
      <trkpt lat="31.42415" lon="-6.01227"></trkpt>
      <trkpt lat="31.42380" lon="-6.01128"></trkpt>
      <trkpt lat="31.42280" lon="-6.01148"></trkpt>
      <trkpt lat="31.42167" lon="-6.01112"></trkpt>
      <trkpt lat="31.42062" lon="-6.00877"></trkpt>
      <trkpt lat="31.41967" lon="-6.00771"></trkpt>
      <trkpt lat="31.41923" lon="-6.00599"></trkpt>
      <trkpt lat="31.41466" lon="-6.00350"></trkpt>
      <trkpt lat="31.41327" lon="-6.00200"></trkpt>
      <trkpt lat="31.41291" lon="-6.00298"></trkpt>
      <trkpt lat="31.41246" lon="-6.00294"></trkpt>
      <trkpt lat="31.41217" lon="-6.00157"></trkpt>
      <trkpt lat="31.41231" lon="-6.00018"></trkpt>
      <trkpt lat="31.41347" lon="-5.99819"></trkpt>
      <trkpt lat="31.41528" lon="-5.99583"></trkpt>
      <trkpt lat="31.41503" lon="-5.99547"></trkpt>
      <trkpt lat="31.41367" lon="-5.99492"></trkpt>
      <trkpt lat="31.41308" lon="-5.99097"></trkpt>
      <trkpt lat="31.41262" lon="-5.99012"></trkpt>
      <trkpt lat="31.41208" lon="-5.98974"></trkpt>
      <trkpt lat="31.41152" lon="-5.98971"></trkpt>
      <trkpt lat="31.40947" lon="-5.99054"></trkpt>
      <trkpt lat="31.40848" lon="-5.99166"></trkpt>
      <trkpt lat="31.40712" lon="-5.99222"></trkpt>
      <trkpt lat="31.40632" lon="-5.99217"></trkpt>
      <trkpt lat="31.40519" lon="-5.99160"></trkpt>
      <trkpt lat="31.40407" lon="-5.99136"></trkpt>
      <trkpt lat="31.40208" lon="-5.98988"></trkpt>
      <trkpt lat="31.40029" lon="-5.98969"></trkpt>
      <trkpt lat="31.39839" lon="-5.99015"></trkpt>
      <trkpt lat="31.39642" lon="-5.99154"></trkpt>
      <trkpt lat="31.39500" lon="-5.99178"></trkpt>
      <trkpt lat="31.39406" lon="-5.99240"></trkpt>
      <trkpt lat="31.39124" lon="-5.99266"></trkpt>
      <trkpt lat="31.38954" lon="-5.99217"></trkpt>
      <trkpt lat="31.38833" lon="-5.99081"></trkpt>
      <trkpt lat="31.38702" lon="-5.99008"></trkpt>
      <trkpt lat="31.38521" lon="-5.99087"></trkpt>
      <trkpt lat="31.38331" lon="-5.99228"></trkpt>
      <trkpt lat="31.37857" lon="-5.99319"></trkpt>
      <trkpt lat="31.37462" lon="-5.99254"></trkpt>
      <trkpt lat="31.37455" lon="-5.98876"></trkpt>
      <trkpt lat="31.37409" lon="-5.98797"></trkpt>
      <trkpt lat="31.37215" lon="-5.98599"></trkpt>
      <trkpt lat="31.37216" lon="-5.98507"></trkpt>
      <trkpt lat="31.37166" lon="-5.98510"></trkpt>
      <trkpt lat="31.37165" lon="-5.98536"></trkpt>
      <trkpt lat="31.37219" lon="-5.98533"></trkpt>
      <trkpt lat="31.37215" lon="-5.98599"></trkpt>
      <trkpt lat="31.37409" lon="-5.98797"></trkpt>
      <trkpt lat="31.37455" lon="-5.98876"></trkpt>
      <trkpt lat="31.37475" lon="-5.99256"></trkpt>
      <trkpt lat="31.37174" lon="-5.99388"></trkpt>
      <trkpt lat="31.37041" lon="-5.99473"></trkpt>
      <trkpt lat="31.36730" lon="-5.99591"></trkpt>
      <trkpt lat="31.36398" lon="-5.99816"></trkpt>
      <trkpt lat="31.35639" lon="-6.00195"></trkpt>
      <trkpt lat="31.34213" lon="-6.00618"></trkpt>
      <trkpt lat="31.33712" lon="-6.00841"></trkpt>
      <trkpt lat="31.33454" lon="-6.00899"></trkpt>
      <trkpt lat="31.32833" lon="-6.01122"></trkpt>
      <trkpt lat="31.32140" lon="-6.01591"></trkpt>
      <trkpt lat="31.31974" lon="-6.01806"></trkpt>
      <trkpt lat="31.31633" lon="-6.02071"></trkpt>
      <trkpt lat="31.30463" lon="-6.03258"></trkpt>
      <trkpt lat="31.30261" lon="-6.03650"></trkpt>
      <trkpt lat="31.30151" lon="-6.03758"></trkpt>
      <trkpt lat="31.29943" lon="-6.03891"></trkpt>
      <trkpt lat="31.29576" lon="-6.04229"></trkpt>
      <trkpt lat="31.29134" lon="-6.04831"></trkpt>
      <trkpt lat="31.28601" lon="-6.05360"></trkpt>
      <trkpt lat="31.28282" lon="-6.05575"></trkpt>
      <trkpt lat="31.28091" lon="-6.05800"></trkpt>
      <trkpt lat="31.27298" lon="-6.06261"></trkpt>
      <trkpt lat="31.27177" lon="-6.06408"></trkpt>
      <trkpt lat="31.27021" lon="-6.06449"></trkpt>
      <trkpt lat="31.26694" lon="-6.06762"></trkpt>
      <trkpt lat="31.26495" lon="-6.07006"></trkpt>
      <trkpt lat="31.26360" lon="-6.07104"></trkpt>
      <trkpt lat="31.26250" lon="-6.07156"></trkpt>
      <trkpt lat="31.25981" lon="-6.07054"></trkpt>
      <trkpt lat="31.25929" lon="-6.07077"></trkpt>
      <trkpt lat="31.25873" lon="-6.07228"></trkpt>
      <trkpt lat="31.25638" lon="-6.07554"></trkpt>
      <trkpt lat="31.25431" lon="-6.07906"></trkpt>
      <trkpt lat="31.25211" lon="-6.08171"></trkpt>
      <trkpt lat="31.25143" lon="-6.08483"></trkpt>
      <trkpt lat="31.25032" lon="-6.08625"></trkpt>
      <trkpt lat="31.24775" lon="-6.08827"></trkpt>
      <trkpt lat="31.24663" lon="-6.09099"></trkpt>
      <trkpt lat="31.24601" lon="-6.09326"></trkpt>
      <trkpt lat="31.24673" lon="-6.10120"></trkpt>
      <trkpt lat="31.24650" lon="-6.10270"></trkpt>
      <trkpt lat="31.24471" lon="-6.10875"></trkpt>
      <trkpt lat="31.24198" lon="-6.11600"></trkpt>
      <trkpt lat="31.24201" lon="-6.11650"></trkpt>
      <trkpt lat="31.23854" lon="-6.12718"></trkpt>
      <trkpt lat="31.23580" lon="-6.13187"></trkpt>
      <trkpt lat="31.23540" lon="-6.13372"></trkpt>
      <trkpt lat="31.23375" lon="-6.13682"></trkpt>
      <trkpt lat="31.23325" lon="-6.13719"></trkpt>
      <trkpt lat="31.23007" lon="-6.13799"></trkpt>
      <trkpt lat="31.22702" lon="-6.14225"></trkpt>
      <trkpt lat="31.22548" lon="-6.14313"></trkpt>
      <trkpt lat="31.22405" lon="-6.14445"></trkpt>
      <trkpt lat="31.22035" lon="-6.14592"></trkpt>
      <trkpt lat="31.21907" lon="-6.14726"></trkpt>
      <trkpt lat="31.21695" lon="-6.14789"></trkpt>
      <trkpt lat="31.21589" lon="-6.14852"></trkpt>
      <trkpt lat="31.21450" lon="-6.14847"></trkpt>
      <trkpt lat="31.21335" lon="-6.14923"></trkpt>
      <trkpt lat="31.21120" lon="-6.14885"></trkpt>
      <trkpt lat="31.20854" lon="-6.14954"></trkpt>
      <trkpt lat="31.20666" lon="-6.15201"></trkpt>
      <trkpt lat="31.20547" lon="-6.15277"></trkpt>
      <trkpt lat="31.20427" lon="-6.15436"></trkpt>
      <trkpt lat="31.20148" lon="-6.15622"></trkpt>
      <trkpt lat="31.19869" lon="-6.15882"></trkpt>
      <trkpt lat="31.19705" lon="-6.16327"></trkpt>
      <trkpt lat="31.19697" lon="-6.16607"></trkpt>
      <trkpt lat="31.19594" lon="-6.16752"></trkpt>
      <trkpt lat="31.19538" lon="-6.16959"></trkpt>
      <trkpt lat="31.19658" lon="-6.17262"></trkpt>
      <trkpt lat="31.19740" lon="-6.17383"></trkpt>
      <trkpt lat="31.19881" lon="-6.17501"></trkpt>
      <trkpt lat="31.19901" lon="-6.17598"></trkpt>
      <trkpt lat="31.19471" lon="-6.18251"></trkpt>
      <trkpt lat="31.19414" lon="-6.18642"></trkpt>
      <trkpt lat="31.19439" lon="-6.18766"></trkpt>
      <trkpt lat="31.19803" lon="-6.19487"></trkpt>
      <trkpt lat="31.19831" lon="-6.19619"></trkpt>
      <trkpt lat="31.19825" lon="-6.19748"></trkpt>
      <trkpt lat="31.19669" lon="-6.20325"></trkpt>
      <trkpt lat="31.19128" lon="-6.21649"></trkpt>
      <trkpt lat="31.18992" lon="-6.22393"></trkpt>
      <trkpt lat="31.18815" lon="-6.22665"></trkpt>
      <trkpt lat="31.18540" lon="-6.23480"></trkpt>
      <trkpt lat="31.18445" lon="-6.23680"></trkpt>
      <trkpt lat="31.18404" lon="-6.23874"></trkpt>
      <trkpt lat="31.18139" lon="-6.24648"></trkpt>
      <trkpt lat="31.17060" lon="-6.26531"></trkpt>
      <trkpt lat="31.16315" lon="-6.27981"></trkpt>
      <trkpt lat="31.15937" lon="-6.28500"></trkpt>
      <trkpt lat="31.15723" lon="-6.29006"></trkpt>
      <trkpt lat="31.15077" lon="-6.30068"></trkpt>
      <trkpt lat="31.14828" lon="-6.30436"></trkpt>
      <trkpt lat="31.14649" lon="-6.30788"></trkpt>
      <trkpt lat="31.14032" lon="-6.31453"></trkpt>
      <trkpt lat="31.13935" lon="-6.31615"></trkpt>
      <trkpt lat="31.13221" lon="-6.33321"></trkpt>
      <trkpt lat="31.13183" lon="-6.33474"></trkpt>
      <trkpt lat="31.13252" lon="-6.34154"></trkpt>
      <trkpt lat="31.13385" lon="-6.34405"></trkpt>
      <trkpt lat="31.13513" lon="-6.34767"></trkpt>
      <trkpt lat="31.13516" lon="-6.34873"></trkpt>
      <trkpt lat="31.13479" lon="-6.34990"></trkpt>
      <trkpt lat="31.13040" lon="-6.35482"></trkpt>
      <trkpt lat="31.12698" lon="-6.35787"></trkpt>
      <trkpt lat="31.11543" lon="-6.37181"></trkpt>
      <trkpt lat="31.11452" lon="-6.37254"></trkpt>
      <trkpt lat="31.10900" lon="-6.37564"></trkpt>
      <trkpt lat="31.10798" lon="-6.37702"></trkpt>
      <trkpt lat="31.10749" lon="-6.37899"></trkpt>
      <trkpt lat="31.10757" lon="-6.38030"></trkpt>
      <trkpt lat="31.11149" lon="-6.38993"></trkpt>
      <trkpt lat="31.11068" lon="-6.39859"></trkpt>
      <trkpt lat="31.11090" lon="-6.39925"></trkpt>
      <trkpt lat="31.11187" lon="-6.40049"></trkpt>
      <trkpt lat="31.11215" lon="-6.40309"></trkpt>
      <trkpt lat="31.11262" lon="-6.40423"></trkpt>
      <trkpt lat="31.11335" lon="-6.40828"></trkpt>
      <trkpt lat="31.11282" lon="-6.41466"></trkpt>
      <trkpt lat="31.11214" lon="-6.41547"></trkpt>
      <trkpt lat="31.11070" lon="-6.41554"></trkpt>
      <trkpt lat="31.10891" lon="-6.41627"></trkpt>
      <trkpt lat="31.10809" lon="-6.41697"></trkpt>
      <trkpt lat="31.10682" lon="-6.42156"></trkpt>
      <trkpt lat="31.10676" lon="-6.42778"></trkpt>
      <trkpt lat="31.10652" lon="-6.42886"></trkpt>
      <trkpt lat="31.10577" lon="-6.42998"></trkpt>
      <trkpt lat="31.10369" lon="-6.43116"></trkpt>
      <trkpt lat="31.10291" lon="-6.43213"></trkpt>
      <trkpt lat="31.10188" lon="-6.43683"></trkpt>
      <trkpt lat="31.09767" lon="-6.44788"></trkpt>
      <trkpt lat="31.09133" lon="-6.46296"></trkpt>
      <trkpt lat="31.09059" lon="-6.46421"></trkpt>
      <trkpt lat="31.08858" lon="-6.46637"></trkpt>
      <trkpt lat="31.08637" lon="-6.47086"></trkpt>
      <trkpt lat="31.07772" lon="-6.49520"></trkpt>
      <trkpt lat="31.07373" lon="-6.50767"></trkpt>
      <trkpt lat="31.07277" lon="-6.51151"></trkpt>
      <trkpt lat="31.07007" lon="-6.51893"></trkpt>
      <trkpt lat="31.06955" lon="-6.52891"></trkpt>
      <trkpt lat="31.06536" lon="-6.54639"></trkpt>
      <trkpt lat="31.06002" lon="-6.55545"></trkpt>
      <trkpt lat="31.06082" lon="-6.55607"></trkpt>
      <trkpt lat="31.06128" lon="-6.55703"></trkpt>
      <trkpt lat="31.05961" lon="-6.55804"></trkpt>
      <trkpt lat="31.05806" lon="-6.55861"></trkpt>
      <trkpt lat="31.05534" lon="-6.56296"></trkpt>
      <trkpt lat="31.05367" lon="-6.56470"></trkpt>
      <trkpt lat="31.05202" lon="-6.56737"></trkpt>
      <trkpt lat="31.04581" lon="-6.57426"></trkpt>
      <trkpt lat="31.04081" lon="-6.57662"></trkpt>
      <trkpt lat="31.03676" lon="-6.58058"></trkpt>
      <trkpt lat="31.03510" lon="-6.58127"></trkpt>
      <trkpt lat="31.02593" lon="-6.58186"></trkpt>
      <trkpt lat="31.02476" lon="-6.58242"></trkpt>
      <trkpt lat="31.01995" lon="-6.58863"></trkpt>
      <trkpt lat="31.01277" lon="-6.59891"></trkpt>
      <trkpt lat="31.01273" lon="-6.60038"></trkpt>
      <trkpt lat="31.01544" lon="-6.60857"></trkpt>
      <trkpt lat="31.01544" lon="-6.61008"></trkpt>
      <trkpt lat="31.01312" lon="-6.61321"></trkpt>
      <trkpt lat="31.00866" lon="-6.61622"></trkpt>
      <trkpt lat="31.00734" lon="-6.61808"></trkpt>
      <trkpt lat="31.00703" lon="-6.62014"></trkpt>
      <trkpt lat="31.00774" lon="-6.62572"></trkpt>
      <trkpt lat="31.00758" lon="-6.62761"></trkpt>
      <trkpt lat="31.00543" lon="-6.63265"></trkpt>
      <trkpt lat="30.99864" lon="-6.65255"></trkpt>
      <trkpt lat="30.99089" lon="-6.67727"></trkpt>
      <trkpt lat="30.98883" lon="-6.68396"></trkpt>
      <trkpt lat="30.98681" lon="-6.69445"></trkpt>
      <trkpt lat="30.97432" lon="-6.72706"></trkpt>
      <trkpt lat="30.97427" lon="-6.72930"></trkpt>
      <trkpt lat="30.97518" lon="-6.73863"></trkpt>
      <trkpt lat="30.97686" lon="-6.77424"></trkpt>
      <trkpt lat="30.97846" lon="-6.77860"></trkpt>
      <trkpt lat="30.97856" lon="-6.77954"></trkpt>
      <trkpt lat="30.97629" lon="-6.78834"></trkpt>
      <trkpt lat="30.97624" lon="-6.78928"></trkpt>
      <trkpt lat="30.97672" lon="-6.79126"></trkpt>
      <trkpt lat="30.97940" lon="-6.79483"></trkpt>
      <trkpt lat="30.97974" lon="-6.79566"></trkpt>
      <trkpt lat="30.97981" lon="-6.79727"></trkpt>
      <trkpt lat="30.97749" lon="-6.80584"></trkpt>
      <trkpt lat="30.96996" lon="-6.83784"></trkpt>
      <trkpt lat="30.96914" lon="-6.83921"></trkpt>
      <trkpt lat="30.96549" lon="-6.84266"></trkpt>
      <trkpt lat="30.96251" lon="-6.84764"></trkpt>
      <trkpt lat="30.95782" lon="-6.86009"></trkpt>
      <trkpt lat="30.95180" lon="-6.87177"></trkpt>
      <trkpt lat="30.93612" lon="-6.88922"></trkpt>
      <trkpt lat="30.93469" lon="-6.88996"></trkpt>
      <trkpt lat="30.92694" lon="-6.88994"></trkpt>
      <trkpt lat="30.92535" lon="-6.89068"></trkpt>
      <trkpt lat="30.92465" lon="-6.89208"></trkpt>
      <trkpt lat="30.92439" lon="-6.89167"></trkpt>
      <trkpt lat="30.92355" lon="-6.89141"></trkpt>
      <trkpt lat="30.92279" lon="-6.89151"></trkpt>
      <trkpt lat="30.92116" lon="-6.89117"></trkpt>
      <trkpt lat="30.92056" lon="-6.89059"></trkpt>
      <trkpt lat="30.92010" lon="-6.89137"></trkpt>
      <trkpt lat="30.92011" lon="-6.89279"></trkpt>
      <trkpt lat="30.91931" lon="-6.89557"></trkpt>
      <trkpt lat="30.91959" lon="-6.89594"></trkpt>
      <trkpt lat="30.92030" lon="-6.89607"></trkpt>
      <trkpt lat="30.92007" lon="-6.89728"></trkpt>
      <trkpt lat="30.92155" lon="-6.89738"></trkpt>
      <trkpt lat="30.92281" lon="-6.89675"></trkpt>
      <trkpt lat="30.92290" lon="-6.89688"></trkpt>
      <trkpt lat="30.92109" lon="-6.89791"></trkpt>
      <trkpt lat="30.92060" lon="-6.89848"></trkpt>
      <trkpt lat="30.92063" lon="-6.90103"></trkpt>
      <trkpt lat="30.91918" lon="-6.90116"></trkpt>
      <trkpt lat="30.91869" lon="-6.90204"></trkpt>
      <trkpt lat="30.91900" lon="-6.90386"></trkpt>
      <trkpt lat="30.91907" lon="-6.90743"></trkpt>
      <trkpt lat="30.92048" lon="-6.91216"></trkpt>
      <trkpt lat="30.92014" lon="-6.91965"></trkpt>
      <trkpt lat="30.92463" lon="-6.93246"></trkpt>
      <trkpt lat="30.92514" lon="-6.93333"></trkpt>
      <trkpt lat="30.92538" lon="-6.93454"></trkpt>
      <trkpt lat="30.93253" lon="-6.95467"></trkpt>
      <trkpt lat="30.93733" lon="-6.96232"></trkpt>
      <trkpt lat="30.93792" lon="-6.96388"></trkpt>
      <trkpt lat="30.94037" lon="-6.98456"></trkpt>
      <trkpt lat="30.94065" lon="-6.98558"></trkpt>
      <trkpt lat="30.94085" lon="-6.98852"></trkpt>
      <trkpt lat="30.94114" lon="-6.98915"></trkpt>
      <trkpt lat="30.94251" lon="-6.99012"></trkpt>
      <trkpt lat="30.94294" lon="-6.99100"></trkpt>
      <trkpt lat="30.94367" lon="-6.99684"></trkpt>
      <trkpt lat="30.94408" lon="-7.00357"></trkpt>
      <trkpt lat="30.94657" lon="-7.01110"></trkpt>
      <trkpt lat="30.94800" lon="-7.03321"></trkpt>
      <trkpt lat="30.94832" lon="-7.03509"></trkpt>
      <trkpt lat="30.94990" lon="-7.03809"></trkpt>
      <trkpt lat="30.95433" lon="-7.04305"></trkpt>
      <trkpt lat="30.95734" lon="-7.04503"></trkpt>
      <trkpt lat="30.96010" lon="-7.04545"></trkpt>
      <trkpt lat="30.96098" lon="-7.04602"></trkpt>
      <trkpt lat="30.97090" lon="-7.05847"></trkpt>
      <trkpt lat="30.97133" lon="-7.06098"></trkpt>
      <trkpt lat="30.97573" lon="-7.06436"></trkpt>
      <trkpt lat="30.97635" lon="-7.06528"></trkpt>
      <trkpt lat="30.97621" lon="-7.06618"></trkpt>
      <trkpt lat="30.97123" lon="-7.07228"></trkpt>
      <trkpt lat="30.97118" lon="-7.07269"></trkpt>
      <trkpt lat="30.97174" lon="-7.07380"></trkpt>
      <trkpt lat="30.97166" lon="-7.07416"></trkpt>
      <trkpt lat="30.96999" lon="-7.07504"></trkpt>
      <trkpt lat="30.96891" lon="-7.07528"></trkpt>
      <trkpt lat="30.96903" lon="-7.07642"></trkpt>
      <trkpt lat="30.96832" lon="-7.07705"></trkpt>
      <trkpt lat="30.96802" lon="-7.07877"></trkpt>
      <trkpt lat="30.96828" lon="-7.08505"></trkpt>
      <trkpt lat="30.96986" lon="-7.08892"></trkpt>
      <trkpt lat="30.97071" lon="-7.09195"></trkpt>
      <trkpt lat="30.97102" lon="-7.09224"></trkpt>
      <trkpt lat="30.97189" lon="-7.09220"></trkpt>
      <trkpt lat="30.97507" lon="-7.09349"></trkpt>
      <trkpt lat="30.97573" lon="-7.09446"></trkpt>
      <trkpt lat="30.97483" lon="-7.10394"></trkpt>
      <trkpt lat="30.97522" lon="-7.10437"></trkpt>
      <trkpt lat="30.97962" lon="-7.10353"></trkpt>
      <trkpt lat="30.98212" lon="-7.10566"></trkpt>
      <trkpt lat="30.98447" lon="-7.10626"></trkpt>
      <trkpt lat="30.98699" lon="-7.10560"></trkpt>
      <trkpt lat="30.98809" lon="-7.10477"></trkpt>
      <trkpt lat="30.98856" lon="-7.10473"></trkpt>
      <trkpt lat="30.99043" lon="-7.10535"></trkpt>
      <trkpt lat="30.99275" lon="-7.10710"></trkpt>
      <trkpt lat="30.99730" lon="-7.10711"></trkpt>
      <trkpt lat="30.99826" lon="-7.10681"></trkpt>
      <trkpt lat="31.00100" lon="-7.10470"></trkpt>
      <trkpt lat="31.00480" lon="-7.10437"></trkpt>
      <trkpt lat="31.00963" lon="-7.10215"></trkpt>
      <trkpt lat="31.01170" lon="-7.10232"></trkpt>
      <trkpt lat="31.01296" lon="-7.10306"></trkpt>
      <trkpt lat="31.01500" lon="-7.10511"></trkpt>
      <trkpt lat="31.01574" lon="-7.10619"></trkpt>
      <trkpt lat="31.01695" lon="-7.10907"></trkpt>
      <trkpt lat="31.01978" lon="-7.11226"></trkpt>
      <trkpt lat="31.02059" lon="-7.11303"></trkpt>
      <trkpt lat="31.02468" lon="-7.11555"></trkpt>
      <trkpt lat="31.02598" lon="-7.11666"></trkpt>
      <trkpt lat="31.02927" lon="-7.12113"></trkpt>
      <trkpt lat="31.03097" lon="-7.12204"></trkpt>
      <trkpt lat="31.03475" lon="-7.12306"></trkpt>
      <trkpt lat="31.03853" lon="-7.12502"></trkpt>
      <trkpt lat="31.03922" lon="-7.12568"></trkpt>
      <trkpt lat="31.04077" lon="-7.12809"></trkpt>
      <trkpt lat="31.04397" lon="-7.13186"></trkpt>
      <trkpt lat="31.04480" lon="-7.13080"></trkpt>
    </trkseg>
  </trk>
</gpx>
