<?xml version="1.0" encoding="UTF-8"?>
<gpx version="1.1" creator="Marokko Motorreis 2026"
     xmlns="http://www.topografix.com/GPX/1/1"
     xmlns:xsi="http://www.w3.org/2001/XMLSchema-instance"
     xsi:schemaLocation="http://www.topografix.com/GPX/1/1 http://www.topografix.com/GPX/1/1/gpx.xsd">
  <metadata><name>Dag 11 (22 okt) Almeria - Moraira</name><desc>397 km, ca. 4u54 rijden. Ontspannen laatste etappe langs de kust naar huis.</desc></metadata>
  <wpt lat="36.831943" lon="-2.476101"><name>Haven Almeria</name><sym>Flag, Blue</sym></wpt>
  <wpt lat="37.177461" lon="-1.822248"><name>Aguilas</name><sym>Flag, Blue</sym></wpt>
  <wpt lat="37.991916" lon="-1.131239"><name>Murcia</name><sym>Flag, Blue</sym></wpt>
  <wpt lat="38.345200" lon="-0.481000"><name>Alicante</name><sym>Flag, Blue</sym></wpt>
  <wpt lat="38.687186" lon="0.144026"><name>Moraira</name><sym>Flag, Blue</sym></wpt>
  <trk>
    <name>Dag 11 (22 okt) Almeria - Moraira</name>
    <desc>397 km, ca. 4u54 rijden. Ontspannen laatste etappe langs de kust naar huis.</desc>
    <trkseg>
      <trkpt lat="36.83194" lon="-2.47610"></trkpt>
      <trkpt lat="36.83226" lon="-2.47654"></trkpt>
      <trkpt lat="36.83267" lon="-2.47609"></trkpt>
      <trkpt lat="36.83529" lon="-2.47961"></trkpt>
      <trkpt lat="36.83573" lon="-2.47974"></trkpt>
      <trkpt lat="36.83619" lon="-2.47946"></trkpt>
      <trkpt lat="36.83647" lon="-2.47868"></trkpt>
      <trkpt lat="36.83697" lon="-2.47894"></trkpt>
      <trkpt lat="36.83722" lon="-2.47876"></trkpt>
      <trkpt lat="36.83714" lon="-2.47723"></trkpt>
      <trkpt lat="36.83749" lon="-2.47396"></trkpt>
      <trkpt lat="36.83735" lon="-2.47289"></trkpt>
      <trkpt lat="36.83586" lon="-2.46811"></trkpt>
      <trkpt lat="36.83339" lon="-2.46329"></trkpt>
      <trkpt lat="36.84157" lon="-2.45796"></trkpt>
      <trkpt lat="36.84432" lon="-2.45728"></trkpt>
      <trkpt lat="36.84553" lon="-2.45596"></trkpt>
      <trkpt lat="36.84792" lon="-2.45442"></trkpt>
      <trkpt lat="36.84952" lon="-2.45292"></trkpt>
      <trkpt lat="36.85287" lon="-2.45153"></trkpt>
      <trkpt lat="36.85579" lon="-2.44911"></trkpt>
      <trkpt lat="36.85655" lon="-2.44891"></trkpt>
      <trkpt lat="36.85916" lon="-2.44643"></trkpt>
      <trkpt lat="36.86143" lon="-2.44859"></trkpt>
      <trkpt lat="36.86355" lon="-2.44867"></trkpt>
      <trkpt lat="36.86420" lon="-2.44852"></trkpt>
      <trkpt lat="36.86450" lon="-2.44814"></trkpt>
      <trkpt lat="36.86500" lon="-2.44832"></trkpt>
      <trkpt lat="36.86556" lon="-2.44807"></trkpt>
      <trkpt lat="36.86703" lon="-2.44644"></trkpt>
      <trkpt lat="36.86814" lon="-2.44559"></trkpt>
      <trkpt lat="36.86885" lon="-2.44579"></trkpt>
      <trkpt lat="36.86935" lon="-2.44563"></trkpt>
      <trkpt lat="36.87179" lon="-2.44427"></trkpt>
      <trkpt lat="36.87237" lon="-2.44337"></trkpt>
      <trkpt lat="36.87255" lon="-2.44120"></trkpt>
      <trkpt lat="36.87294" lon="-2.44061"></trkpt>
      <trkpt lat="36.87682" lon="-2.43746"></trkpt>
      <trkpt lat="36.87876" lon="-2.43467"></trkpt>
      <trkpt lat="36.88014" lon="-2.43072"></trkpt>
      <trkpt lat="36.88177" lon="-2.42425"></trkpt>
      <trkpt lat="36.88263" lon="-2.42264"></trkpt>
      <trkpt lat="36.88728" lon="-2.41703"></trkpt>
      <trkpt lat="36.88793" lon="-2.41658"></trkpt>
      <trkpt lat="36.88477" lon="-2.40875"></trkpt>
      <trkpt lat="36.88398" lon="-2.40546"></trkpt>
      <trkpt lat="36.88350" lon="-2.40189"></trkpt>
      <trkpt lat="36.88342" lon="-2.39795"></trkpt>
      <trkpt lat="36.88445" lon="-2.38540"></trkpt>
      <trkpt lat="36.88457" lon="-2.37891"></trkpt>
      <trkpt lat="36.88412" lon="-2.37198"></trkpt>
      <trkpt lat="36.88325" lon="-2.36587"></trkpt>
      <trkpt lat="36.88222" lon="-2.36105"></trkpt>
      <trkpt lat="36.88049" lon="-2.35502"></trkpt>
      <trkpt lat="36.87364" lon="-2.33706"></trkpt>
      <trkpt lat="36.87216" lon="-2.33066"></trkpt>
      <trkpt lat="36.86981" lon="-2.32321"></trkpt>
      <trkpt lat="36.86888" lon="-2.31811"></trkpt>
      <trkpt lat="36.86859" lon="-2.31399"></trkpt>
      <trkpt lat="36.86868" lon="-2.31028"></trkpt>
      <trkpt lat="36.87170" lon="-2.28935"></trkpt>
      <trkpt lat="36.87181" lon="-2.28619"></trkpt>
      <trkpt lat="36.87148" lon="-2.28282"></trkpt>
      <trkpt lat="36.87076" lon="-2.27975"></trkpt>
      <trkpt lat="36.86997" lon="-2.27757"></trkpt>
      <trkpt lat="36.86468" lon="-2.26809"></trkpt>
      <trkpt lat="36.86248" lon="-2.26224"></trkpt>
      <trkpt lat="36.86189" lon="-2.25995"></trkpt>
      <trkpt lat="36.86196" lon="-2.25739"></trkpt>
      <trkpt lat="36.86293" lon="-2.25269"></trkpt>
      <trkpt lat="36.86687" lon="-2.23565"></trkpt>
      <trkpt lat="36.86778" lon="-2.23310"></trkpt>
      <trkpt lat="36.87404" lon="-2.22469"></trkpt>
      <trkpt lat="36.88005" lon="-2.21917"></trkpt>
      <trkpt lat="36.88178" lon="-2.21787"></trkpt>
      <trkpt lat="36.89037" lon="-2.21368"></trkpt>
      <trkpt lat="36.89166" lon="-2.21343"></trkpt>
      <trkpt lat="36.90689" lon="-2.21258"></trkpt>
      <trkpt lat="36.92166" lon="-2.21100"></trkpt>
      <trkpt lat="36.92708" lon="-2.20949"></trkpt>
      <trkpt lat="36.93486" lon="-2.20841"></trkpt>
      <trkpt lat="36.93691" lon="-2.20734"></trkpt>
      <trkpt lat="36.93848" lon="-2.20581"></trkpt>
      <trkpt lat="36.94011" lon="-2.20289"></trkpt>
      <trkpt lat="36.94261" lon="-2.19413"></trkpt>
      <trkpt lat="36.94342" lon="-2.19201"></trkpt>
      <trkpt lat="36.94497" lon="-2.18967"></trkpt>
      <trkpt lat="36.94883" lon="-2.18575"></trkpt>
      <trkpt lat="36.94974" lon="-2.18418"></trkpt>
      <trkpt lat="36.95011" lon="-2.18302"></trkpt>
      <trkpt lat="36.95035" lon="-2.18100"></trkpt>
      <trkpt lat="36.95018" lon="-2.17034"></trkpt>
      <trkpt lat="36.95072" lon="-2.16427"></trkpt>
      <trkpt lat="36.95085" lon="-2.15318"></trkpt>
      <trkpt lat="36.95264" lon="-2.13553"></trkpt>
      <trkpt lat="36.95401" lon="-2.12944"></trkpt>
      <trkpt lat="36.95511" lon="-2.12577"></trkpt>
      <trkpt lat="36.96753" lon="-2.09908"></trkpt>
      <trkpt lat="36.97084" lon="-2.09469"></trkpt>
      <trkpt lat="36.97634" lon="-2.08590"></trkpt>
      <trkpt lat="36.98194" lon="-2.07953"></trkpt>
      <trkpt lat="36.98682" lon="-2.07463"></trkpt>
      <trkpt lat="36.99166" lon="-2.06779"></trkpt>
      <trkpt lat="36.99331" lon="-2.06589"></trkpt>
      <trkpt lat="36.99689" lon="-2.06291"></trkpt>
      <trkpt lat="36.99963" lon="-2.05958"></trkpt>
      <trkpt lat="37.00072" lon="-2.05857"></trkpt>
      <trkpt lat="37.00221" lon="-2.05770"></trkpt>
      <trkpt lat="37.00473" lon="-2.05690"></trkpt>
      <trkpt lat="37.00619" lon="-2.05578"></trkpt>
      <trkpt lat="37.00722" lon="-2.05402"></trkpt>
      <trkpt lat="37.00804" lon="-2.04995"></trkpt>
      <trkpt lat="37.00874" lon="-2.04808"></trkpt>
      <trkpt lat="37.00965" lon="-2.04661"></trkpt>
      <trkpt lat="37.01097" lon="-2.04524"></trkpt>
      <trkpt lat="37.01299" lon="-2.04410"></trkpt>
      <trkpt lat="37.01526" lon="-2.04369"></trkpt>
      <trkpt lat="37.02208" lon="-2.04342"></trkpt>
      <trkpt lat="37.03139" lon="-2.04389"></trkpt>
      <trkpt lat="37.03248" lon="-2.04347"></trkpt>
      <trkpt lat="37.03350" lon="-2.04269"></trkpt>
      <trkpt lat="37.03555" lon="-2.03984"></trkpt>
      <trkpt lat="37.03779" lon="-2.03791"></trkpt>
      <trkpt lat="37.04012" lon="-2.03690"></trkpt>
      <trkpt lat="37.04292" lon="-2.03685"></trkpt>
      <trkpt lat="37.04483" lon="-2.03781"></trkpt>
      <trkpt lat="37.04666" lon="-2.03980"></trkpt>
      <trkpt lat="37.04770" lon="-2.04210"></trkpt>
      <trkpt lat="37.04886" lon="-2.04700"></trkpt>
      <trkpt lat="37.04974" lon="-2.04848"></trkpt>
      <trkpt lat="37.05136" lon="-2.04984"></trkpt>
      <trkpt lat="37.05270" lon="-2.05035"></trkpt>
      <trkpt lat="37.05833" lon="-2.05147"></trkpt>
      <trkpt lat="37.06454" lon="-2.05387"></trkpt>
      <trkpt lat="37.06771" lon="-2.05475"></trkpt>
      <trkpt lat="37.08208" lon="-2.05658"></trkpt>
      <trkpt lat="37.08320" lon="-2.05719"></trkpt>
      <trkpt lat="37.08433" lon="-2.05826"></trkpt>
      <trkpt lat="37.08733" lon="-2.06280"></trkpt>
      <trkpt lat="37.08911" lon="-2.06373"></trkpt>
      <trkpt lat="37.09061" lon="-2.06366"></trkpt>
      <trkpt lat="37.09222" lon="-2.06268"></trkpt>
      <trkpt lat="37.09343" lon="-2.06064"></trkpt>
      <trkpt lat="37.09370" lon="-2.05875"></trkpt>
      <trkpt lat="37.09354" lon="-2.05491"></trkpt>
      <trkpt lat="37.09401" lon="-2.05218"></trkpt>
      <trkpt lat="37.09755" lon="-2.04268"></trkpt>
      <trkpt lat="37.09953" lon="-2.03920"></trkpt>
      <trkpt lat="37.10750" lon="-2.03181"></trkpt>
      <trkpt lat="37.10887" lon="-2.02986"></trkpt>
      <trkpt lat="37.11118" lon="-2.02573"></trkpt>
      <trkpt lat="37.11319" lon="-2.02342"></trkpt>
      <trkpt lat="37.11461" lon="-2.02230"></trkpt>
      <trkpt lat="37.11831" lon="-2.02006"></trkpt>
      <trkpt lat="37.12361" lon="-2.01535"></trkpt>
      <trkpt lat="37.13057" lon="-2.01113"></trkpt>
      <trkpt lat="37.13589" lon="-2.00556"></trkpt>
      <trkpt lat="37.13811" lon="-2.00052"></trkpt>
      <trkpt lat="37.13912" lon="-1.99910"></trkpt>
      <trkpt lat="37.14110" lon="-1.99725"></trkpt>
      <trkpt lat="37.14198" lon="-1.99605"></trkpt>
      <trkpt lat="37.14384" lon="-1.99060"></trkpt>
      <trkpt lat="37.14643" lon="-1.98702"></trkpt>
      <trkpt lat="37.14734" lon="-1.98462"></trkpt>
      <trkpt lat="37.14748" lon="-1.98175"></trkpt>
      <trkpt lat="37.14528" lon="-1.96579"></trkpt>
      <trkpt lat="37.14541" lon="-1.96385"></trkpt>
      <trkpt lat="37.14603" lon="-1.96180"></trkpt>
      <trkpt lat="37.14702" lon="-1.96026"></trkpt>
      <trkpt lat="37.15134" lon="-1.95572"></trkpt>
      <trkpt lat="37.15613" lon="-1.95194"></trkpt>
      <trkpt lat="37.15672" lon="-1.95114"></trkpt>
      <trkpt lat="37.15754" lon="-1.94917"></trkpt>
      <trkpt lat="37.15807" lon="-1.94928"></trkpt>
      <trkpt lat="37.15999" lon="-1.94843"></trkpt>
      <trkpt lat="37.16188" lon="-1.94556"></trkpt>
      <trkpt lat="37.16428" lon="-1.94418"></trkpt>
      <trkpt lat="37.16500" lon="-1.94342"></trkpt>
      <trkpt lat="37.16548" lon="-1.94192"></trkpt>
      <trkpt lat="37.16610" lon="-1.93454"></trkpt>
      <trkpt lat="37.16654" lon="-1.93355"></trkpt>
      <trkpt lat="37.16800" lon="-1.93196"></trkpt>
      <trkpt lat="37.16834" lon="-1.93121"></trkpt>
      <trkpt lat="37.16831" lon="-1.93049"></trkpt>
      <trkpt lat="37.16582" lon="-1.92306"></trkpt>
      <trkpt lat="37.16456" lon="-1.91994"></trkpt>
      <trkpt lat="37.16418" lon="-1.91788"></trkpt>
      <trkpt lat="37.16459" lon="-1.90835"></trkpt>
      <trkpt lat="37.16527" lon="-1.90240"></trkpt>
      <trkpt lat="37.16542" lon="-1.89046"></trkpt>
      <trkpt lat="37.16184" lon="-1.86117"></trkpt>
      <trkpt lat="37.16085" lon="-1.85749"></trkpt>
      <trkpt lat="37.16077" lon="-1.85584"></trkpt>
      <trkpt lat="37.16151" lon="-1.85303"></trkpt>
      <trkpt lat="37.16379" lon="-1.84895"></trkpt>
      <trkpt lat="37.16922" lon="-1.83797"></trkpt>
      <trkpt lat="37.17409" lon="-1.82901"></trkpt>
      <trkpt lat="37.17506" lon="-1.82775"></trkpt>
      <trkpt lat="37.17470" lon="-1.82355"></trkpt>
      <trkpt lat="37.17568" lon="-1.82331"></trkpt>
      <trkpt lat="37.17563" lon="-1.82264"></trkpt>
      <trkpt lat="37.17896" lon="-1.82183"></trkpt>
      <trkpt lat="37.17923" lon="-1.82309"></trkpt>
      <trkpt lat="37.18042" lon="-1.82275"></trkpt>
      <trkpt lat="37.18085" lon="-1.82298"></trkpt>
      <trkpt lat="37.18095" lon="-1.82331"></trkpt>
      <trkpt lat="37.18379" lon="-1.82495"></trkpt>
      <trkpt lat="37.18465" lon="-1.82587"></trkpt>
      <trkpt lat="37.18550" lon="-1.82630"></trkpt>
      <trkpt lat="37.19817" lon="-1.82214"></trkpt>
      <trkpt lat="37.19899" lon="-1.82162"></trkpt>
      <trkpt lat="37.20014" lon="-1.82329"></trkpt>
      <trkpt lat="37.20543" lon="-1.82938"></trkpt>
      <trkpt lat="37.20633" lon="-1.82968"></trkpt>
      <trkpt lat="37.20970" lon="-1.82935"></trkpt>
      <trkpt lat="37.21072" lon="-1.82950"></trkpt>
      <trkpt lat="37.21159" lon="-1.83007"></trkpt>
      <trkpt lat="37.21487" lon="-1.83349"></trkpt>
      <trkpt lat="37.21578" lon="-1.83381"></trkpt>
      <trkpt lat="37.21935" lon="-1.83413"></trkpt>
      <trkpt lat="37.22299" lon="-1.83644"></trkpt>
      <trkpt lat="37.22652" lon="-1.84085"></trkpt>
      <trkpt lat="37.22950" lon="-1.84293"></trkpt>
      <trkpt lat="37.23601" lon="-1.85191"></trkpt>
      <trkpt lat="37.23645" lon="-1.85220"></trkpt>
      <trkpt lat="37.23687" lon="-1.85306"></trkpt>
      <trkpt lat="37.24036" lon="-1.85661"></trkpt>
      <trkpt lat="37.24087" lon="-1.85659"></trkpt>
      <trkpt lat="37.24220" lon="-1.85545"></trkpt>
      <trkpt lat="37.24435" lon="-1.85527"></trkpt>
      <trkpt lat="37.24633" lon="-1.85582"></trkpt>
      <trkpt lat="37.24830" lon="-1.85722"></trkpt>
      <trkpt lat="37.24973" lon="-1.85913"></trkpt>
      <trkpt lat="37.25530" lon="-1.87011"></trkpt>
      <trkpt lat="37.25571" lon="-1.87047"></trkpt>
      <trkpt lat="37.25571" lon="-1.87115"></trkpt>
      <trkpt lat="37.25708" lon="-1.87513"></trkpt>
      <trkpt lat="37.25820" lon="-1.88093"></trkpt>
      <trkpt lat="37.25826" lon="-1.88256"></trkpt>
      <trkpt lat="37.25761" lon="-1.88640"></trkpt>
      <trkpt lat="37.25634" lon="-1.88851"></trkpt>
      <trkpt lat="37.25918" lon="-1.89560"></trkpt>
      <trkpt lat="37.25972" lon="-1.90030"></trkpt>
      <trkpt lat="37.26053" lon="-1.90094"></trkpt>
      <trkpt lat="37.26093" lon="-1.90219"></trkpt>
      <trkpt lat="37.26138" lon="-1.90254"></trkpt>
      <trkpt lat="37.27080" lon="-1.90432"></trkpt>
      <trkpt lat="37.27352" lon="-1.90570"></trkpt>
      <trkpt lat="37.27612" lon="-1.90798"></trkpt>
      <trkpt lat="37.27804" lon="-1.91063"></trkpt>
      <trkpt lat="37.27955" lon="-1.91391"></trkpt>
      <trkpt lat="37.28053" lon="-1.91726"></trkpt>
      <trkpt lat="37.28304" lon="-1.92820"></trkpt>
      <trkpt lat="37.28369" lon="-1.93007"></trkpt>
      <trkpt lat="37.28474" lon="-1.93193"></trkpt>
      <trkpt lat="37.28620" lon="-1.93360"></trkpt>
      <trkpt lat="37.29618" lon="-1.94243"></trkpt>
      <trkpt lat="37.31073" lon="-1.95770"></trkpt>
      <trkpt lat="37.31284" lon="-1.96027"></trkpt>
      <trkpt lat="37.31656" lon="-1.96580"></trkpt>
      <trkpt lat="37.31865" lon="-1.96765"></trkpt>
      <trkpt lat="37.32020" lon="-1.96830"></trkpt>
      <trkpt lat="37.32195" lon="-1.96855"></trkpt>
      <trkpt lat="37.33273" lon="-1.96761"></trkpt>
      <trkpt lat="37.33464" lon="-1.96716"></trkpt>
      <trkpt lat="37.33851" lon="-1.96555"></trkpt>
      <trkpt lat="37.34087" lon="-1.96547"></trkpt>
      <trkpt lat="37.34345" lon="-1.96640"></trkpt>
      <trkpt lat="37.34723" lon="-1.96936"></trkpt>
      <trkpt lat="37.35119" lon="-1.97144"></trkpt>
      <trkpt lat="37.35278" lon="-1.97188"></trkpt>
      <trkpt lat="37.35418" lon="-1.97185"></trkpt>
      <trkpt lat="37.35598" lon="-1.97121"></trkpt>
      <trkpt lat="37.35891" lon="-1.96953"></trkpt>
      <trkpt lat="37.36295" lon="-1.96844"></trkpt>
      <trkpt lat="37.36544" lon="-1.96725"></trkpt>
      <trkpt lat="37.36846" lon="-1.96475"></trkpt>
      <trkpt lat="37.37459" lon="-1.95777"></trkpt>
      <trkpt lat="37.37667" lon="-1.95641"></trkpt>
      <trkpt lat="37.37902" lon="-1.95584"></trkpt>
      <trkpt lat="37.38107" lon="-1.95605"></trkpt>
      <trkpt lat="37.38282" lon="-1.95678"></trkpt>
      <trkpt lat="37.38403" lon="-1.95764"></trkpt>
      <trkpt lat="37.38829" lon="-1.96161"></trkpt>
      <trkpt lat="37.39140" lon="-1.96324"></trkpt>
      <trkpt lat="37.39480" lon="-1.96409"></trkpt>
      <trkpt lat="37.39874" lon="-1.96393"></trkpt>
      <trkpt lat="37.40145" lon="-1.96307"></trkpt>
      <trkpt lat="37.40421" lon="-1.96151"></trkpt>
      <trkpt lat="37.40696" lon="-1.95904"></trkpt>
      <trkpt lat="37.40864" lon="-1.95684"></trkpt>
      <trkpt lat="37.41217" lon="-1.95048"></trkpt>
      <trkpt lat="37.41590" lon="-1.94542"></trkpt>
      <trkpt lat="37.41825" lon="-1.94162"></trkpt>
      <trkpt lat="37.41995" lon="-1.93825"></trkpt>
      <trkpt lat="37.42291" lon="-1.93111"></trkpt>
      <trkpt lat="37.42520" lon="-1.92682"></trkpt>
      <trkpt lat="37.43161" lon="-1.91761"></trkpt>
      <trkpt lat="37.43675" lon="-1.90834"></trkpt>
      <trkpt lat="37.43850" lon="-1.90599"></trkpt>
      <trkpt lat="37.47781" lon="-1.87265"></trkpt>
      <trkpt lat="37.47955" lon="-1.87072"></trkpt>
      <trkpt lat="37.48152" lon="-1.86795"></trkpt>
      <trkpt lat="37.48704" lon="-1.85784"></trkpt>
      <trkpt lat="37.48994" lon="-1.85376"></trkpt>
      <trkpt lat="37.52189" lon="-1.82188"></trkpt>
      <trkpt lat="37.53187" lon="-1.81600"></trkpt>
      <trkpt lat="37.53374" lon="-1.81532"></trkpt>
      <trkpt lat="37.53544" lon="-1.81505"></trkpt>
      <trkpt lat="37.53713" lon="-1.81509"></trkpt>
      <trkpt lat="37.53925" lon="-1.81559"></trkpt>
      <trkpt lat="37.54405" lon="-1.81823"></trkpt>
      <trkpt lat="37.54676" lon="-1.81914"></trkpt>
      <trkpt lat="37.54964" lon="-1.81932"></trkpt>
      <trkpt lat="37.55481" lon="-1.81854"></trkpt>
      <trkpt lat="37.55623" lon="-1.81875"></trkpt>
      <trkpt lat="37.56254" lon="-1.82069"></trkpt>
      <trkpt lat="37.56392" lon="-1.82063"></trkpt>
      <trkpt lat="37.56518" lon="-1.82005"></trkpt>
      <trkpt lat="37.56626" lon="-1.81901"></trkpt>
      <trkpt lat="37.56713" lon="-1.81733"></trkpt>
      <trkpt lat="37.56767" lon="-1.81202"></trkpt>
      <trkpt lat="37.56871" lon="-1.80901"></trkpt>
      <trkpt lat="37.57183" lon="-1.80499"></trkpt>
      <trkpt lat="37.57354" lon="-1.80113"></trkpt>
      <trkpt lat="37.57448" lon="-1.79960"></trkpt>
      <trkpt lat="37.57727" lon="-1.79644"></trkpt>
      <trkpt lat="37.57972" lon="-1.79255"></trkpt>
      <trkpt lat="37.58393" lon="-1.78807"></trkpt>
      <trkpt lat="37.58529" lon="-1.78492"></trkpt>
      <trkpt lat="37.58638" lon="-1.78333"></trkpt>
      <trkpt lat="37.61767" lon="-1.75090"></trkpt>
      <trkpt lat="37.61978" lon="-1.74975"></trkpt>
      <trkpt lat="37.62379" lon="-1.74884"></trkpt>
      <trkpt lat="37.62666" lon="-1.74757"></trkpt>
      <trkpt lat="37.62897" lon="-1.74588"></trkpt>
      <trkpt lat="37.63228" lon="-1.74273"></trkpt>
      <trkpt lat="37.63486" lon="-1.74103"></trkpt>
      <trkpt lat="37.63671" lon="-1.74025"></trkpt>
      <trkpt lat="37.64219" lon="-1.73923"></trkpt>
      <trkpt lat="37.64444" lon="-1.73775"></trkpt>
      <trkpt lat="37.64539" lon="-1.73664"></trkpt>
      <trkpt lat="37.64652" lon="-1.73456"></trkpt>
      <trkpt lat="37.64754" lon="-1.73044"></trkpt>
      <trkpt lat="37.64818" lon="-1.72880"></trkpt>
      <trkpt lat="37.65066" lon="-1.72534"></trkpt>
      <trkpt lat="37.65192" lon="-1.72149"></trkpt>
      <trkpt lat="37.65318" lon="-1.71963"></trkpt>
      <trkpt lat="37.65450" lon="-1.71877"></trkpt>
      <trkpt lat="37.65902" lon="-1.71761"></trkpt>
      <trkpt lat="37.66031" lon="-1.71694"></trkpt>
      <trkpt lat="37.66142" lon="-1.71577"></trkpt>
      <trkpt lat="37.66468" lon="-1.71114"></trkpt>
      <trkpt lat="37.66618" lon="-1.70994"></trkpt>
      <trkpt lat="37.66762" lon="-1.70951"></trkpt>
      <trkpt lat="37.66986" lon="-1.70939"></trkpt>
      <trkpt lat="37.67364" lon="-1.70748"></trkpt>
      <trkpt lat="37.67640" lon="-1.70744"></trkpt>
      <trkpt lat="37.67773" lon="-1.70811"></trkpt>
      <trkpt lat="37.67864" lon="-1.70911"></trkpt>
      <trkpt lat="37.67978" lon="-1.70989"></trkpt>
      <trkpt lat="37.68185" lon="-1.71052"></trkpt>
      <trkpt lat="37.68337" lon="-1.71064"></trkpt>
      <trkpt lat="37.69013" lon="-1.71022"></trkpt>
      <trkpt lat="37.69201" lon="-1.70921"></trkpt>
      <trkpt lat="37.69326" lon="-1.70790"></trkpt>
      <trkpt lat="37.69585" lon="-1.70316"></trkpt>
      <trkpt lat="37.69637" lon="-1.70125"></trkpt>
      <trkpt lat="37.69649" lon="-1.69960"></trkpt>
      <trkpt lat="37.69607" lon="-1.69692"></trkpt>
      <trkpt lat="37.69437" lon="-1.69125"></trkpt>
      <trkpt lat="37.69351" lon="-1.68977"></trkpt>
      <trkpt lat="37.69096" lon="-1.68669"></trkpt>
      <trkpt lat="37.69036" lon="-1.68536"></trkpt>
      <trkpt lat="37.69007" lon="-1.68396"></trkpt>
      <trkpt lat="37.69028" lon="-1.68134"></trkpt>
      <trkpt lat="37.69138" lon="-1.67789"></trkpt>
      <trkpt lat="37.69175" lon="-1.67074"></trkpt>
      <trkpt lat="37.69251" lon="-1.66660"></trkpt>
      <trkpt lat="37.69370" lon="-1.66284"></trkpt>
      <trkpt lat="37.69663" lon="-1.65647"></trkpt>
      <trkpt lat="37.69738" lon="-1.65365"></trkpt>
      <trkpt lat="37.69790" lon="-1.65032"></trkpt>
      <trkpt lat="37.69862" lon="-1.64795"></trkpt>
      <trkpt lat="37.70280" lon="-1.64101"></trkpt>
      <trkpt lat="37.70533" lon="-1.63269"></trkpt>
      <trkpt lat="37.70578" lon="-1.62996"></trkpt>
      <trkpt lat="37.70580" lon="-1.62354"></trkpt>
      <trkpt lat="37.70778" lon="-1.61323"></trkpt>
      <trkpt lat="37.70895" lon="-1.60980"></trkpt>
      <trkpt lat="37.71263" lon="-1.60414"></trkpt>
      <trkpt lat="37.71419" lon="-1.60024"></trkpt>
      <trkpt lat="37.71482" lon="-1.59692"></trkpt>
      <trkpt lat="37.71523" lon="-1.58841"></trkpt>
      <trkpt lat="37.71657" lon="-1.58256"></trkpt>
      <trkpt lat="37.71796" lon="-1.57910"></trkpt>
      <trkpt lat="37.73065" lon="-1.55183"></trkpt>
      <trkpt lat="37.73137" lon="-1.54818"></trkpt>
      <trkpt lat="37.73125" lon="-1.54195"></trkpt>
      <trkpt lat="37.73207" lon="-1.53878"></trkpt>
      <trkpt lat="37.73302" lon="-1.53696"></trkpt>
      <trkpt lat="37.73407" lon="-1.53563"></trkpt>
      <trkpt lat="37.73749" lon="-1.53290"></trkpt>
      <trkpt lat="37.73935" lon="-1.53077"></trkpt>
      <trkpt lat="37.74094" lon="-1.52785"></trkpt>
      <trkpt lat="37.74210" lon="-1.52473"></trkpt>
      <trkpt lat="37.74297" lon="-1.52137"></trkpt>
      <trkpt lat="37.74359" lon="-1.51722"></trkpt>
      <trkpt lat="37.74472" lon="-1.50011"></trkpt>
      <trkpt lat="37.74596" lon="-1.49090"></trkpt>
      <trkpt lat="37.74720" lon="-1.48555"></trkpt>
      <trkpt lat="37.74880" lon="-1.48053"></trkpt>
      <trkpt lat="37.75067" lon="-1.47591"></trkpt>
      <trkpt lat="37.75336" lon="-1.47070"></trkpt>
      <trkpt lat="37.75771" lon="-1.46429"></trkpt>
      <trkpt lat="37.76221" lon="-1.45955"></trkpt>
      <trkpt lat="37.76619" lon="-1.45642"></trkpt>
      <trkpt lat="37.77712" lon="-1.44920"></trkpt>
      <trkpt lat="37.78212" lon="-1.44497"></trkpt>
      <trkpt lat="37.78472" lon="-1.44211"></trkpt>
      <trkpt lat="37.78669" lon="-1.43951"></trkpt>
      <trkpt lat="37.79229" lon="-1.43071"></trkpt>
      <trkpt lat="37.79494" lon="-1.42787"></trkpt>
      <trkpt lat="37.79711" lon="-1.42626"></trkpt>
      <trkpt lat="37.80013" lon="-1.42475"></trkpt>
      <trkpt lat="37.80231" lon="-1.42413"></trkpt>
      <trkpt lat="37.80917" lon="-1.42302"></trkpt>
      <trkpt lat="37.81144" lon="-1.42214"></trkpt>
      <trkpt lat="37.81378" lon="-1.42084"></trkpt>
      <trkpt lat="37.81651" lon="-1.41867"></trkpt>
      <trkpt lat="37.81867" lon="-1.41639"></trkpt>
      <trkpt lat="37.82448" lon="-1.40846"></trkpt>
      <trkpt lat="37.82648" lon="-1.40609"></trkpt>
      <trkpt lat="37.82937" lon="-1.40338"></trkpt>
      <trkpt lat="37.83129" lon="-1.40197"></trkpt>
      <trkpt lat="37.83530" lon="-1.39978"></trkpt>
      <trkpt lat="37.83792" lon="-1.39884"></trkpt>
      <trkpt lat="37.84045" lon="-1.39826"></trkpt>
      <trkpt lat="37.84407" lon="-1.39796"></trkpt>
      <trkpt lat="37.84680" lon="-1.39814"></trkpt>
      <trkpt lat="37.85355" lon="-1.39982"></trkpt>
      <trkpt lat="37.85524" lon="-1.39999"></trkpt>
      <trkpt lat="37.85808" lon="-1.39937"></trkpt>
      <trkpt lat="37.86068" lon="-1.39753"></trkpt>
      <trkpt lat="37.86270" lon="-1.39468"></trkpt>
      <trkpt lat="37.87789" lon="-1.36536"></trkpt>
      <trkpt lat="37.87890" lon="-1.36410"></trkpt>
      <trkpt lat="37.88008" lon="-1.36310"></trkpt>
      <trkpt lat="37.88798" lon="-1.35825"></trkpt>
      <trkpt lat="37.88916" lon="-1.35711"></trkpt>
      <trkpt lat="37.89060" lon="-1.35511"></trkpt>
      <trkpt lat="37.89199" lon="-1.35167"></trkpt>
      <trkpt lat="37.89233" lon="-1.34972"></trkpt>
      <trkpt lat="37.89285" lon="-1.34180"></trkpt>
      <trkpt lat="37.89345" lon="-1.33955"></trkpt>
      <trkpt lat="37.89427" lon="-1.33780"></trkpt>
      <trkpt lat="37.90161" lon="-1.32675"></trkpt>
      <trkpt lat="37.90531" lon="-1.32238"></trkpt>
      <trkpt lat="37.90790" lon="-1.31757"></trkpt>
      <trkpt lat="37.91073" lon="-1.31301"></trkpt>
      <trkpt lat="37.91927" lon="-1.30122"></trkpt>
      <trkpt lat="37.92034" lon="-1.29861"></trkpt>
      <trkpt lat="37.92165" lon="-1.29278"></trkpt>
      <trkpt lat="37.92275" lon="-1.29048"></trkpt>
      <trkpt lat="37.93024" lon="-1.28089"></trkpt>
      <trkpt lat="37.93554" lon="-1.27338"></trkpt>
      <trkpt lat="37.93733" lon="-1.27186"></trkpt>
      <trkpt lat="37.94162" lon="-1.26965"></trkpt>
      <trkpt lat="37.94425" lon="-1.26764"></trkpt>
      <trkpt lat="37.94663" lon="-1.26501"></trkpt>
      <trkpt lat="37.95169" lon="-1.25794"></trkpt>
      <trkpt lat="37.95341" lon="-1.25624"></trkpt>
      <trkpt lat="37.95548" lon="-1.25470"></trkpt>
      <trkpt lat="37.95900" lon="-1.25300"></trkpt>
      <trkpt lat="37.96767" lon="-1.25053"></trkpt>
      <trkpt lat="37.97198" lon="-1.24905"></trkpt>
      <trkpt lat="37.98042" lon="-1.24529"></trkpt>
      <trkpt lat="37.99295" lon="-1.23852"></trkpt>
      <trkpt lat="37.99641" lon="-1.23548"></trkpt>
      <trkpt lat="37.99832" lon="-1.23290"></trkpt>
      <trkpt lat="37.99965" lon="-1.23050"></trkpt>
      <trkpt lat="38.00109" lon="-1.22665"></trkpt>
      <trkpt lat="38.00187" lon="-1.22273"></trkpt>
      <trkpt lat="38.00207" lon="-1.21952"></trkpt>
      <trkpt lat="38.00174" lon="-1.21531"></trkpt>
      <trkpt lat="38.00086" lon="-1.21047"></trkpt>
      <trkpt lat="37.99784" lon="-1.19811"></trkpt>
      <trkpt lat="37.99770" lon="-1.19467"></trkpt>
      <trkpt lat="37.99861" lon="-1.19098"></trkpt>
      <trkpt lat="38.00099" lon="-1.18675"></trkpt>
      <trkpt lat="38.00225" lon="-1.18348"></trkpt>
      <trkpt lat="38.00293" lon="-1.17983"></trkpt>
      <trkpt lat="38.00329" lon="-1.17413"></trkpt>
      <trkpt lat="38.00415" lon="-1.17124"></trkpt>
      <trkpt lat="38.00553" lon="-1.16863"></trkpt>
      <trkpt lat="38.00569" lon="-1.16757"></trkpt>
      <trkpt lat="38.00530" lon="-1.16639"></trkpt>
      <trkpt lat="38.00341" lon="-1.16416"></trkpt>
      <trkpt lat="38.00239" lon="-1.16241"></trkpt>
      <trkpt lat="38.00033" lon="-1.15562"></trkpt>
      <trkpt lat="37.99865" lon="-1.15255"></trkpt>
      <trkpt lat="37.99692" lon="-1.15056"></trkpt>
      <trkpt lat="37.99372" lon="-1.14783"></trkpt>
      <trkpt lat="37.99230" lon="-1.14694"></trkpt>
      <trkpt lat="37.99074" lon="-1.14713"></trkpt>
      <trkpt lat="37.99028" lon="-1.14676"></trkpt>
      <trkpt lat="37.99030" lon="-1.14609"></trkpt>
      <trkpt lat="37.99274" lon="-1.14167"></trkpt>
      <trkpt lat="37.99290" lon="-1.14091"></trkpt>
      <trkpt lat="37.99131" lon="-1.13560"></trkpt>
      <trkpt lat="37.99129" lon="-1.13479"></trkpt>
      <trkpt lat="37.99199" lon="-1.13146"></trkpt>
      <trkpt lat="37.99163" lon="-1.13039"></trkpt>
      <trkpt lat="37.99211" lon="-1.12951"></trkpt>
      <trkpt lat="37.99145" lon="-1.12370"></trkpt>
      <trkpt lat="37.99291" lon="-1.12415"></trkpt>
      <trkpt lat="37.99358" lon="-1.12403"></trkpt>
      <trkpt lat="38.00312" lon="-1.12880"></trkpt>
      <trkpt lat="38.00870" lon="-1.12954"></trkpt>
      <trkpt lat="38.01098" lon="-1.13045"></trkpt>
      <trkpt lat="38.01136" lon="-1.13042"></trkpt>
      <trkpt lat="38.01185" lon="-1.13122"></trkpt>
      <trkpt lat="38.01702" lon="-1.13663"></trkpt>
      <trkpt lat="38.02011" lon="-1.13914"></trkpt>
      <trkpt lat="38.02084" lon="-1.13926"></trkpt>
      <trkpt lat="38.02116" lon="-1.14002"></trkpt>
      <trkpt lat="38.02454" lon="-1.14379"></trkpt>
      <trkpt lat="38.02514" lon="-1.14386"></trkpt>
      <trkpt lat="38.02521" lon="-1.14461"></trkpt>
      <trkpt lat="38.02953" lon="-1.15188"></trkpt>
      <trkpt lat="38.03200" lon="-1.15206"></trkpt>
      <trkpt lat="38.03416" lon="-1.14948"></trkpt>
      <trkpt lat="38.03859" lon="-1.14339"></trkpt>
      <trkpt lat="38.04101" lon="-1.13942"></trkpt>
      <trkpt lat="38.04246" lon="-1.13633"></trkpt>
      <trkpt lat="38.04572" lon="-1.12787"></trkpt>
      <trkpt lat="38.04956" lon="-1.12075"></trkpt>
      <trkpt lat="38.05135" lon="-1.11894"></trkpt>
      <trkpt lat="38.05546" lon="-1.11680"></trkpt>
      <trkpt lat="38.05689" lon="-1.11571"></trkpt>
      <trkpt lat="38.05818" lon="-1.11419"></trkpt>
      <trkpt lat="38.06067" lon="-1.11043"></trkpt>
      <trkpt lat="38.06412" lon="-1.10740"></trkpt>
      <trkpt lat="38.06558" lon="-1.10500"></trkpt>
      <trkpt lat="38.06673" lon="-1.10135"></trkpt>
      <trkpt lat="38.06800" lon="-1.09907"></trkpt>
      <trkpt lat="38.06936" lon="-1.09766"></trkpt>
      <trkpt lat="38.07234" lon="-1.09596"></trkpt>
      <trkpt lat="38.07393" lon="-1.09454"></trkpt>
      <trkpt lat="38.07678" lon="-1.08961"></trkpt>
      <trkpt lat="38.08002" lon="-1.08485"></trkpt>
      <trkpt lat="38.08315" lon="-1.08110"></trkpt>
      <trkpt lat="38.08791" lon="-1.07632"></trkpt>
      <trkpt lat="38.08993" lon="-1.07360"></trkpt>
      <trkpt lat="38.09126" lon="-1.07118"></trkpt>
      <trkpt lat="38.09230" lon="-1.06866"></trkpt>
      <trkpt lat="38.09331" lon="-1.06498"></trkpt>
      <trkpt lat="38.09405" lon="-1.05766"></trkpt>
      <trkpt lat="38.09452" lon="-1.05502"></trkpt>
      <trkpt lat="38.09756" lon="-1.04526"></trkpt>
      <trkpt lat="38.09996" lon="-1.03899"></trkpt>
      <trkpt lat="38.10230" lon="-1.03412"></trkpt>
      <trkpt lat="38.10486" lon="-1.03028"></trkpt>
      <trkpt lat="38.10877" lon="-1.02581"></trkpt>
      <trkpt lat="38.11019" lon="-1.02326"></trkpt>
      <trkpt lat="38.11155" lon="-1.01852"></trkpt>
      <trkpt lat="38.11380" lon="-1.00892"></trkpt>
      <trkpt lat="38.11742" lon="-0.99895"></trkpt>
      <trkpt lat="38.11832" lon="-0.99388"></trkpt>
      <trkpt lat="38.11823" lon="-0.98518"></trkpt>
      <trkpt lat="38.11855" lon="-0.97971"></trkpt>
      <trkpt lat="38.11899" lon="-0.97664"></trkpt>
      <trkpt lat="38.11986" lon="-0.97359"></trkpt>
      <trkpt lat="38.12683" lon="-0.95869"></trkpt>
      <trkpt lat="38.13414" lon="-0.94546"></trkpt>
      <trkpt lat="38.13664" lon="-0.94198"></trkpt>
      <trkpt lat="38.14239" lon="-0.93561"></trkpt>
      <trkpt lat="38.14659" lon="-0.92892"></trkpt>
      <trkpt lat="38.15004" lon="-0.92444"></trkpt>
      <trkpt lat="38.15087" lon="-0.92302"></trkpt>
      <trkpt lat="38.15156" lon="-0.92121"></trkpt>
      <trkpt lat="38.15199" lon="-0.91900"></trkpt>
      <trkpt lat="38.15199" lon="-0.91631"></trkpt>
      <trkpt lat="38.15132" lon="-0.91255"></trkpt>
      <trkpt lat="38.15123" lon="-0.91040"></trkpt>
      <trkpt lat="38.15152" lon="-0.90782"></trkpt>
      <trkpt lat="38.15232" lon="-0.90472"></trkpt>
      <trkpt lat="38.15353" lon="-0.90199"></trkpt>
      <trkpt lat="38.15646" lon="-0.89705"></trkpt>
      <trkpt lat="38.15841" lon="-0.89321"></trkpt>
      <trkpt lat="38.16037" lon="-0.88849"></trkpt>
      <trkpt lat="38.16399" lon="-0.87790"></trkpt>
      <trkpt lat="38.16618" lon="-0.87317"></trkpt>
      <trkpt lat="38.16838" lon="-0.86924"></trkpt>
      <trkpt lat="38.17303" lon="-0.86276"></trkpt>
      <trkpt lat="38.17891" lon="-0.85653"></trkpt>
      <trkpt lat="38.18302" lon="-0.85138"></trkpt>
      <trkpt lat="38.19053" lon="-0.84425"></trkpt>
      <trkpt lat="38.19260" lon="-0.84156"></trkpt>
      <trkpt lat="38.19550" lon="-0.83672"></trkpt>
      <trkpt lat="38.19668" lon="-0.83525"></trkpt>
      <trkpt lat="38.19814" lon="-0.83405"></trkpt>
      <trkpt lat="38.20152" lon="-0.83190"></trkpt>
      <trkpt lat="38.20574" lon="-0.83022"></trkpt>
      <trkpt lat="38.20788" lon="-0.82899"></trkpt>
      <trkpt lat="38.21043" lon="-0.82690"></trkpt>
      <trkpt lat="38.21291" lon="-0.82409"></trkpt>
      <trkpt lat="38.21655" lon="-0.81893"></trkpt>
      <trkpt lat="38.21945" lon="-0.81361"></trkpt>
      <trkpt lat="38.22142" lon="-0.80902"></trkpt>
      <trkpt lat="38.22374" lon="-0.80181"></trkpt>
      <trkpt lat="38.22809" lon="-0.79275"></trkpt>
      <trkpt lat="38.22964" lon="-0.79112"></trkpt>
      <trkpt lat="38.23326" lon="-0.78879"></trkpt>
      <trkpt lat="38.23507" lon="-0.78723"></trkpt>
      <trkpt lat="38.23853" lon="-0.78308"></trkpt>
      <trkpt lat="38.24158" lon="-0.78036"></trkpt>
      <trkpt lat="38.24252" lon="-0.77887"></trkpt>
      <trkpt lat="38.24369" lon="-0.77592"></trkpt>
      <trkpt lat="38.24483" lon="-0.77409"></trkpt>
      <trkpt lat="38.24661" lon="-0.77173"></trkpt>
      <trkpt lat="38.25058" lon="-0.76727"></trkpt>
      <trkpt lat="38.25267" lon="-0.76416"></trkpt>
      <trkpt lat="38.25541" lon="-0.76145"></trkpt>
      <trkpt lat="38.25767" lon="-0.75773"></trkpt>
      <trkpt lat="38.25977" lon="-0.75605"></trkpt>
      <trkpt lat="38.26320" lon="-0.75502"></trkpt>
      <trkpt lat="38.26496" lon="-0.75399"></trkpt>
      <trkpt lat="38.26610" lon="-0.75299"></trkpt>
      <trkpt lat="38.26820" lon="-0.75008"></trkpt>
      <trkpt lat="38.26963" lon="-0.74860"></trkpt>
      <trkpt lat="38.27328" lon="-0.74636"></trkpt>
      <trkpt lat="38.27567" lon="-0.74455"></trkpt>
      <trkpt lat="38.27898" lon="-0.74268"></trkpt>
      <trkpt lat="38.28040" lon="-0.74117"></trkpt>
      <trkpt lat="38.28129" lon="-0.73962"></trkpt>
      <trkpt lat="38.28192" lon="-0.73780"></trkpt>
      <trkpt lat="38.28261" lon="-0.73382"></trkpt>
      <trkpt lat="38.28423" lon="-0.72909"></trkpt>
      <trkpt lat="38.28542" lon="-0.72128"></trkpt>
      <trkpt lat="38.28625" lon="-0.71919"></trkpt>
      <trkpt lat="38.28845" lon="-0.71560"></trkpt>
      <trkpt lat="38.28879" lon="-0.71408"></trkpt>
      <trkpt lat="38.28885" lon="-0.71107"></trkpt>
      <trkpt lat="38.28917" lon="-0.70930"></trkpt>
      <trkpt lat="38.29110" lon="-0.70556"></trkpt>
      <trkpt lat="38.29152" lon="-0.70428"></trkpt>
      <trkpt lat="38.29202" lon="-0.70038"></trkpt>
      <trkpt lat="38.29325" lon="-0.69574"></trkpt>
      <trkpt lat="38.29351" lon="-0.68949"></trkpt>
      <trkpt lat="38.29601" lon="-0.68145"></trkpt>
      <trkpt lat="38.29825" lon="-0.67221"></trkpt>
      <trkpt lat="38.30001" lon="-0.66148"></trkpt>
      <trkpt lat="38.30008" lon="-0.65886"></trkpt>
      <trkpt lat="38.29964" lon="-0.65547"></trkpt>
      <trkpt lat="38.29964" lon="-0.65325"></trkpt>
      <trkpt lat="38.30071" lon="-0.64798"></trkpt>
      <trkpt lat="38.30055" lon="-0.64319"></trkpt>
      <trkpt lat="38.30192" lon="-0.63845"></trkpt>
      <trkpt lat="38.30171" lon="-0.63461"></trkpt>
      <trkpt lat="38.30184" lon="-0.63289"></trkpt>
      <trkpt lat="38.30339" lon="-0.62740"></trkpt>
      <trkpt lat="38.30457" lon="-0.61949"></trkpt>
      <trkpt lat="38.30545" lon="-0.61682"></trkpt>
      <trkpt lat="38.30752" lon="-0.61210"></trkpt>
      <trkpt lat="38.30871" lon="-0.60721"></trkpt>
      <trkpt lat="38.30898" lon="-0.60291"></trkpt>
      <trkpt lat="38.30869" lon="-0.59932"></trkpt>
      <trkpt lat="38.30663" lon="-0.59123"></trkpt>
      <trkpt lat="38.30596" lon="-0.58679"></trkpt>
      <trkpt lat="38.30600" lon="-0.58215"></trkpt>
      <trkpt lat="38.30666" lon="-0.57835"></trkpt>
      <trkpt lat="38.30907" lon="-0.57050"></trkpt>
      <trkpt lat="38.30987" lon="-0.56886"></trkpt>
      <trkpt lat="38.31116" lon="-0.56717"></trkpt>
      <trkpt lat="38.31442" lon="-0.56462"></trkpt>
      <trkpt lat="38.31834" lon="-0.56069"></trkpt>
      <trkpt lat="38.32040" lon="-0.55924"></trkpt>
      <trkpt lat="38.32359" lon="-0.55776"></trkpt>
      <trkpt lat="38.32885" lon="-0.55647"></trkpt>
      <trkpt lat="38.33154" lon="-0.55493"></trkpt>
      <trkpt lat="38.33395" lon="-0.55244"></trkpt>
      <trkpt lat="38.33679" lon="-0.54769"></trkpt>
      <trkpt lat="38.33963" lon="-0.54411"></trkpt>
      <trkpt lat="38.33931" lon="-0.54167"></trkpt>
      <trkpt lat="38.33680" lon="-0.53202"></trkpt>
      <trkpt lat="38.33385" lon="-0.52429"></trkpt>
      <trkpt lat="38.33354" lon="-0.52178"></trkpt>
      <trkpt lat="38.33366" lon="-0.51581"></trkpt>
      <trkpt lat="38.33541" lon="-0.50809"></trkpt>
      <trkpt lat="38.33524" lon="-0.50752"></trkpt>
      <trkpt lat="38.33361" lon="-0.50519"></trkpt>
      <trkpt lat="38.33488" lon="-0.50374"></trkpt>
      <trkpt lat="38.33744" lon="-0.49983"></trkpt>
      <trkpt lat="38.33832" lon="-0.49398"></trkpt>
      <trkpt lat="38.33820" lon="-0.49339"></trkpt>
      <trkpt lat="38.33739" lon="-0.49326"></trkpt>
      <trkpt lat="38.33727" lon="-0.49298"></trkpt>
      <trkpt lat="38.33796" lon="-0.49078"></trkpt>
      <trkpt lat="38.33906" lon="-0.48851"></trkpt>
      <trkpt lat="38.34204" lon="-0.48536"></trkpt>
      <trkpt lat="38.34425" lon="-0.47973"></trkpt>
      <trkpt lat="38.34464" lon="-0.47931"></trkpt>
      <trkpt lat="38.34486" lon="-0.47960"></trkpt>
      <trkpt lat="38.34468" lon="-0.47994"></trkpt>
      <trkpt lat="38.34531" lon="-0.48077"></trkpt>
      <trkpt lat="38.34442" lon="-0.48256"></trkpt>
      <trkpt lat="38.34402" lon="-0.48239"></trkpt>
      <trkpt lat="38.34469" lon="-0.48060"></trkpt>
      <trkpt lat="38.34416" lon="-0.48018"></trkpt>
      <trkpt lat="38.34425" lon="-0.47973"></trkpt>
      <trkpt lat="38.34514" lon="-0.47900"></trkpt>
      <trkpt lat="38.34887" lon="-0.47332"></trkpt>
      <trkpt lat="38.34939" lon="-0.47302"></trkpt>
      <trkpt lat="38.35102" lon="-0.47290"></trkpt>
      <trkpt lat="38.35180" lon="-0.47252"></trkpt>
      <trkpt lat="38.35274" lon="-0.47297"></trkpt>
      <trkpt lat="38.35330" lon="-0.47361"></trkpt>
      <trkpt lat="38.35375" lon="-0.47371"></trkpt>
      <trkpt lat="38.35504" lon="-0.47296"></trkpt>
      <trkpt lat="38.35914" lon="-0.46751"></trkpt>
      <trkpt lat="38.36170" lon="-0.46483"></trkpt>
      <trkpt lat="38.36264" lon="-0.46294"></trkpt>
      <trkpt lat="38.36374" lon="-0.46142"></trkpt>
      <trkpt lat="38.36829" lon="-0.45826"></trkpt>
      <trkpt lat="38.37169" lon="-0.45647"></trkpt>
      <trkpt lat="38.37893" lon="-0.45192"></trkpt>
      <trkpt lat="38.37968" lon="-0.45222"></trkpt>
      <trkpt lat="38.38028" lon="-0.45296"></trkpt>
      <trkpt lat="38.38173" lon="-0.45681"></trkpt>
      <trkpt lat="38.38217" lon="-0.45724"></trkpt>
      <trkpt lat="38.38275" lon="-0.45730"></trkpt>
      <trkpt lat="38.38529" lon="-0.45544"></trkpt>
      <trkpt lat="38.39149" lon="-0.45207"></trkpt>
      <trkpt lat="38.39431" lon="-0.45097"></trkpt>
      <trkpt lat="38.40143" lon="-0.44910"></trkpt>
      <trkpt lat="38.40385" lon="-0.44768"></trkpt>
      <trkpt lat="38.40532" lon="-0.44589"></trkpt>
      <trkpt lat="38.40799" lon="-0.44010"></trkpt>
      <trkpt lat="38.41255" lon="-0.43526"></trkpt>
      <trkpt lat="38.41524" lon="-0.43044"></trkpt>
      <trkpt lat="38.42104" lon="-0.42358"></trkpt>
      <trkpt lat="38.42498" lon="-0.41771"></trkpt>
      <trkpt lat="38.42654" lon="-0.41620"></trkpt>
      <trkpt lat="38.43102" lon="-0.41284"></trkpt>
      <trkpt lat="38.43334" lon="-0.41037"></trkpt>
      <trkpt lat="38.43963" lon="-0.40039"></trkpt>
      <trkpt lat="38.44215" lon="-0.39562"></trkpt>
      <trkpt lat="38.44574" lon="-0.38653"></trkpt>
      <trkpt lat="38.44996" lon="-0.37999"></trkpt>
      <trkpt lat="38.45304" lon="-0.37252"></trkpt>
      <trkpt lat="38.45650" lon="-0.36668"></trkpt>
      <trkpt lat="38.45740" lon="-0.36441"></trkpt>
      <trkpt lat="38.45856" lon="-0.35951"></trkpt>
      <trkpt lat="38.45925" lon="-0.35778"></trkpt>
      <trkpt lat="38.46065" lon="-0.35573"></trkpt>
      <trkpt lat="38.46340" lon="-0.35335"></trkpt>
      <trkpt lat="38.46479" lon="-0.35137"></trkpt>
      <trkpt lat="38.46875" lon="-0.34094"></trkpt>
      <trkpt lat="38.47233" lon="-0.33479"></trkpt>
      <trkpt lat="38.47491" lon="-0.32711"></trkpt>
      <trkpt lat="38.47780" lon="-0.32227"></trkpt>
      <trkpt lat="38.47940" lon="-0.31774"></trkpt>
      <trkpt lat="38.48059" lon="-0.31595"></trkpt>
      <trkpt lat="38.48352" lon="-0.31279"></trkpt>
      <trkpt lat="38.48477" lon="-0.31067"></trkpt>
      <trkpt lat="38.48569" lon="-0.30826"></trkpt>
      <trkpt lat="38.48611" lon="-0.30631"></trkpt>
      <trkpt lat="38.48641" lon="-0.30160"></trkpt>
      <trkpt lat="38.48680" lon="-0.29930"></trkpt>
      <trkpt lat="38.48860" lon="-0.29496"></trkpt>
      <trkpt lat="38.49054" lon="-0.29217"></trkpt>
      <trkpt lat="38.49402" lon="-0.28865"></trkpt>
      <trkpt lat="38.49688" lon="-0.28417"></trkpt>
      <trkpt lat="38.50131" lon="-0.28055"></trkpt>
      <trkpt lat="38.50321" lon="-0.27822"></trkpt>
      <trkpt lat="38.50474" lon="-0.27498"></trkpt>
      <trkpt lat="38.50611" lon="-0.26919"></trkpt>
      <trkpt lat="38.50694" lon="-0.26674"></trkpt>
      <trkpt lat="38.50836" lon="-0.26385"></trkpt>
      <trkpt lat="38.50991" lon="-0.26160"></trkpt>
      <trkpt lat="38.51121" lon="-0.26030"></trkpt>
      <trkpt lat="38.51252" lon="-0.25941"></trkpt>
      <trkpt lat="38.51593" lon="-0.25783"></trkpt>
      <trkpt lat="38.51886" lon="-0.25592"></trkpt>
      <trkpt lat="38.52295" lon="-0.25380"></trkpt>
      <trkpt lat="38.52499" lon="-0.25192"></trkpt>
      <trkpt lat="38.52666" lon="-0.24906"></trkpt>
      <trkpt lat="38.52765" lon="-0.24614"></trkpt>
      <trkpt lat="38.52837" lon="-0.24263"></trkpt>
      <trkpt lat="38.52996" lon="-0.22304"></trkpt>
      <trkpt lat="38.53071" lon="-0.22031"></trkpt>
      <trkpt lat="38.53389" lon="-0.21312"></trkpt>
      <trkpt lat="38.53511" lon="-0.20801"></trkpt>
      <trkpt lat="38.53536" lon="-0.20262"></trkpt>
      <trkpt lat="38.53448" lon="-0.19515"></trkpt>
      <trkpt lat="38.53487" lon="-0.19164"></trkpt>
      <trkpt lat="38.53580" lon="-0.18899"></trkpt>
      <trkpt lat="38.53933" lon="-0.18250"></trkpt>
      <trkpt lat="38.54225" lon="-0.17367"></trkpt>
      <trkpt lat="38.54596" lon="-0.16621"></trkpt>
      <trkpt lat="38.54897" lon="-0.15626"></trkpt>
      <trkpt lat="38.55312" lon="-0.14694"></trkpt>
      <trkpt lat="38.55458" lon="-0.14227"></trkpt>
      <trkpt lat="38.55638" lon="-0.13351"></trkpt>
      <trkpt lat="38.55815" lon="-0.12895"></trkpt>
      <trkpt lat="38.56073" lon="-0.12488"></trkpt>
      <trkpt lat="38.56382" lon="-0.12180"></trkpt>
      <trkpt lat="38.57033" lon="-0.11783"></trkpt>
      <trkpt lat="38.57684" lon="-0.11295"></trkpt>
      <trkpt lat="38.58309" lon="-0.11001"></trkpt>
      <trkpt lat="38.58532" lon="-0.10821"></trkpt>
      <trkpt lat="38.58627" lon="-0.10708"></trkpt>
      <trkpt lat="38.58793" lon="-0.10441"></trkpt>
      <trkpt lat="38.58894" lon="-0.10168"></trkpt>
      <trkpt lat="38.58944" lon="-0.09927"></trkpt>
      <trkpt lat="38.58980" lon="-0.09575"></trkpt>
      <trkpt lat="38.59054" lon="-0.09299"></trkpt>
      <trkpt lat="38.59207" lon="-0.09050"></trkpt>
      <trkpt lat="38.59532" lon="-0.08751"></trkpt>
      <trkpt lat="38.59699" lon="-0.08536"></trkpt>
      <trkpt lat="38.59826" lon="-0.08259"></trkpt>
      <trkpt lat="38.60044" lon="-0.07633"></trkpt>
      <trkpt lat="38.60191" lon="-0.07352"></trkpt>
      <trkpt lat="38.60496" lon="-0.06948"></trkpt>
      <trkpt lat="38.60978" lon="-0.06535"></trkpt>
      <trkpt lat="38.61481" lon="-0.06028"></trkpt>
      <trkpt lat="38.61685" lon="-0.05774"></trkpt>
      <trkpt lat="38.61803" lon="-0.05583"></trkpt>
      <trkpt lat="38.61950" lon="-0.05304"></trkpt>
      <trkpt lat="38.62119" lon="-0.04836"></trkpt>
      <trkpt lat="38.62393" lon="-0.03942"></trkpt>
      <trkpt lat="38.62535" lon="-0.03310"></trkpt>
      <trkpt lat="38.62618" lon="-0.03052"></trkpt>
      <trkpt lat="38.62802" lon="-0.02724"></trkpt>
      <trkpt lat="38.63208" lon="-0.02270"></trkpt>
      <trkpt lat="38.63374" lon="-0.01912"></trkpt>
      <trkpt lat="38.63427" lon="-0.01663"></trkpt>
      <trkpt lat="38.63434" lon="-0.01456"></trkpt>
      <trkpt lat="38.63266" lon="-0.00800"></trkpt>
      <trkpt lat="38.63264" lon="-0.00428"></trkpt>
      <trkpt lat="38.63328" lon="-0.00182"></trkpt>
      <trkpt lat="38.63620" lon="0.00320"></trkpt>
      <trkpt lat="38.63735" lon="0.00436"></trkpt>
      <trkpt lat="38.63888" lon="0.00505"></trkpt>
      <trkpt lat="38.64241" lon="0.00493"></trkpt>
      <trkpt lat="38.64588" lon="0.00531"></trkpt>
      <trkpt lat="38.64717" lon="0.00485"></trkpt>
      <trkpt lat="38.64938" lon="0.00348"></trkpt>
      <trkpt lat="38.65332" lon="0.00298"></trkpt>
      <trkpt lat="38.65777" lon="0.00098"></trkpt>
      <trkpt lat="38.66064" lon="0.00059"></trkpt>
      <trkpt lat="38.66237" lon="0.00084"></trkpt>
      <trkpt lat="38.66398" lon="0.00138"></trkpt>
      <trkpt lat="38.66756" lon="0.00334"></trkpt>
      <trkpt lat="38.67060" lon="0.00378"></trkpt>
      <trkpt lat="38.67197" lon="0.00425"></trkpt>
      <trkpt lat="38.67395" lon="0.00589"></trkpt>
      <trkpt lat="38.67673" lon="0.01008"></trkpt>
      <trkpt lat="38.67894" lon="0.01188"></trkpt>
      <trkpt lat="38.68111" lon="0.01275"></trkpt>
      <trkpt lat="38.68437" lon="0.01295"></trkpt>
      <trkpt lat="38.68589" lon="0.01333"></trkpt>
      <trkpt lat="38.69073" lon="0.01625"></trkpt>
      <trkpt lat="38.69580" lon="0.01789"></trkpt>
      <trkpt lat="38.69851" lon="0.01908"></trkpt>
      <trkpt lat="38.70039" lon="0.02015"></trkpt>
      <trkpt lat="38.70333" lon="0.02232"></trkpt>
      <trkpt lat="38.70549" lon="0.02434"></trkpt>
      <trkpt lat="38.70751" lon="0.02668"></trkpt>
      <trkpt lat="38.71340" lon="0.03508"></trkpt>
      <trkpt lat="38.71959" lon="0.04170"></trkpt>
      <trkpt lat="38.72360" lon="0.04841"></trkpt>
      <trkpt lat="38.72613" lon="0.05128"></trkpt>
      <trkpt lat="38.72634" lon="0.05204"></trkpt>
      <trkpt lat="38.72620" lon="0.05283"></trkpt>
      <trkpt lat="38.72472" lon="0.05578"></trkpt>
      <trkpt lat="38.72402" lon="0.05892"></trkpt>
      <trkpt lat="38.72401" lon="0.06130"></trkpt>
      <trkpt lat="38.72470" lon="0.06266"></trkpt>
      <trkpt lat="38.72478" lon="0.06339"></trkpt>
      <trkpt lat="38.72455" lon="0.06382"></trkpt>
      <trkpt lat="38.72403" lon="0.06346"></trkpt>
      <trkpt lat="38.72353" lon="0.06367"></trkpt>
      <trkpt lat="38.72351" lon="0.06531"></trkpt>
      <trkpt lat="38.72383" lon="0.06665"></trkpt>
      <trkpt lat="38.72484" lon="0.06861"></trkpt>
      <trkpt lat="38.72558" lon="0.07204"></trkpt>
      <trkpt lat="38.72623" lon="0.07546"></trkpt>
      <trkpt lat="38.72639" lon="0.07962"></trkpt>
      <trkpt lat="38.72766" lon="0.08118"></trkpt>
      <trkpt lat="38.72765" lon="0.08431"></trkpt>
      <trkpt lat="38.72891" lon="0.08878"></trkpt>
      <trkpt lat="38.73034" lon="0.09189"></trkpt>
      <trkpt lat="38.72855" lon="0.09414"></trkpt>
      <trkpt lat="38.72709" lon="0.09652"></trkpt>
      <trkpt lat="38.72767" lon="0.09740"></trkpt>
      <trkpt lat="38.72667" lon="0.10863"></trkpt>
      <trkpt lat="38.72508" lon="0.10994"></trkpt>
      <trkpt lat="38.72355" lon="0.11001"></trkpt>
      <trkpt lat="38.72163" lon="0.11198"></trkpt>
      <trkpt lat="38.72129" lon="0.11321"></trkpt>
      <trkpt lat="38.72121" lon="0.11818"></trkpt>
      <trkpt lat="38.71965" lon="0.12168"></trkpt>
      <trkpt lat="38.71845" lon="0.12282"></trkpt>
      <trkpt lat="38.71737" lon="0.12344"></trkpt>
      <trkpt lat="38.71618" lon="0.12350"></trkpt>
      <trkpt lat="38.71510" lon="0.12446"></trkpt>
      <trkpt lat="38.71424" lon="0.12461"></trkpt>
      <trkpt lat="38.71355" lon="0.12538"></trkpt>
      <trkpt lat="38.71306" lon="0.12682"></trkpt>
      <trkpt lat="38.71173" lon="0.12923"></trkpt>
      <trkpt lat="38.71164" lon="0.13043"></trkpt>
      <trkpt lat="38.70890" lon="0.13459"></trkpt>
      <trkpt lat="38.70664" lon="0.13493"></trkpt>
      <trkpt lat="38.70575" lon="0.13470"></trkpt>
      <trkpt lat="38.70529" lon="0.13553"></trkpt>
      <trkpt lat="38.70457" lon="0.13588"></trkpt>
      <trkpt lat="38.70284" lon="0.13578"></trkpt>
      <trkpt lat="38.70163" lon="0.13546"></trkpt>
      <trkpt lat="38.70028" lon="0.13426"></trkpt>
      <trkpt lat="38.69781" lon="0.13347"></trkpt>
      <trkpt lat="38.69764" lon="0.13322"></trkpt>
      <trkpt lat="38.69719" lon="0.13344"></trkpt>
      <trkpt lat="38.69606" lon="0.13321"></trkpt>
      <trkpt lat="38.69452" lon="0.13249"></trkpt>
      <trkpt lat="38.69353" lon="0.13266"></trkpt>
      <trkpt lat="38.69288" lon="0.13242"></trkpt>
      <trkpt lat="38.69277" lon="0.13316"></trkpt>
      <trkpt lat="38.69194" lon="0.13347"></trkpt>
      <trkpt lat="38.69153" lon="0.13460"></trkpt>
      <trkpt lat="38.68923" lon="0.13466"></trkpt>
      <trkpt lat="38.68907" lon="0.13516"></trkpt>
      <trkpt lat="38.68780" lon="0.13550"></trkpt>
      <trkpt lat="38.68773" lon="0.13742"></trkpt>
      <trkpt lat="38.68838" lon="0.13982"></trkpt>
      <trkpt lat="38.68807" lon="0.14015"></trkpt>
      <trkpt lat="38.68730" lon="0.14001"></trkpt>
      <trkpt lat="38.68697" lon="0.14030"></trkpt>
      <trkpt lat="38.68679" lon="0.14175"></trkpt>
      <trkpt lat="38.68719" lon="0.14403"></trkpt>
    </trkseg>
  </trk>
</gpx>
