<?xml version="1.0" encoding="UTF-8"?>
<gpx version="1.1" creator="Marokko Motorreis 2026"
     xmlns="http://www.topografix.com/GPX/1/1"
     xmlns:xsi="http://www.w3.org/2001/XMLSchema-instance"
     xsi:schemaLocation="http://www.topografix.com/GPX/1/1 http://www.topografix.com/GPX/1/1/gpx.xsd">
  <metadata><name>Dag 0 (11 okt) Moraira - Almeria + nachtferry</name><desc>405 km, ca. 4u58 rijden. Kust en binnenland naar de haven. Avond/nachtferry naar Nador.</desc></metadata>
  <wpt lat="38.687186" lon="0.144026"><name>Moraira</name><sym>Flag, Blue</sym></wpt>
  <wpt lat="38.345200" lon="-0.481000"><name>Alicante (kust)</name><sym>Flag, Blue</sym></wpt>
  <wpt lat="37.991916" lon="-1.131239"><name>Murcia</name><sym>Flag, Blue</sym></wpt>
  <wpt lat="37.177461" lon="-1.822248"><name>Aguilas (kust)</name><sym>Flag, Blue</sym></wpt>
  <wpt lat="36.831943" lon="-2.476101"><name>Haven Almeria</name><sym>Flag, Blue</sym></wpt>
  <trk>
    <name>Dag 0 (11 okt) Moraira - Almeria + nachtferry</name>
    <desc>405 km, ca. 4u58 rijden. Kust en binnenland naar de haven. Avond/nachtferry naar Nador.</desc>
    <trkseg>
      <trkpt lat="38.68719" lon="0.14403"></trkpt>
      <trkpt lat="38.68679" lon="0.14175"></trkpt>
      <trkpt lat="38.68697" lon="0.14030"></trkpt>
      <trkpt lat="38.68730" lon="0.14001"></trkpt>
      <trkpt lat="38.68807" lon="0.14015"></trkpt>
      <trkpt lat="38.68838" lon="0.13982"></trkpt>
      <trkpt lat="38.68773" lon="0.13742"></trkpt>
      <trkpt lat="38.68780" lon="0.13550"></trkpt>
      <trkpt lat="38.68907" lon="0.13516"></trkpt>
      <trkpt lat="38.68960" lon="0.13467"></trkpt>
      <trkpt lat="38.69148" lon="0.13463"></trkpt>
      <trkpt lat="38.69194" lon="0.13347"></trkpt>
      <trkpt lat="38.69315" lon="0.13281"></trkpt>
      <trkpt lat="38.69452" lon="0.13249"></trkpt>
      <trkpt lat="38.69606" lon="0.13321"></trkpt>
      <trkpt lat="38.69829" lon="0.13361"></trkpt>
      <trkpt lat="38.70028" lon="0.13426"></trkpt>
      <trkpt lat="38.70163" lon="0.13546"></trkpt>
      <trkpt lat="38.70284" lon="0.13578"></trkpt>
      <trkpt lat="38.70505" lon="0.13600"></trkpt>
      <trkpt lat="38.70570" lon="0.13472"></trkpt>
      <trkpt lat="38.70664" lon="0.13493"></trkpt>
      <trkpt lat="38.70890" lon="0.13459"></trkpt>
      <trkpt lat="38.71211" lon="0.12953"></trkpt>
      <trkpt lat="38.71202" lon="0.12858"></trkpt>
      <trkpt lat="38.71306" lon="0.12682"></trkpt>
      <trkpt lat="38.71355" lon="0.12538"></trkpt>
      <trkpt lat="38.71424" lon="0.12461"></trkpt>
      <trkpt lat="38.71510" lon="0.12446"></trkpt>
      <trkpt lat="38.71618" lon="0.12350"></trkpt>
      <trkpt lat="38.71737" lon="0.12344"></trkpt>
      <trkpt lat="38.71845" lon="0.12282"></trkpt>
      <trkpt lat="38.71965" lon="0.12168"></trkpt>
      <trkpt lat="38.72121" lon="0.11818"></trkpt>
      <trkpt lat="38.72129" lon="0.11321"></trkpt>
      <trkpt lat="38.72163" lon="0.11198"></trkpt>
      <trkpt lat="38.72355" lon="0.11001"></trkpt>
      <trkpt lat="38.72508" lon="0.10994"></trkpt>
      <trkpt lat="38.72690" lon="0.10865"></trkpt>
      <trkpt lat="38.72678" lon="0.10820"></trkpt>
      <trkpt lat="38.72774" lon="0.09748"></trkpt>
      <trkpt lat="38.72794" lon="0.09717"></trkpt>
      <trkpt lat="38.72744" lon="0.09643"></trkpt>
      <trkpt lat="38.72888" lon="0.09408"></trkpt>
      <trkpt lat="38.73082" lon="0.09177"></trkpt>
      <trkpt lat="38.72979" lon="0.09050"></trkpt>
      <trkpt lat="38.72899" lon="0.08900"></trkpt>
      <trkpt lat="38.72765" lon="0.08431"></trkpt>
      <trkpt lat="38.72766" lon="0.08118"></trkpt>
      <trkpt lat="38.72639" lon="0.07962"></trkpt>
      <trkpt lat="38.72628" lon="0.07518"></trkpt>
      <trkpt lat="38.72502" lon="0.06897"></trkpt>
      <trkpt lat="38.72401" lon="0.06566"></trkpt>
      <trkpt lat="38.72402" lon="0.06490"></trkpt>
      <trkpt lat="38.72479" lon="0.06319"></trkpt>
      <trkpt lat="38.72401" lon="0.06130"></trkpt>
      <trkpt lat="38.72413" lon="0.05819"></trkpt>
      <trkpt lat="38.72491" lon="0.05529"></trkpt>
      <trkpt lat="38.72698" lon="0.05101"></trkpt>
      <trkpt lat="38.72696" lon="0.04982"></trkpt>
      <trkpt lat="38.72632" lon="0.04937"></trkpt>
      <trkpt lat="38.72506" lon="0.04969"></trkpt>
      <trkpt lat="38.72399" lon="0.04875"></trkpt>
      <trkpt lat="38.71960" lon="0.04155"></trkpt>
      <trkpt lat="38.71336" lon="0.03487"></trkpt>
      <trkpt lat="38.70702" lon="0.02588"></trkpt>
      <trkpt lat="38.70309" lon="0.02194"></trkpt>
      <trkpt lat="38.70045" lon="0.02003"></trkpt>
      <trkpt lat="38.69813" lon="0.01873"></trkpt>
      <trkpt lat="38.69051" lon="0.01599"></trkpt>
      <trkpt lat="38.68593" lon="0.01320"></trkpt>
      <trkpt lat="38.68444" lon="0.01282"></trkpt>
      <trkpt lat="38.68128" lon="0.01264"></trkpt>
      <trkpt lat="38.67909" lon="0.01180"></trkpt>
      <trkpt lat="38.67666" lon="0.00981"></trkpt>
      <trkpt lat="38.67413" lon="0.00593"></trkpt>
      <trkpt lat="38.67217" lon="0.00421"></trkpt>
      <trkpt lat="38.67058" lon="0.00362"></trkpt>
      <trkpt lat="38.66786" lon="0.00329"></trkpt>
      <trkpt lat="38.66385" lon="0.00118"></trkpt>
      <trkpt lat="38.66060" lon="0.00044"></trkpt>
      <trkpt lat="38.65772" lon="0.00083"></trkpt>
      <trkpt lat="38.65304" lon="0.00290"></trkpt>
      <trkpt lat="38.64959" lon="0.00327"></trkpt>
      <trkpt lat="38.64706" lon="0.00476"></trkpt>
      <trkpt lat="38.64559" lon="0.00519"></trkpt>
      <trkpt lat="38.64264" lon="0.00475"></trkpt>
      <trkpt lat="38.63954" lon="0.00472"></trkpt>
      <trkpt lat="38.63763" lon="0.00382"></trkpt>
      <trkpt lat="38.63583" lon="0.00205"></trkpt>
      <trkpt lat="38.63335" lon="-0.00193"></trkpt>
      <trkpt lat="38.63270" lon="-0.00477"></trkpt>
      <trkpt lat="38.63285" lon="-0.00844"></trkpt>
      <trkpt lat="38.63418" lon="-0.01291"></trkpt>
      <trkpt lat="38.63446" lon="-0.01462"></trkpt>
      <trkpt lat="38.63432" lon="-0.01708"></trkpt>
      <trkpt lat="38.63380" lon="-0.01931"></trkpt>
      <trkpt lat="38.63223" lon="-0.02270"></trkpt>
      <trkpt lat="38.62803" lon="-0.02743"></trkpt>
      <trkpt lat="38.62624" lon="-0.03065"></trkpt>
      <trkpt lat="38.62548" lon="-0.03286"></trkpt>
      <trkpt lat="38.62386" lon="-0.04022"></trkpt>
      <trkpt lat="38.62085" lon="-0.04990"></trkpt>
      <trkpt lat="38.61923" lon="-0.05393"></trkpt>
      <trkpt lat="38.61755" lon="-0.05698"></trkpt>
      <trkpt lat="38.61365" lon="-0.06190"></trkpt>
      <trkpt lat="38.61065" lon="-0.06484"></trkpt>
      <trkpt lat="38.60540" lon="-0.06935"></trkpt>
      <trkpt lat="38.60218" lon="-0.07345"></trkpt>
      <trkpt lat="38.60015" lon="-0.07736"></trkpt>
      <trkpt lat="38.59827" lon="-0.08311"></trkpt>
      <trkpt lat="38.59724" lon="-0.08530"></trkpt>
      <trkpt lat="38.59548" lon="-0.08770"></trkpt>
      <trkpt lat="38.59222" lon="-0.09066"></trkpt>
      <trkpt lat="38.59094" lon="-0.09257"></trkpt>
      <trkpt lat="38.59007" lon="-0.09522"></trkpt>
      <trkpt lat="38.58948" lon="-0.10020"></trkpt>
      <trkpt lat="38.58899" lon="-0.10227"></trkpt>
      <trkpt lat="38.58785" lon="-0.10507"></trkpt>
      <trkpt lat="38.58608" lon="-0.10771"></trkpt>
      <trkpt lat="38.58342" lon="-0.11008"></trkpt>
      <trkpt lat="38.57690" lon="-0.11310"></trkpt>
      <trkpt lat="38.57074" lon="-0.11781"></trkpt>
      <trkpt lat="38.56377" lon="-0.12205"></trkpt>
      <trkpt lat="38.56066" lon="-0.12523"></trkpt>
      <trkpt lat="38.55827" lon="-0.12905"></trkpt>
      <trkpt lat="38.55662" lon="-0.13318"></trkpt>
      <trkpt lat="38.55474" lon="-0.14219"></trkpt>
      <trkpt lat="38.55326" lon="-0.14698"></trkpt>
      <trkpt lat="38.54901" lon="-0.15657"></trkpt>
      <trkpt lat="38.54608" lon="-0.16631"></trkpt>
      <trkpt lat="38.54235" lon="-0.17386"></trkpt>
      <trkpt lat="38.53946" lon="-0.18264"></trkpt>
      <trkpt lat="38.53607" lon="-0.18896"></trkpt>
      <trkpt lat="38.53509" lon="-0.19157"></trkpt>
      <trkpt lat="38.53464" lon="-0.19508"></trkpt>
      <trkpt lat="38.53550" lon="-0.20273"></trkpt>
      <trkpt lat="38.53527" lon="-0.20777"></trkpt>
      <trkpt lat="38.53406" lon="-0.21314"></trkpt>
      <trkpt lat="38.53104" lon="-0.21989"></trkpt>
      <trkpt lat="38.53001" lon="-0.22351"></trkpt>
      <trkpt lat="38.52851" lon="-0.24263"></trkpt>
      <trkpt lat="38.52759" lon="-0.24695"></trkpt>
      <trkpt lat="38.52678" lon="-0.24925"></trkpt>
      <trkpt lat="38.52528" lon="-0.25183"></trkpt>
      <trkpt lat="38.52305" lon="-0.25397"></trkpt>
      <trkpt lat="38.51931" lon="-0.25586"></trkpt>
      <trkpt lat="38.51568" lon="-0.25814"></trkpt>
      <trkpt lat="38.51238" lon="-0.25965"></trkpt>
      <trkpt lat="38.51110" lon="-0.26059"></trkpt>
      <trkpt lat="38.50977" lon="-0.26198"></trkpt>
      <trkpt lat="38.50812" lon="-0.26448"></trkpt>
      <trkpt lat="38.50682" lon="-0.26731"></trkpt>
      <trkpt lat="38.50487" lon="-0.27504"></trkpt>
      <trkpt lat="38.50340" lon="-0.27829"></trkpt>
      <trkpt lat="38.50150" lon="-0.28068"></trkpt>
      <trkpt lat="38.49811" lon="-0.28318"></trkpt>
      <trkpt lat="38.49693" lon="-0.28432"></trkpt>
      <trkpt lat="38.49403" lon="-0.28888"></trkpt>
      <trkpt lat="38.49069" lon="-0.29226"></trkpt>
      <trkpt lat="38.48870" lon="-0.29507"></trkpt>
      <trkpt lat="38.48702" lon="-0.29906"></trkpt>
      <trkpt lat="38.48663" lon="-0.30095"></trkpt>
      <trkpt lat="38.48625" lon="-0.30633"></trkpt>
      <trkpt lat="38.48580" lon="-0.30835"></trkpt>
      <trkpt lat="38.48481" lon="-0.31092"></trkpt>
      <trkpt lat="38.48343" lon="-0.31317"></trkpt>
      <trkpt lat="38.48063" lon="-0.31615"></trkpt>
      <trkpt lat="38.47937" lon="-0.31812"></trkpt>
      <trkpt lat="38.47777" lon="-0.32268"></trkpt>
      <trkpt lat="38.47495" lon="-0.32744"></trkpt>
      <trkpt lat="38.47266" lon="-0.33440"></trkpt>
      <trkpt lat="38.46875" lon="-0.34141"></trkpt>
      <trkpt lat="38.46477" lon="-0.35178"></trkpt>
      <trkpt lat="38.46342" lon="-0.35358"></trkpt>
      <trkpt lat="38.46057" lon="-0.35601"></trkpt>
      <trkpt lat="38.45927" lon="-0.35798"></trkpt>
      <trkpt lat="38.45695" lon="-0.36614"></trkpt>
      <trkpt lat="38.45362" lon="-0.37179"></trkpt>
      <trkpt lat="38.45223" lon="-0.37489"></trkpt>
      <trkpt lat="38.45078" lon="-0.37921"></trkpt>
      <trkpt lat="38.44988" lon="-0.38341"></trkpt>
      <trkpt lat="38.44908" lon="-0.38466"></trkpt>
      <trkpt lat="38.44650" lon="-0.38658"></trkpt>
      <trkpt lat="38.44537" lon="-0.38798"></trkpt>
      <trkpt lat="38.44227" lon="-0.39572"></trkpt>
      <trkpt lat="38.43971" lon="-0.40061"></trkpt>
      <trkpt lat="38.43339" lon="-0.41055"></trkpt>
      <trkpt lat="38.43106" lon="-0.41302"></trkpt>
      <trkpt lat="38.42533" lon="-0.41754"></trkpt>
      <trkpt lat="38.42109" lon="-0.42371"></trkpt>
      <trkpt lat="38.41530" lon="-0.43054"></trkpt>
      <trkpt lat="38.41425" lon="-0.43217"></trkpt>
      <trkpt lat="38.41294" lon="-0.43495"></trkpt>
      <trkpt lat="38.40808" lon="-0.44018"></trkpt>
      <trkpt lat="38.40553" lon="-0.44575"></trkpt>
      <trkpt lat="38.40409" lon="-0.44762"></trkpt>
      <trkpt lat="38.40149" lon="-0.44921"></trkpt>
      <trkpt lat="38.39427" lon="-0.45111"></trkpt>
      <trkpt lat="38.38991" lon="-0.45301"></trkpt>
      <trkpt lat="38.38422" lon="-0.45636"></trkpt>
      <trkpt lat="38.38369" lon="-0.45698"></trkpt>
      <trkpt lat="38.38344" lon="-0.45837"></trkpt>
      <trkpt lat="38.38307" lon="-0.45878"></trkpt>
      <trkpt lat="38.38253" lon="-0.45870"></trkpt>
      <trkpt lat="38.38193" lon="-0.45791"></trkpt>
      <trkpt lat="38.38047" lon="-0.45375"></trkpt>
      <trkpt lat="38.37982" lon="-0.45269"></trkpt>
      <trkpt lat="38.37938" lon="-0.45248"></trkpt>
      <trkpt lat="38.37604" lon="-0.45384"></trkpt>
      <trkpt lat="38.36847" lon="-0.45875"></trkpt>
      <trkpt lat="38.36422" lon="-0.46120"></trkpt>
      <trkpt lat="38.36285" lon="-0.46290"></trkpt>
      <trkpt lat="38.36156" lon="-0.46543"></trkpt>
      <trkpt lat="38.35920" lon="-0.46763"></trkpt>
      <trkpt lat="38.35441" lon="-0.47369"></trkpt>
      <trkpt lat="38.35394" lon="-0.47399"></trkpt>
      <trkpt lat="38.35333" lon="-0.47397"></trkpt>
      <trkpt lat="38.35185" lon="-0.47292"></trkpt>
      <trkpt lat="38.34907" lon="-0.47346"></trkpt>
      <trkpt lat="38.34468" lon="-0.47994"></trkpt>
      <trkpt lat="38.34531" lon="-0.48077"></trkpt>
      <trkpt lat="38.34442" lon="-0.48256"></trkpt>
      <trkpt lat="38.34402" lon="-0.48239"></trkpt>
      <trkpt lat="38.34469" lon="-0.48060"></trkpt>
      <trkpt lat="38.34420" lon="-0.48041"></trkpt>
      <trkpt lat="38.34208" lon="-0.48544"></trkpt>
      <trkpt lat="38.33911" lon="-0.48859"></trkpt>
      <trkpt lat="38.33804" lon="-0.49079"></trkpt>
      <trkpt lat="38.33772" lon="-0.49257"></trkpt>
      <trkpt lat="38.33826" lon="-0.49290"></trkpt>
      <trkpt lat="38.33845" lon="-0.49401"></trkpt>
      <trkpt lat="38.33750" lon="-0.49995"></trkpt>
      <trkpt lat="38.33420" lon="-0.50495"></trkpt>
      <trkpt lat="38.33611" lon="-0.50797"></trkpt>
      <trkpt lat="38.33491" lon="-0.51109"></trkpt>
      <trkpt lat="38.33380" lon="-0.51583"></trkpt>
      <trkpt lat="38.33367" lon="-0.52195"></trkpt>
      <trkpt lat="38.33402" lon="-0.52444"></trkpt>
      <trkpt lat="38.33661" lon="-0.53093"></trkpt>
      <trkpt lat="38.33989" lon="-0.54346"></trkpt>
      <trkpt lat="38.34064" lon="-0.54518"></trkpt>
      <trkpt lat="38.34096" lon="-0.54529"></trkpt>
      <trkpt lat="38.34115" lon="-0.54499"></trkpt>
      <trkpt lat="38.34112" lon="-0.54434"></trkpt>
      <trkpt lat="38.34069" lon="-0.54399"></trkpt>
      <trkpt lat="38.33853" lon="-0.54569"></trkpt>
      <trkpt lat="38.33666" lon="-0.54808"></trkpt>
      <trkpt lat="38.33383" lon="-0.55278"></trkpt>
      <trkpt lat="38.33100" lon="-0.55547"></trkpt>
      <trkpt lat="38.32857" lon="-0.55671"></trkpt>
      <trkpt lat="38.32250" lon="-0.55831"></trkpt>
      <trkpt lat="38.32046" lon="-0.55934"></trkpt>
      <trkpt lat="38.31837" lon="-0.56082"></trkpt>
      <trkpt lat="38.31448" lon="-0.56472"></trkpt>
      <trkpt lat="38.31092" lon="-0.56760"></trkpt>
      <trkpt lat="38.30965" lon="-0.56946"></trkpt>
      <trkpt lat="38.30876" lon="-0.57173"></trkpt>
      <trkpt lat="38.30648" lon="-0.57952"></trkpt>
      <trkpt lat="38.30599" lon="-0.58476"></trkpt>
      <trkpt lat="38.30651" lon="-0.59016"></trkpt>
      <trkpt lat="38.30880" lon="-0.59931"></trkpt>
      <trkpt lat="38.30908" lon="-0.60250"></trkpt>
      <trkpt lat="38.30896" lon="-0.60604"></trkpt>
      <trkpt lat="38.30844" lon="-0.60931"></trkpt>
      <trkpt lat="38.30781" lon="-0.61159"></trkpt>
      <trkpt lat="38.30557" lon="-0.61683"></trkpt>
      <trkpt lat="38.30464" lon="-0.61964"></trkpt>
      <trkpt lat="38.30349" lon="-0.62742"></trkpt>
      <trkpt lat="38.30190" lon="-0.63321"></trkpt>
      <trkpt lat="38.30203" lon="-0.63844"></trkpt>
      <trkpt lat="38.30068" lon="-0.64307"></trkpt>
      <trkpt lat="38.30083" lon="-0.64787"></trkpt>
      <trkpt lat="38.29975" lon="-0.65324"></trkpt>
      <trkpt lat="38.30022" lon="-0.66046"></trkpt>
      <trkpt lat="38.29943" lon="-0.66635"></trkpt>
      <trkpt lat="38.29699" lon="-0.67833"></trkpt>
      <trkpt lat="38.29360" lon="-0.68976"></trkpt>
      <trkpt lat="38.29343" lon="-0.69542"></trkpt>
      <trkpt lat="38.29222" lon="-0.69994"></trkpt>
      <trkpt lat="38.29165" lon="-0.70440"></trkpt>
      <trkpt lat="38.28930" lon="-0.70939"></trkpt>
      <trkpt lat="38.28899" lon="-0.71100"></trkpt>
      <trkpt lat="38.28895" lon="-0.71398"></trkpt>
      <trkpt lat="38.28858" lon="-0.71569"></trkpt>
      <trkpt lat="38.28631" lon="-0.71940"></trkpt>
      <trkpt lat="38.28557" lon="-0.72129"></trkpt>
      <trkpt lat="38.28493" lon="-0.72424"></trkpt>
      <trkpt lat="38.28428" lon="-0.72948"></trkpt>
      <trkpt lat="38.28284" lon="-0.73349"></trkpt>
      <trkpt lat="38.28211" lon="-0.73770"></trkpt>
      <trkpt lat="38.28137" lon="-0.73983"></trkpt>
      <trkpt lat="38.28039" lon="-0.74143"></trkpt>
      <trkpt lat="38.27903" lon="-0.74285"></trkpt>
      <trkpt lat="38.27590" lon="-0.74459"></trkpt>
      <trkpt lat="38.27327" lon="-0.74659"></trkpt>
      <trkpt lat="38.27097" lon="-0.74784"></trkpt>
      <trkpt lat="38.26936" lon="-0.74906"></trkpt>
      <trkpt lat="38.26644" lon="-0.75283"></trkpt>
      <trkpt lat="38.26497" lon="-0.75420"></trkpt>
      <trkpt lat="38.26305" lon="-0.75527"></trkpt>
      <trkpt lat="38.25966" lon="-0.75631"></trkpt>
      <trkpt lat="38.25778" lon="-0.75782"></trkpt>
      <trkpt lat="38.25527" lon="-0.76187"></trkpt>
      <trkpt lat="38.25276" lon="-0.76431"></trkpt>
      <trkpt lat="38.25032" lon="-0.76784"></trkpt>
      <trkpt lat="38.24553" lon="-0.77337"></trkpt>
      <trkpt lat="38.24376" lon="-0.77611"></trkpt>
      <trkpt lat="38.24256" lon="-0.77912"></trkpt>
      <trkpt lat="38.24158" lon="-0.78060"></trkpt>
      <trkpt lat="38.23891" lon="-0.78290"></trkpt>
      <trkpt lat="38.23644" lon="-0.78600"></trkpt>
      <trkpt lat="38.23459" lon="-0.78792"></trkpt>
      <trkpt lat="38.23292" lon="-0.78927"></trkpt>
      <trkpt lat="38.22991" lon="-0.79111"></trkpt>
      <trkpt lat="38.22810" lon="-0.79310"></trkpt>
      <trkpt lat="38.22377" lon="-0.80225"></trkpt>
      <trkpt lat="38.22185" lon="-0.80818"></trkpt>
      <trkpt lat="38.21951" lon="-0.81375"></trkpt>
      <trkpt lat="38.21631" lon="-0.81954"></trkpt>
      <trkpt lat="38.21297" lon="-0.82420"></trkpt>
      <trkpt lat="38.21081" lon="-0.82669"></trkpt>
      <trkpt lat="38.20803" lon="-0.82906"></trkpt>
      <trkpt lat="38.20534" lon="-0.83055"></trkpt>
      <trkpt lat="38.20145" lon="-0.83210"></trkpt>
      <trkpt lat="38.19824" lon="-0.83414"></trkpt>
      <trkpt lat="38.19672" lon="-0.83542"></trkpt>
      <trkpt lat="38.19563" lon="-0.83674"></trkpt>
      <trkpt lat="38.19300" lon="-0.84117"></trkpt>
      <trkpt lat="38.19089" lon="-0.84402"></trkpt>
      <trkpt lat="38.18834" lon="-0.84670"></trkpt>
      <trkpt lat="38.18387" lon="-0.85067"></trkpt>
      <trkpt lat="38.17893" lon="-0.85670"></trkpt>
      <trkpt lat="38.17415" lon="-0.86165"></trkpt>
      <trkpt lat="38.17070" lon="-0.86598"></trkpt>
      <trkpt lat="38.16802" lon="-0.87008"></trkpt>
      <trkpt lat="38.16550" lon="-0.87479"></trkpt>
      <trkpt lat="38.16410" lon="-0.87795"></trkpt>
      <trkpt lat="38.16070" lon="-0.88791"></trkpt>
      <trkpt lat="38.15903" lon="-0.89211"></trkpt>
      <trkpt lat="38.15657" lon="-0.89709"></trkpt>
      <trkpt lat="38.15330" lon="-0.90266"></trkpt>
      <trkpt lat="38.15230" lon="-0.90517"></trkpt>
      <trkpt lat="38.15160" lon="-0.90797"></trkpt>
      <trkpt lat="38.15133" lon="-0.91061"></trkpt>
      <trkpt lat="38.15146" lon="-0.91279"></trkpt>
      <trkpt lat="38.15210" lon="-0.91647"></trkpt>
      <trkpt lat="38.15214" lon="-0.91847"></trkpt>
      <trkpt lat="38.15185" lon="-0.92053"></trkpt>
      <trkpt lat="38.15113" lon="-0.92274"></trkpt>
      <trkpt lat="38.15001" lon="-0.92469"></trkpt>
      <trkpt lat="38.14671" lon="-0.92898"></trkpt>
      <trkpt lat="38.14260" lon="-0.93554"></trkpt>
      <trkpt lat="38.13674" lon="-0.94203"></trkpt>
      <trkpt lat="38.13419" lon="-0.94559"></trkpt>
      <trkpt lat="38.12686" lon="-0.95886"></trkpt>
      <trkpt lat="38.12332" lon="-0.96681"></trkpt>
      <trkpt lat="38.12013" lon="-0.97320"></trkpt>
      <trkpt lat="38.11917" lon="-0.97632"></trkpt>
      <trkpt lat="38.11868" lon="-0.97943"></trkpt>
      <trkpt lat="38.11834" lon="-0.98554"></trkpt>
      <trkpt lat="38.11844" lon="-0.99376"></trkpt>
      <trkpt lat="38.11750" lon="-0.99908"></trkpt>
      <trkpt lat="38.11496" lon="-1.00569"></trkpt>
      <trkpt lat="38.11369" lon="-1.00968"></trkpt>
      <trkpt lat="38.11168" lon="-1.01851"></trkpt>
      <trkpt lat="38.11030" lon="-1.02331"></trkpt>
      <trkpt lat="38.10871" lon="-1.02610"></trkpt>
      <trkpt lat="38.10494" lon="-1.03037"></trkpt>
      <trkpt lat="38.10267" lon="-1.03373"></trkpt>
      <trkpt lat="38.10063" lon="-1.03775"></trkpt>
      <trkpt lat="38.09835" lon="-1.04341"></trkpt>
      <trkpt lat="38.09459" lon="-1.05518"></trkpt>
      <trkpt lat="38.09417" lon="-1.05745"></trkpt>
      <trkpt lat="38.09354" lon="-1.06441"></trkpt>
      <trkpt lat="38.09263" lon="-1.06804"></trkpt>
      <trkpt lat="38.09149" lon="-1.07096"></trkpt>
      <trkpt lat="38.08979" lon="-1.07403"></trkpt>
      <trkpt lat="38.08835" lon="-1.07599"></trkpt>
      <trkpt lat="38.08293" lon="-1.08151"></trkpt>
      <trkpt lat="38.07937" lon="-1.08592"></trkpt>
      <trkpt lat="38.07676" lon="-1.08989"></trkpt>
      <trkpt lat="38.07402" lon="-1.09464"></trkpt>
      <trkpt lat="38.07240" lon="-1.09608"></trkpt>
      <trkpt lat="38.06970" lon="-1.09756"></trkpt>
      <trkpt lat="38.06806" lon="-1.09919"></trkpt>
      <trkpt lat="38.06681" lon="-1.10145"></trkpt>
      <trkpt lat="38.06545" lon="-1.10555"></trkpt>
      <trkpt lat="38.06400" lon="-1.10771"></trkpt>
      <trkpt lat="38.06077" lon="-1.11051"></trkpt>
      <trkpt lat="38.05788" lon="-1.11480"></trkpt>
      <trkpt lat="38.05654" lon="-1.11619"></trkpt>
      <trkpt lat="38.05505" lon="-1.11721"></trkpt>
      <trkpt lat="38.05191" lon="-1.11870"></trkpt>
      <trkpt lat="38.04965" lon="-1.12082"></trkpt>
      <trkpt lat="38.04553" lon="-1.12854"></trkpt>
      <trkpt lat="38.04240" lon="-1.13678"></trkpt>
      <trkpt lat="38.04056" lon="-1.14047"></trkpt>
      <trkpt lat="38.03775" lon="-1.14481"></trkpt>
      <trkpt lat="38.03104" lon="-1.15404"></trkpt>
      <trkpt lat="38.02926" lon="-1.15715"></trkpt>
      <trkpt lat="38.02769" lon="-1.16189"></trkpt>
      <trkpt lat="38.02644" lon="-1.16408"></trkpt>
      <trkpt lat="38.02632" lon="-1.16497"></trkpt>
      <trkpt lat="38.02656" lon="-1.16609"></trkpt>
      <trkpt lat="38.02636" lon="-1.16663"></trkpt>
      <trkpt lat="38.02584" lon="-1.16657"></trkpt>
      <trkpt lat="38.02564" lon="-1.16587"></trkpt>
      <trkpt lat="38.02293" lon="-1.16311"></trkpt>
      <trkpt lat="38.02177" lon="-1.16229"></trkpt>
      <trkpt lat="38.02101" lon="-1.16233"></trkpt>
      <trkpt lat="38.02073" lon="-1.16162"></trkpt>
      <trkpt lat="38.01756" lon="-1.15947"></trkpt>
      <trkpt lat="38.01697" lon="-1.15938"></trkpt>
      <trkpt lat="38.01671" lon="-1.15886"></trkpt>
      <trkpt lat="38.01382" lon="-1.15673"></trkpt>
      <trkpt lat="38.01252" lon="-1.15160"></trkpt>
      <trkpt lat="38.01183" lon="-1.15021"></trkpt>
      <trkpt lat="38.00672" lon="-1.14514"></trkpt>
      <trkpt lat="38.00629" lon="-1.14510"></trkpt>
      <trkpt lat="38.00601" lon="-1.14443"></trkpt>
      <trkpt lat="38.00477" lon="-1.14338"></trkpt>
      <trkpt lat="38.00473" lon="-1.14307"></trkpt>
      <trkpt lat="37.99684" lon="-1.13522"></trkpt>
      <trkpt lat="37.99634" lon="-1.13505"></trkpt>
      <trkpt lat="37.99601" lon="-1.13441"></trkpt>
      <trkpt lat="37.99430" lon="-1.13267"></trkpt>
      <trkpt lat="37.99284" lon="-1.13152"></trkpt>
      <trkpt lat="37.99188" lon="-1.13121"></trkpt>
      <trkpt lat="37.99163" lon="-1.13070"></trkpt>
      <trkpt lat="37.99173" lon="-1.13008"></trkpt>
      <trkpt lat="37.99236" lon="-1.12973"></trkpt>
      <trkpt lat="37.99290" lon="-1.13045"></trkpt>
      <trkpt lat="37.99277" lon="-1.13112"></trkpt>
      <trkpt lat="37.99211" lon="-1.13151"></trkpt>
      <trkpt lat="37.99136" lon="-1.13520"></trkpt>
      <trkpt lat="37.99323" lon="-1.14140"></trkpt>
      <trkpt lat="37.99146" lon="-1.14428"></trkpt>
      <trkpt lat="37.99154" lon="-1.14577"></trkpt>
      <trkpt lat="37.99670" lon="-1.15015"></trkpt>
      <trkpt lat="37.99921" lon="-1.15313"></trkpt>
      <trkpt lat="38.00056" lon="-1.15590"></trkpt>
      <trkpt lat="38.00222" lon="-1.16173"></trkpt>
      <trkpt lat="38.00407" lon="-1.16482"></trkpt>
      <trkpt lat="38.00613" lon="-1.16665"></trkpt>
      <trkpt lat="38.00765" lon="-1.16733"></trkpt>
      <trkpt lat="38.00925" lon="-1.16765"></trkpt>
      <trkpt lat="38.00963" lon="-1.16732"></trkpt>
      <trkpt lat="38.00970" lon="-1.16684"></trkpt>
      <trkpt lat="38.00910" lon="-1.16618"></trkpt>
      <trkpt lat="38.00772" lon="-1.16654"></trkpt>
      <trkpt lat="38.00580" lon="-1.16869"></trkpt>
      <trkpt lat="38.00438" lon="-1.17106"></trkpt>
      <trkpt lat="38.00344" lon="-1.17412"></trkpt>
      <trkpt lat="38.00301" lon="-1.18043"></trkpt>
      <trkpt lat="38.00234" lon="-1.18376"></trkpt>
      <trkpt lat="38.00115" lon="-1.18680"></trkpt>
      <trkpt lat="37.99877" lon="-1.19109"></trkpt>
      <trkpt lat="37.99792" lon="-1.19404"></trkpt>
      <trkpt lat="37.99780" lon="-1.19623"></trkpt>
      <trkpt lat="37.99804" lon="-1.19834"></trkpt>
      <trkpt lat="38.00075" lon="-1.20916"></trkpt>
      <trkpt lat="38.00189" lon="-1.21523"></trkpt>
      <trkpt lat="38.00221" lon="-1.21871"></trkpt>
      <trkpt lat="38.00202" lon="-1.22276"></trkpt>
      <trkpt lat="38.00144" lon="-1.22590"></trkpt>
      <trkpt lat="38.00019" lon="-1.22969"></trkpt>
      <trkpt lat="37.99829" lon="-1.23331"></trkpt>
      <trkpt lat="37.99595" lon="-1.23623"></trkpt>
      <trkpt lat="37.99307" lon="-1.23866"></trkpt>
      <trkpt lat="37.97931" lon="-1.24606"></trkpt>
      <trkpt lat="37.97151" lon="-1.24943"></trkpt>
      <trkpt lat="37.96007" lon="-1.25284"></trkpt>
      <trkpt lat="37.95647" lon="-1.25432"></trkpt>
      <trkpt lat="37.95388" lon="-1.25608"></trkpt>
      <trkpt lat="37.95214" lon="-1.25770"></trkpt>
      <trkpt lat="37.95029" lon="-1.25994"></trkpt>
      <trkpt lat="37.94665" lon="-1.26525"></trkpt>
      <trkpt lat="37.94402" lon="-1.26809"></trkpt>
      <trkpt lat="37.94118" lon="-1.27013"></trkpt>
      <trkpt lat="37.93737" lon="-1.27206"></trkpt>
      <trkpt lat="37.93527" lon="-1.27398"></trkpt>
      <trkpt lat="37.93015" lon="-1.28134"></trkpt>
      <trkpt lat="37.92273" lon="-1.29081"></trkpt>
      <trkpt lat="37.92161" lon="-1.29341"></trkpt>
      <trkpt lat="37.92035" lon="-1.29916"></trkpt>
      <trkpt lat="37.91924" lon="-1.30156"></trkpt>
      <trkpt lat="37.91117" lon="-1.31265"></trkpt>
      <trkpt lat="37.90802" lon="-1.31769"></trkpt>
      <trkpt lat="37.90550" lon="-1.32237"></trkpt>
      <trkpt lat="37.90247" lon="-1.32582"></trkpt>
      <trkpt lat="37.89429" lon="-1.33813"></trkpt>
      <trkpt lat="37.89359" lon="-1.33950"></trkpt>
      <trkpt lat="37.89286" lon="-1.34262"></trkpt>
      <trkpt lat="37.89229" lon="-1.35082"></trkpt>
      <trkpt lat="37.89171" lon="-1.35296"></trkpt>
      <trkpt lat="37.89069" lon="-1.35520"></trkpt>
      <trkpt lat="37.88918" lon="-1.35729"></trkpt>
      <trkpt lat="37.88791" lon="-1.35849"></trkpt>
      <trkpt lat="37.88114" lon="-1.36252"></trkpt>
      <trkpt lat="37.87931" lon="-1.36390"></trkpt>
      <trkpt lat="37.87795" lon="-1.36554"></trkpt>
      <trkpt lat="37.86257" lon="-1.39527"></trkpt>
      <trkpt lat="37.86074" lon="-1.39773"></trkpt>
      <trkpt lat="37.85820" lon="-1.39952"></trkpt>
      <trkpt lat="37.85546" lon="-1.40017"></trkpt>
      <trkpt lat="37.85348" lon="-1.40000"></trkpt>
      <trkpt lat="37.84891" lon="-1.39872"></trkpt>
      <trkpt lat="37.84654" lon="-1.39830"></trkpt>
      <trkpt lat="37.84368" lon="-1.39816"></trkpt>
      <trkpt lat="37.84093" lon="-1.39838"></trkpt>
      <trkpt lat="37.83859" lon="-1.39885"></trkpt>
      <trkpt lat="37.83530" lon="-1.39998"></trkpt>
      <trkpt lat="37.83105" lon="-1.40235"></trkpt>
      <trkpt lat="37.82880" lon="-1.40409"></trkpt>
      <trkpt lat="37.82633" lon="-1.40650"></trkpt>
      <trkpt lat="37.81892" lon="-1.41637"></trkpt>
      <trkpt lat="37.81693" lon="-1.41852"></trkpt>
      <trkpt lat="37.81443" lon="-1.42060"></trkpt>
      <trkpt lat="37.81178" lon="-1.42219"></trkpt>
      <trkpt lat="37.80918" lon="-1.42320"></trkpt>
      <trkpt lat="37.80227" lon="-1.42433"></trkpt>
      <trkpt lat="37.79999" lon="-1.42501"></trkpt>
      <trkpt lat="37.79730" lon="-1.42636"></trkpt>
      <trkpt lat="37.79468" lon="-1.42834"></trkpt>
      <trkpt lat="37.79184" lon="-1.43161"></trkpt>
      <trkpt lat="37.78622" lon="-1.44046"></trkpt>
      <trkpt lat="37.78247" lon="-1.44487"></trkpt>
      <trkpt lat="37.77952" lon="-1.44757"></trkpt>
      <trkpt lat="37.77687" lon="-1.44961"></trkpt>
      <trkpt lat="37.76607" lon="-1.45672"></trkpt>
      <trkpt lat="37.76217" lon="-1.45982"></trkpt>
      <trkpt lat="37.75749" lon="-1.46483"></trkpt>
      <trkpt lat="37.75322" lon="-1.47128"></trkpt>
      <trkpt lat="37.75084" lon="-1.47595"></trkpt>
      <trkpt lat="37.74899" lon="-1.48046"></trkpt>
      <trkpt lat="37.74740" lon="-1.48544"></trkpt>
      <trkpt lat="37.74630" lon="-1.48996"></trkpt>
      <trkpt lat="37.74499" lon="-1.49880"></trkpt>
      <trkpt lat="37.74370" lon="-1.51758"></trkpt>
      <trkpt lat="37.74304" lon="-1.52178"></trkpt>
      <trkpt lat="37.74227" lon="-1.52470"></trkpt>
      <trkpt lat="37.74079" lon="-1.52857"></trkpt>
      <trkpt lat="37.73939" lon="-1.53100"></trkpt>
      <trkpt lat="37.73747" lon="-1.53316"></trkpt>
      <trkpt lat="37.73412" lon="-1.53583"></trkpt>
      <trkpt lat="37.73234" lon="-1.53855"></trkpt>
      <trkpt lat="37.73138" lon="-1.54219"></trkpt>
      <trkpt lat="37.73149" lon="-1.54861"></trkpt>
      <trkpt lat="37.73078" lon="-1.55191"></trkpt>
      <trkpt lat="37.71685" lon="-1.58223"></trkpt>
      <trkpt lat="37.71547" lon="-1.58783"></trkpt>
      <trkpt lat="37.71500" lon="-1.59670"></trkpt>
      <trkpt lat="37.71420" lon="-1.60075"></trkpt>
      <trkpt lat="37.71262" lon="-1.60450"></trkpt>
      <trkpt lat="37.70914" lon="-1.60976"></trkpt>
      <trkpt lat="37.70793" lon="-1.61328"></trkpt>
      <trkpt lat="37.70595" lon="-1.62354"></trkpt>
      <trkpt lat="37.70596" lon="-1.62947"></trkpt>
      <trkpt lat="37.70528" lon="-1.63344"></trkpt>
      <trkpt lat="37.70293" lon="-1.64114"></trkpt>
      <trkpt lat="37.70177" lon="-1.64334"></trkpt>
      <trkpt lat="37.69947" lon="-1.64660"></trkpt>
      <trkpt lat="37.69860" lon="-1.64847"></trkpt>
      <trkpt lat="37.69710" lon="-1.65550"></trkpt>
      <trkpt lat="37.69625" lon="-1.65781"></trkpt>
      <trkpt lat="37.69386" lon="-1.66288"></trkpt>
      <trkpt lat="37.69272" lon="-1.66643"></trkpt>
      <trkpt lat="37.69184" lon="-1.67136"></trkpt>
      <trkpt lat="37.69150" lon="-1.67793"></trkpt>
      <trkpt lat="37.69038" lon="-1.68144"></trkpt>
      <trkpt lat="37.69020" lon="-1.68395"></trkpt>
      <trkpt lat="37.69048" lon="-1.68532"></trkpt>
      <trkpt lat="37.69107" lon="-1.68662"></trkpt>
      <trkpt lat="37.69365" lon="-1.68970"></trkpt>
      <trkpt lat="37.69449" lon="-1.69125"></trkpt>
      <trkpt lat="37.69641" lon="-1.69773"></trkpt>
      <trkpt lat="37.69661" lon="-1.69958"></trkpt>
      <trkpt lat="37.69617" lon="-1.70270"></trkpt>
      <trkpt lat="37.69336" lon="-1.70797"></trkpt>
      <trkpt lat="37.69209" lon="-1.70932"></trkpt>
      <trkpt lat="37.69097" lon="-1.71006"></trkpt>
      <trkpt lat="37.68854" lon="-1.71064"></trkpt>
      <trkpt lat="37.67720" lon="-1.71093"></trkpt>
      <trkpt lat="37.67168" lon="-1.70963"></trkpt>
      <trkpt lat="37.66762" lon="-1.70965"></trkpt>
      <trkpt lat="37.66665" lon="-1.70988"></trkpt>
      <trkpt lat="37.66482" lon="-1.71122"></trkpt>
      <trkpt lat="37.66046" lon="-1.71703"></trkpt>
      <trkpt lat="37.65910" lon="-1.71775"></trkpt>
      <trkpt lat="37.65530" lon="-1.71866"></trkpt>
      <trkpt lat="37.65377" lon="-1.71933"></trkpt>
      <trkpt lat="37.65283" lon="-1.72026"></trkpt>
      <trkpt lat="37.65218" lon="-1.72134"></trkpt>
      <trkpt lat="37.65080" lon="-1.72544"></trkpt>
      <trkpt lat="37.64829" lon="-1.72891"></trkpt>
      <trkpt lat="37.64767" lon="-1.73052"></trkpt>
      <trkpt lat="37.64665" lon="-1.73466"></trkpt>
      <trkpt lat="37.64550" lon="-1.73680"></trkpt>
      <trkpt lat="37.64462" lon="-1.73785"></trkpt>
      <trkpt lat="37.64228" lon="-1.73939"></trkpt>
      <trkpt lat="37.63676" lon="-1.74047"></trkpt>
      <trkpt lat="37.63435" lon="-1.74152"></trkpt>
      <trkpt lat="37.63235" lon="-1.74289"></trkpt>
      <trkpt lat="37.62841" lon="-1.74659"></trkpt>
      <trkpt lat="37.62650" lon="-1.74789"></trkpt>
      <trkpt lat="37.62405" lon="-1.74897"></trkpt>
      <trkpt lat="37.61983" lon="-1.74994"></trkpt>
      <trkpt lat="37.61775" lon="-1.75108"></trkpt>
      <trkpt lat="37.58641" lon="-1.78355"></trkpt>
      <trkpt lat="37.58549" lon="-1.78492"></trkpt>
      <trkpt lat="37.58393" lon="-1.78840"></trkpt>
      <trkpt lat="37.58004" lon="-1.79247"></trkpt>
      <trkpt lat="37.57742" lon="-1.79658"></trkpt>
      <trkpt lat="37.57484" lon="-1.79945"></trkpt>
      <trkpt lat="37.57362" lon="-1.80144"></trkpt>
      <trkpt lat="37.57188" lon="-1.80527"></trkpt>
      <trkpt lat="37.56899" lon="-1.80892"></trkpt>
      <trkpt lat="37.56783" lon="-1.81210"></trkpt>
      <trkpt lat="37.56732" lon="-1.81733"></trkpt>
      <trkpt lat="37.56655" lon="-1.81894"></trkpt>
      <trkpt lat="37.56502" lon="-1.82040"></trkpt>
      <trkpt lat="37.56374" lon="-1.82090"></trkpt>
      <trkpt lat="37.56239" lon="-1.82090"></trkpt>
      <trkpt lat="37.55497" lon="-1.81877"></trkpt>
      <trkpt lat="37.55353" lon="-1.81882"></trkpt>
      <trkpt lat="37.54990" lon="-1.81953"></trkpt>
      <trkpt lat="37.54670" lon="-1.81936"></trkpt>
      <trkpt lat="37.54398" lon="-1.81842"></trkpt>
      <trkpt lat="37.53929" lon="-1.81586"></trkpt>
      <trkpt lat="37.53683" lon="-1.81528"></trkpt>
      <trkpt lat="37.53526" lon="-1.81528"></trkpt>
      <trkpt lat="37.53328" lon="-1.81567"></trkpt>
      <trkpt lat="37.53182" lon="-1.81625"></trkpt>
      <trkpt lat="37.52361" lon="-1.82093"></trkpt>
      <trkpt lat="37.52157" lon="-1.82241"></trkpt>
      <trkpt lat="37.48986" lon="-1.85412"></trkpt>
      <trkpt lat="37.48714" lon="-1.85802"></trkpt>
      <trkpt lat="37.48146" lon="-1.86837"></trkpt>
      <trkpt lat="37.47815" lon="-1.87256"></trkpt>
      <trkpt lat="37.44161" lon="-1.90343"></trkpt>
      <trkpt lat="37.43820" lon="-1.90660"></trkpt>
      <trkpt lat="37.43654" lon="-1.90901"></trkpt>
      <trkpt lat="37.43203" lon="-1.91725"></trkpt>
      <trkpt lat="37.42514" lon="-1.92724"></trkpt>
      <trkpt lat="37.42273" lon="-1.93188"></trkpt>
      <trkpt lat="37.42039" lon="-1.93763"></trkpt>
      <trkpt lat="37.41848" lon="-1.94154"></trkpt>
      <trkpt lat="37.41573" lon="-1.94595"></trkpt>
      <trkpt lat="37.41233" lon="-1.95053"></trkpt>
      <trkpt lat="37.40844" lon="-1.95743"></trkpt>
      <trkpt lat="37.40626" lon="-1.96001"></trkpt>
      <trkpt lat="37.40379" lon="-1.96201"></trkpt>
      <trkpt lat="37.40152" lon="-1.96324"></trkpt>
      <trkpt lat="37.39854" lon="-1.96417"></trkpt>
      <trkpt lat="37.39449" lon="-1.96425"></trkpt>
      <trkpt lat="37.39090" lon="-1.96324"></trkpt>
      <trkpt lat="37.38807" lon="-1.96167"></trkpt>
      <trkpt lat="37.38280" lon="-1.95698"></trkpt>
      <trkpt lat="37.38086" lon="-1.95619"></trkpt>
      <trkpt lat="37.37926" lon="-1.95602"></trkpt>
      <trkpt lat="37.37695" lon="-1.95650"></trkpt>
      <trkpt lat="37.37497" lon="-1.95768"></trkpt>
      <trkpt lat="37.36850" lon="-1.96495"></trkpt>
      <trkpt lat="37.36560" lon="-1.96737"></trkpt>
      <trkpt lat="37.36290" lon="-1.96866"></trkpt>
      <trkpt lat="37.35869" lon="-1.96982"></trkpt>
      <trkpt lat="37.35467" lon="-1.97198"></trkpt>
      <trkpt lat="37.35262" lon="-1.97205"></trkpt>
      <trkpt lat="37.35083" lon="-1.97147"></trkpt>
      <trkpt lat="37.34721" lon="-1.96955"></trkpt>
      <trkpt lat="37.34340" lon="-1.96661"></trkpt>
      <trkpt lat="37.34075" lon="-1.96567"></trkpt>
      <trkpt lat="37.33815" lon="-1.96586"></trkpt>
      <trkpt lat="37.33458" lon="-1.96740"></trkpt>
      <trkpt lat="37.33330" lon="-1.96772"></trkpt>
      <trkpt lat="37.32489" lon="-1.96852"></trkpt>
      <trkpt lat="37.32128" lon="-1.96873"></trkpt>
      <trkpt lat="37.31988" lon="-1.96842"></trkpt>
      <trkpt lat="37.31838" lon="-1.96770"></trkpt>
      <trkpt lat="37.31638" lon="-1.96583"></trkpt>
      <trkpt lat="37.31231" lon="-1.95984"></trkpt>
      <trkpt lat="37.31045" lon="-1.95768"></trkpt>
      <trkpt lat="37.29606" lon="-1.94256"></trkpt>
      <trkpt lat="37.28608" lon="-1.93372"></trkpt>
      <trkpt lat="37.28471" lon="-1.93217"></trkpt>
      <trkpt lat="37.28371" lon="-1.93048"></trkpt>
      <trkpt lat="37.28303" lon="-1.92873"></trkpt>
      <trkpt lat="37.27940" lon="-1.91395"></trkpt>
      <trkpt lat="37.27804" lon="-1.91095"></trkpt>
      <trkpt lat="37.27589" lon="-1.90798"></trkpt>
      <trkpt lat="37.27307" lon="-1.90562"></trkpt>
      <trkpt lat="37.26976" lon="-1.90423"></trkpt>
      <trkpt lat="37.26727" lon="-1.90385"></trkpt>
      <trkpt lat="37.26045" lon="-1.90343"></trkpt>
      <trkpt lat="37.25999" lon="-1.90387"></trkpt>
      <trkpt lat="37.25977" lon="-1.90382"></trkpt>
      <trkpt lat="37.25925" lon="-1.89586"></trkpt>
      <trkpt lat="37.25630" lon="-1.88841"></trkpt>
      <trkpt lat="37.25598" lon="-1.88808"></trkpt>
      <trkpt lat="37.25614" lon="-1.88770"></trkpt>
      <trkpt lat="37.25693" lon="-1.88751"></trkpt>
      <trkpt lat="37.25746" lon="-1.88676"></trkpt>
      <trkpt lat="37.25826" lon="-1.88256"></trkpt>
      <trkpt lat="37.25820" lon="-1.88093"></trkpt>
      <trkpt lat="37.25714" lon="-1.87536"></trkpt>
      <trkpt lat="37.25467" lon="-1.86863"></trkpt>
      <trkpt lat="37.24973" lon="-1.85913"></trkpt>
      <trkpt lat="37.24830" lon="-1.85722"></trkpt>
      <trkpt lat="37.24603" lon="-1.85569"></trkpt>
      <trkpt lat="37.24379" lon="-1.85525"></trkpt>
      <trkpt lat="37.24188" lon="-1.85558"></trkpt>
      <trkpt lat="37.24087" lon="-1.85659"></trkpt>
      <trkpt lat="37.24075" lon="-1.85711"></trkpt>
      <trkpt lat="37.24049" lon="-1.85716"></trkpt>
      <trkpt lat="37.24027" lon="-1.85668"></trkpt>
      <trkpt lat="37.23614" lon="-1.85258"></trkpt>
      <trkpt lat="37.23580" lon="-1.85181"></trkpt>
      <trkpt lat="37.22949" lon="-1.84312"></trkpt>
      <trkpt lat="37.22645" lon="-1.84101"></trkpt>
      <trkpt lat="37.22282" lon="-1.83651"></trkpt>
      <trkpt lat="37.21930" lon="-1.83429"></trkpt>
      <trkpt lat="37.21498" lon="-1.83376"></trkpt>
      <trkpt lat="37.21419" lon="-1.83317"></trkpt>
      <trkpt lat="37.21157" lon="-1.83025"></trkpt>
      <trkpt lat="37.21076" lon="-1.82970"></trkpt>
      <trkpt lat="37.20992" lon="-1.82951"></trkpt>
      <trkpt lat="37.20638" lon="-1.82985"></trkpt>
      <trkpt lat="37.20545" lon="-1.82958"></trkpt>
      <trkpt lat="37.19905" lon="-1.82214"></trkpt>
      <trkpt lat="37.19817" lon="-1.82214"></trkpt>
      <trkpt lat="37.18953" lon="-1.82499"></trkpt>
      <trkpt lat="37.18935" lon="-1.82473"></trkpt>
      <trkpt lat="37.18946" lon="-1.82331"></trkpt>
      <trkpt lat="37.18807" lon="-1.81967"></trkpt>
      <trkpt lat="37.18643" lon="-1.81999"></trkpt>
      <trkpt lat="37.17917" lon="-1.82272"></trkpt>
      <trkpt lat="37.17815" lon="-1.82286"></trkpt>
      <trkpt lat="37.17804" lon="-1.82212"></trkpt>
      <trkpt lat="37.17739" lon="-1.82226"></trkpt>
      <trkpt lat="37.17747" lon="-1.82295"></trkpt>
      <trkpt lat="37.17495" lon="-1.82352"></trkpt>
      <trkpt lat="37.17479" lon="-1.82390"></trkpt>
      <trkpt lat="37.17525" lon="-1.82802"></trkpt>
      <trkpt lat="37.17399" lon="-1.82923"></trkpt>
      <trkpt lat="37.16853" lon="-1.83928"></trkpt>
      <trkpt lat="37.16379" lon="-1.84895"></trkpt>
      <trkpt lat="37.16151" lon="-1.85303"></trkpt>
      <trkpt lat="37.16077" lon="-1.85584"></trkpt>
      <trkpt lat="37.16085" lon="-1.85749"></trkpt>
      <trkpt lat="37.16184" lon="-1.86117"></trkpt>
      <trkpt lat="37.16542" lon="-1.89046"></trkpt>
      <trkpt lat="37.16527" lon="-1.90240"></trkpt>
      <trkpt lat="37.16449" lon="-1.90979"></trkpt>
      <trkpt lat="37.16423" lon="-1.91841"></trkpt>
      <trkpt lat="37.16468" lon="-1.92030"></trkpt>
      <trkpt lat="37.16862" lon="-1.93127"></trkpt>
      <trkpt lat="37.16696" lon="-1.93311"></trkpt>
      <trkpt lat="37.16620" lon="-1.93445"></trkpt>
      <trkpt lat="37.16554" lon="-1.94201"></trkpt>
      <trkpt lat="37.16500" lon="-1.94353"></trkpt>
      <trkpt lat="37.16427" lon="-1.94428"></trkpt>
      <trkpt lat="37.16190" lon="-1.94565"></trkpt>
      <trkpt lat="37.15999" lon="-1.94843"></trkpt>
      <trkpt lat="37.15787" lon="-1.94944"></trkpt>
      <trkpt lat="37.15792" lon="-1.95167"></trkpt>
      <trkpt lat="37.15760" lon="-1.95245"></trkpt>
      <trkpt lat="37.15706" lon="-1.95273"></trkpt>
      <trkpt lat="37.15549" lon="-1.95286"></trkpt>
      <trkpt lat="37.15194" lon="-1.95541"></trkpt>
      <trkpt lat="37.14720" lon="-1.96031"></trkpt>
      <trkpt lat="37.14605" lon="-1.96214"></trkpt>
      <trkpt lat="37.14548" lon="-1.96436"></trkpt>
      <trkpt lat="37.14545" lon="-1.96592"></trkpt>
      <trkpt lat="37.14763" lon="-1.98174"></trkpt>
      <trkpt lat="37.14745" lon="-1.98493"></trkpt>
      <trkpt lat="37.14650" lon="-1.98726"></trkpt>
      <trkpt lat="37.14399" lon="-1.99066"></trkpt>
      <trkpt lat="37.14221" lon="-1.99597"></trkpt>
      <trkpt lat="37.14134" lon="-1.99723"></trkpt>
      <trkpt lat="37.13949" lon="-1.99895"></trkpt>
      <trkpt lat="37.13842" lon="-2.00033"></trkpt>
      <trkpt lat="37.13685" lon="-2.00417"></trkpt>
      <trkpt lat="37.13597" lon="-2.00572"></trkpt>
      <trkpt lat="37.13171" lon="-2.01035"></trkpt>
      <trkpt lat="37.13029" lon="-2.01158"></trkpt>
      <trkpt lat="37.12418" lon="-2.01517"></trkpt>
      <trkpt lat="37.11826" lon="-2.02032"></trkpt>
      <trkpt lat="37.11485" lon="-2.02235"></trkpt>
      <trkpt lat="37.11315" lon="-2.02369"></trkpt>
      <trkpt lat="37.11097" lon="-2.02634"></trkpt>
      <trkpt lat="37.10794" lon="-2.03155"></trkpt>
      <trkpt lat="37.10634" lon="-2.03328"></trkpt>
      <trkpt lat="37.10081" lon="-2.03805"></trkpt>
      <trkpt lat="37.09966" lon="-2.03933"></trkpt>
      <trkpt lat="37.09808" lon="-2.04186"></trkpt>
      <trkpt lat="37.09419" lon="-2.05212"></trkpt>
      <trkpt lat="37.09367" lon="-2.05486"></trkpt>
      <trkpt lat="37.09380" lon="-2.05925"></trkpt>
      <trkpt lat="37.09337" lon="-2.06112"></trkpt>
      <trkpt lat="37.09230" lon="-2.06277"></trkpt>
      <trkpt lat="37.09056" lon="-2.06382"></trkpt>
      <trkpt lat="37.08909" lon="-2.06386"></trkpt>
      <trkpt lat="37.08735" lon="-2.06298"></trkpt>
      <trkpt lat="37.08646" lon="-2.06197"></trkpt>
      <trkpt lat="37.08425" lon="-2.05839"></trkpt>
      <trkpt lat="37.08315" lon="-2.05738"></trkpt>
      <trkpt lat="37.08184" lon="-2.05673"></trkpt>
      <trkpt lat="37.07070" lon="-2.05550"></trkpt>
      <trkpt lat="37.06759" lon="-2.05494"></trkpt>
      <trkpt lat="37.06412" lon="-2.05394"></trkpt>
      <trkpt lat="37.05850" lon="-2.05174"></trkpt>
      <trkpt lat="37.05254" lon="-2.05052"></trkpt>
      <trkpt lat="37.05121" lon="-2.04999"></trkpt>
      <trkpt lat="37.04989" lon="-2.04889"></trkpt>
      <trkpt lat="37.04877" lon="-2.04711"></trkpt>
      <trkpt lat="37.04759" lon="-2.04211"></trkpt>
      <trkpt lat="37.04663" lon="-2.03999"></trkpt>
      <trkpt lat="37.04496" lon="-2.03806"></trkpt>
      <trkpt lat="37.04296" lon="-2.03700"></trkpt>
      <trkpt lat="37.04035" lon="-2.03699"></trkpt>
      <trkpt lat="37.03799" lon="-2.03793"></trkpt>
      <trkpt lat="37.03582" lon="-2.03974"></trkpt>
      <trkpt lat="37.03360" lon="-2.04278"></trkpt>
      <trkpt lat="37.03176" lon="-2.04393"></trkpt>
      <trkpt lat="37.03054" lon="-2.04410"></trkpt>
      <trkpt lat="37.02257" lon="-2.04360"></trkpt>
      <trkpt lat="37.01522" lon="-2.04390"></trkpt>
      <trkpt lat="37.01276" lon="-2.04441"></trkpt>
      <trkpt lat="37.01100" lon="-2.04548"></trkpt>
      <trkpt lat="37.00950" lon="-2.04713"></trkpt>
      <trkpt lat="37.00868" lon="-2.04865"></trkpt>
      <trkpt lat="37.00808" lon="-2.05049"></trkpt>
      <trkpt lat="37.00743" lon="-2.05395"></trkpt>
      <trkpt lat="37.00642" lon="-2.05579"></trkpt>
      <trkpt lat="37.00482" lon="-2.05708"></trkpt>
      <trkpt lat="37.00218" lon="-2.05794"></trkpt>
      <trkpt lat="37.00066" lon="-2.05886"></trkpt>
      <trkpt lat="36.99729" lon="-2.06277"></trkpt>
      <trkpt lat="36.99341" lon="-2.06607"></trkpt>
      <trkpt lat="36.99205" lon="-2.06762"></trkpt>
      <trkpt lat="36.98701" lon="-2.07467"></trkpt>
      <trkpt lat="36.98110" lon="-2.08072"></trkpt>
      <trkpt lat="36.97637" lon="-2.08614"></trkpt>
      <trkpt lat="36.97125" lon="-2.09436"></trkpt>
      <trkpt lat="36.96766" lon="-2.09918"></trkpt>
      <trkpt lat="36.95507" lon="-2.12627"></trkpt>
      <trkpt lat="36.95282" lon="-2.13530"></trkpt>
      <trkpt lat="36.95100" lon="-2.15323"></trkpt>
      <trkpt lat="36.95091" lon="-2.16328"></trkpt>
      <trkpt lat="36.95031" lon="-2.17099"></trkpt>
      <trkpt lat="36.95052" lon="-2.18075"></trkpt>
      <trkpt lat="36.95029" lon="-2.18301"></trkpt>
      <trkpt lat="36.94986" lon="-2.18430"></trkpt>
      <trkpt lat="36.94899" lon="-2.18581"></trkpt>
      <trkpt lat="36.94501" lon="-2.18988"></trkpt>
      <trkpt lat="36.94362" lon="-2.19197"></trkpt>
      <trkpt lat="36.94274" lon="-2.19425"></trkpt>
      <trkpt lat="36.94034" lon="-2.20272"></trkpt>
      <trkpt lat="36.93886" lon="-2.20561"></trkpt>
      <trkpt lat="36.93701" lon="-2.20747"></trkpt>
      <trkpt lat="36.93495" lon="-2.20857"></trkpt>
      <trkpt lat="36.92690" lon="-2.20972"></trkpt>
      <trkpt lat="36.92188" lon="-2.21116"></trkpt>
      <trkpt lat="36.90864" lon="-2.21262"></trkpt>
      <trkpt lat="36.89152" lon="-2.21363"></trkpt>
      <trkpt lat="36.89034" lon="-2.21390"></trkpt>
      <trkpt lat="36.88092" lon="-2.21865"></trkpt>
      <trkpt lat="36.87447" lon="-2.22446"></trkpt>
      <trkpt lat="36.86797" lon="-2.23308"></trkpt>
      <trkpt lat="36.86712" lon="-2.23527"></trkpt>
      <trkpt lat="36.86312" lon="-2.25255"></trkpt>
      <trkpt lat="36.86209" lon="-2.25757"></trkpt>
      <trkpt lat="36.86206" lon="-2.26007"></trkpt>
      <trkpt lat="36.86249" lon="-2.26182"></trkpt>
      <trkpt lat="36.86460" lon="-2.26753"></trkpt>
      <trkpt lat="36.87012" lon="-2.27751"></trkpt>
      <trkpt lat="36.87161" lon="-2.28268"></trkpt>
      <trkpt lat="36.87195" lon="-2.28593"></trkpt>
      <trkpt lat="36.87181" lon="-2.28974"></trkpt>
      <trkpt lat="36.86886" lon="-2.31013"></trkpt>
      <trkpt lat="36.86876" lon="-2.31451"></trkpt>
      <trkpt lat="36.86914" lon="-2.31891"></trkpt>
      <trkpt lat="36.87000" lon="-2.32334"></trkpt>
      <trkpt lat="36.87236" lon="-2.33078"></trkpt>
      <trkpt lat="36.87380" lon="-2.33705"></trkpt>
      <trkpt lat="36.88065" lon="-2.35503"></trkpt>
      <trkpt lat="36.88206" lon="-2.35977"></trkpt>
      <trkpt lat="36.88325" lon="-2.36502"></trkpt>
      <trkpt lat="36.88422" lon="-2.37135"></trkpt>
      <trkpt lat="36.88473" lon="-2.37966"></trkpt>
      <trkpt lat="36.88460" lon="-2.38539"></trkpt>
      <trkpt lat="36.88358" lon="-2.39787"></trkpt>
      <trkpt lat="36.88378" lon="-2.40320"></trkpt>
      <trkpt lat="36.88478" lon="-2.40822"></trkpt>
      <trkpt lat="36.88643" lon="-2.41268"></trkpt>
      <trkpt lat="36.88820" lon="-2.41594"></trkpt>
      <trkpt lat="36.89220" lon="-2.42158"></trkpt>
      <trkpt lat="36.89315" lon="-2.42403"></trkpt>
      <trkpt lat="36.89332" lon="-2.42551"></trkpt>
      <trkpt lat="36.89316" lon="-2.42735"></trkpt>
      <trkpt lat="36.89167" lon="-2.43157"></trkpt>
      <trkpt lat="36.89131" lon="-2.43417"></trkpt>
      <trkpt lat="36.89163" lon="-2.43714"></trkpt>
      <trkpt lat="36.89310" lon="-2.44158"></trkpt>
      <trkpt lat="36.89313" lon="-2.44423"></trkpt>
      <trkpt lat="36.89270" lon="-2.44594"></trkpt>
      <trkpt lat="36.89156" lon="-2.44850"></trkpt>
      <trkpt lat="36.89057" lon="-2.45222"></trkpt>
      <trkpt lat="36.88986" lon="-2.45348"></trkpt>
      <trkpt lat="36.88876" lon="-2.45467"></trkpt>
      <trkpt lat="36.88697" lon="-2.45565"></trkpt>
      <trkpt lat="36.86671" lon="-2.46369"></trkpt>
      <trkpt lat="36.86479" lon="-2.46469"></trkpt>
      <trkpt lat="36.86264" lon="-2.46637"></trkpt>
      <trkpt lat="36.85824" lon="-2.47098"></trkpt>
      <trkpt lat="36.85281" lon="-2.47454"></trkpt>
      <trkpt lat="36.85143" lon="-2.47572"></trkpt>
      <trkpt lat="36.84983" lon="-2.47756"></trkpt>
      <trkpt lat="36.84700" lon="-2.48163"></trkpt>
      <trkpt lat="36.84511" lon="-2.48349"></trkpt>
      <trkpt lat="36.83443" lon="-2.49031"></trkpt>
      <trkpt lat="36.83252" lon="-2.49293"></trkpt>
      <trkpt lat="36.83159" lon="-2.49590"></trkpt>
      <trkpt lat="36.83147" lon="-2.49793"></trkpt>
      <trkpt lat="36.83178" lon="-2.50177"></trkpt>
      <trkpt lat="36.83232" lon="-2.50274"></trkpt>
      <trkpt lat="36.83257" lon="-2.50283"></trkpt>
      <trkpt lat="36.83322" lon="-2.50232"></trkpt>
      <trkpt lat="36.83425" lon="-2.49942"></trkpt>
      <trkpt lat="36.83389" lon="-2.49541"></trkpt>
      <trkpt lat="36.83320" lon="-2.49424"></trkpt>
      <trkpt lat="36.83064" lon="-2.49231"></trkpt>
      <trkpt lat="36.83043" lon="-2.49121"></trkpt>
      <trkpt lat="36.83129" lon="-2.48879"></trkpt>
      <trkpt lat="36.83210" lon="-2.48785"></trkpt>
      <trkpt lat="36.83362" lon="-2.48673"></trkpt>
      <trkpt lat="36.83594" lon="-2.48349"></trkpt>
      <trkpt lat="36.83719" lon="-2.47977"></trkpt>
      <trkpt lat="36.83707" lon="-2.47925"></trkpt>
      <trkpt lat="36.83678" lon="-2.47910"></trkpt>
      <trkpt lat="36.83605" lon="-2.47987"></trkpt>
      <trkpt lat="36.83525" lon="-2.47958"></trkpt>
      <trkpt lat="36.83470" lon="-2.47894"></trkpt>
      <trkpt lat="36.83447" lon="-2.47900"></trkpt>
      <trkpt lat="36.83441" lon="-2.47848"></trkpt>
      <trkpt lat="36.83267" lon="-2.47609"></trkpt>
      <trkpt lat="36.83226" lon="-2.47654"></trkpt>
      <trkpt lat="36.83194" lon="-2.47610"></trkpt>
    </trkseg>
  </trk>
</gpx>
