<?xml version="1.0" encoding="UTF-8"?>
<gpx version="1.1" creator="Marokko Motorreis 2026"
     xmlns="http://www.topografix.com/GPX/1/1"
     xmlns:xsi="http://www.w3.org/2001/XMLSchema-instance"
     xsi:schemaLocation="http://www.topografix.com/GPX/1/1 http://www.topografix.com/GPX/1/1/gpx.xsd">
  <metadata><name>Dag 9 (20 okt) Beni Mellal - Khenifra - Midelt</name><desc>267 km, ca. 4u40 rijden. Beboste Midden-Atlaswegen terug naar Moonrise Villa VIP in Midelt.</desc></metadata>
  <wpt lat="32.337344" lon="-6.349810"><name>Beni Mellal</name><sym>Flag, Blue</sym></wpt>
  <wpt lat="32.598020" lon="-6.267983"><name>Kasba Tadla</name><sym>Flag, Blue</sym></wpt>
  <wpt lat="32.934989" lon="-5.667953"><name>Khenifra - lunch</name><sym>Flag, Blue</sym></wpt>
  <wpt lat="32.680360" lon="-4.744051"><name>Midelt - Moonrise Villa VIP</name><sym>Flag, Blue</sym></wpt>
  <trk>
    <name>Dag 9 (20 okt) Beni Mellal - Khenifra - Midelt</name>
    <desc>267 km, ca. 4u40 rijden. Beboste Midden-Atlaswegen terug naar Moonrise Villa VIP in Midelt.</desc>
    <trkseg>
      <trkpt lat="32.33734" lon="-6.34981"></trkpt>
      <trkpt lat="32.33838" lon="-6.34711"></trkpt>
      <trkpt lat="32.33876" lon="-6.34683"></trkpt>
      <trkpt lat="32.34040" lon="-6.34411"></trkpt>
      <trkpt lat="32.34571" lon="-6.34082"></trkpt>
      <trkpt lat="32.34736" lon="-6.33912"></trkpt>
      <trkpt lat="32.34986" lon="-6.33809"></trkpt>
      <trkpt lat="32.35031" lon="-6.33742"></trkpt>
      <trkpt lat="32.35105" lon="-6.33757"></trkpt>
      <trkpt lat="32.35509" lon="-6.33557"></trkpt>
      <trkpt lat="32.36418" lon="-6.33036"></trkpt>
      <trkpt lat="32.36682" lon="-6.32939"></trkpt>
      <trkpt lat="32.37331" lon="-6.32788"></trkpt>
      <trkpt lat="32.37489" lon="-6.32793"></trkpt>
      <trkpt lat="32.37531" lon="-6.32818"></trkpt>
      <trkpt lat="32.37698" lon="-6.32840"></trkpt>
      <trkpt lat="32.37975" lon="-6.32791"></trkpt>
      <trkpt lat="32.38913" lon="-6.32926"></trkpt>
      <trkpt lat="32.39300" lon="-6.33090"></trkpt>
      <trkpt lat="32.40243" lon="-6.33339"></trkpt>
      <trkpt lat="32.41169" lon="-6.33367"></trkpt>
      <trkpt lat="32.41427" lon="-6.33318"></trkpt>
      <trkpt lat="32.41681" lon="-6.33141"></trkpt>
      <trkpt lat="32.41924" lon="-6.33020"></trkpt>
      <trkpt lat="32.42283" lon="-6.32948"></trkpt>
      <trkpt lat="32.43112" lon="-6.32899"></trkpt>
      <trkpt lat="32.43789" lon="-6.32806"></trkpt>
      <trkpt lat="32.44246" lon="-6.32638"></trkpt>
      <trkpt lat="32.44332" lon="-6.32571"></trkpt>
      <trkpt lat="32.44628" lon="-6.32418"></trkpt>
      <trkpt lat="32.45141" lon="-6.32418"></trkpt>
      <trkpt lat="32.46917" lon="-6.31855"></trkpt>
      <trkpt lat="32.48172" lon="-6.31496"></trkpt>
      <trkpt lat="32.48651" lon="-6.31267"></trkpt>
      <trkpt lat="32.49166" lon="-6.30834"></trkpt>
      <trkpt lat="32.49848" lon="-6.29979"></trkpt>
      <trkpt lat="32.50539" lon="-6.29200"></trkpt>
      <trkpt lat="32.52747" lon="-6.28292"></trkpt>
      <trkpt lat="32.54740" lon="-6.27913"></trkpt>
      <trkpt lat="32.56139" lon="-6.27222"></trkpt>
      <trkpt lat="32.56946" lon="-6.26921"></trkpt>
      <trkpt lat="32.57312" lon="-6.26852"></trkpt>
      <trkpt lat="32.57752" lon="-6.26882"></trkpt>
      <trkpt lat="32.58058" lon="-6.26821"></trkpt>
      <trkpt lat="32.58198" lon="-6.26749"></trkpt>
      <trkpt lat="32.58268" lon="-6.26677"></trkpt>
      <trkpt lat="32.58301" lon="-6.26601"></trkpt>
      <trkpt lat="32.58324" lon="-6.26611"></trkpt>
      <trkpt lat="32.58340" lon="-6.26695"></trkpt>
      <trkpt lat="32.58454" lon="-6.26930"></trkpt>
      <trkpt lat="32.58532" lon="-6.27020"></trkpt>
      <trkpt lat="32.58946" lon="-6.27103"></trkpt>
      <trkpt lat="32.59175" lon="-6.26993"></trkpt>
      <trkpt lat="32.59222" lon="-6.27030"></trkpt>
      <trkpt lat="32.59248" lon="-6.27195"></trkpt>
      <trkpt lat="32.59290" lon="-6.27227"></trkpt>
      <trkpt lat="32.59396" lon="-6.27216"></trkpt>
      <trkpt lat="32.59463" lon="-6.26892"></trkpt>
      <trkpt lat="32.59485" lon="-6.26864"></trkpt>
      <trkpt lat="32.59580" lon="-6.26852"></trkpt>
      <trkpt lat="32.59602" lon="-6.26807"></trkpt>
      <trkpt lat="32.59598" lon="-6.26718"></trkpt>
      <trkpt lat="32.59692" lon="-6.26839"></trkpt>
      <trkpt lat="32.59800" lon="-6.26864"></trkpt>
      <trkpt lat="32.59852" lon="-6.26901"></trkpt>
      <trkpt lat="32.59859" lon="-6.26832"></trkpt>
      <trkpt lat="32.59813" lon="-6.26816"></trkpt>
      <trkpt lat="32.59770" lon="-6.26746"></trkpt>
      <trkpt lat="32.59732" lon="-6.26784"></trkpt>
      <trkpt lat="32.59800" lon="-6.26864"></trkpt>
      <trkpt lat="32.59692" lon="-6.26839"></trkpt>
      <trkpt lat="32.59630" lon="-6.26749"></trkpt>
      <trkpt lat="32.59580" lon="-6.26852"></trkpt>
      <trkpt lat="32.59470" lon="-6.26876"></trkpt>
      <trkpt lat="32.59399" lon="-6.27230"></trkpt>
      <trkpt lat="32.59264" lon="-6.27215"></trkpt>
      <trkpt lat="32.59229" lon="-6.27047"></trkpt>
      <trkpt lat="32.59175" lon="-6.26993"></trkpt>
      <trkpt lat="32.58946" lon="-6.27103"></trkpt>
      <trkpt lat="32.58560" lon="-6.27036"></trkpt>
      <trkpt lat="32.58475" lon="-6.26965"></trkpt>
      <trkpt lat="32.58340" lon="-6.26695"></trkpt>
      <trkpt lat="32.58290" lon="-6.26642"></trkpt>
      <trkpt lat="32.58181" lon="-6.26316"></trkpt>
      <trkpt lat="32.58156" lon="-6.26183"></trkpt>
      <trkpt lat="32.58151" lon="-6.25878"></trkpt>
      <trkpt lat="32.58179" lon="-6.25803"></trkpt>
      <trkpt lat="32.58443" lon="-6.23749"></trkpt>
      <trkpt lat="32.58425" lon="-6.23656"></trkpt>
      <trkpt lat="32.58164" lon="-6.23216"></trkpt>
      <trkpt lat="32.58124" lon="-6.23107"></trkpt>
      <trkpt lat="32.58180" lon="-6.22127"></trkpt>
      <trkpt lat="32.57979" lon="-6.19831"></trkpt>
      <trkpt lat="32.58017" lon="-6.19613"></trkpt>
      <trkpt lat="32.59455" lon="-6.16328"></trkpt>
      <trkpt lat="32.60415" lon="-6.11062"></trkpt>
      <trkpt lat="32.60410" lon="-6.10884"></trkpt>
      <trkpt lat="32.59901" lon="-6.06600"></trkpt>
      <trkpt lat="32.59858" lon="-6.06484"></trkpt>
      <trkpt lat="32.59877" lon="-6.06398"></trkpt>
      <trkpt lat="32.59589" lon="-6.03977"></trkpt>
      <trkpt lat="32.59607" lon="-6.03880"></trkpt>
      <trkpt lat="32.59760" lon="-6.03634"></trkpt>
      <trkpt lat="32.59987" lon="-6.02836"></trkpt>
      <trkpt lat="32.60131" lon="-6.02457"></trkpt>
      <trkpt lat="32.60173" lon="-6.02218"></trkpt>
      <trkpt lat="32.60213" lon="-6.01856"></trkpt>
      <trkpt lat="32.60110" lon="-6.00777"></trkpt>
      <trkpt lat="32.60123" lon="-6.00660"></trkpt>
      <trkpt lat="32.60646" lon="-5.99790"></trkpt>
      <trkpt lat="32.60998" lon="-5.99423"></trkpt>
      <trkpt lat="32.61757" lon="-5.98304"></trkpt>
      <trkpt lat="32.62597" lon="-5.96992"></trkpt>
      <trkpt lat="32.62718" lon="-5.96667"></trkpt>
      <trkpt lat="32.62659" lon="-5.96357"></trkpt>
      <trkpt lat="32.62697" lon="-5.96012"></trkpt>
      <trkpt lat="32.63478" lon="-5.93917"></trkpt>
      <trkpt lat="32.63458" lon="-5.93720"></trkpt>
      <trkpt lat="32.63361" lon="-5.93411"></trkpt>
      <trkpt lat="32.63378" lon="-5.93222"></trkpt>
      <trkpt lat="32.63421" lon="-5.93107"></trkpt>
      <trkpt lat="32.64337" lon="-5.91535"></trkpt>
      <trkpt lat="32.64351" lon="-5.91464"></trkpt>
      <trkpt lat="32.64314" lon="-5.91329"></trkpt>
      <trkpt lat="32.64330" lon="-5.91262"></trkpt>
      <trkpt lat="32.64369" lon="-5.91225"></trkpt>
      <trkpt lat="32.64495" lon="-5.91202"></trkpt>
      <trkpt lat="32.64555" lon="-5.91159"></trkpt>
      <trkpt lat="32.64696" lon="-5.90929"></trkpt>
      <trkpt lat="32.64921" lon="-5.90831"></trkpt>
      <trkpt lat="32.65006" lon="-5.90681"></trkpt>
      <trkpt lat="32.65211" lon="-5.90652"></trkpt>
      <trkpt lat="32.65222" lon="-5.90589"></trkpt>
      <trkpt lat="32.65169" lon="-5.90449"></trkpt>
      <trkpt lat="32.65186" lon="-5.90409"></trkpt>
      <trkpt lat="32.65312" lon="-5.90428"></trkpt>
      <trkpt lat="32.65396" lon="-5.90412"></trkpt>
      <trkpt lat="32.65558" lon="-5.90244"></trkpt>
      <trkpt lat="32.65828" lon="-5.90031"></trkpt>
      <trkpt lat="32.65927" lon="-5.89890"></trkpt>
      <trkpt lat="32.66027" lon="-5.89625"></trkpt>
      <trkpt lat="32.65990" lon="-5.89352"></trkpt>
      <trkpt lat="32.66021" lon="-5.89293"></trkpt>
      <trkpt lat="32.66056" lon="-5.89284"></trkpt>
      <trkpt lat="32.66151" lon="-5.89316"></trkpt>
      <trkpt lat="32.66256" lon="-5.89307"></trkpt>
      <trkpt lat="32.66599" lon="-5.89152"></trkpt>
      <trkpt lat="32.67221" lon="-5.88603"></trkpt>
      <trkpt lat="32.67332" lon="-5.88267"></trkpt>
      <trkpt lat="32.67418" lon="-5.87825"></trkpt>
      <trkpt lat="32.67677" lon="-5.87523"></trkpt>
      <trkpt lat="32.67819" lon="-5.87260"></trkpt>
      <trkpt lat="32.67859" lon="-5.86989"></trkpt>
      <trkpt lat="32.67742" lon="-5.86705"></trkpt>
      <trkpt lat="32.67781" lon="-5.86675"></trkpt>
      <trkpt lat="32.67926" lon="-5.86725"></trkpt>
      <trkpt lat="32.68003" lon="-5.86707"></trkpt>
      <trkpt lat="32.68070" lon="-5.86640"></trkpt>
      <trkpt lat="32.68126" lon="-5.86519"></trkpt>
      <trkpt lat="32.68221" lon="-5.85933"></trkpt>
      <trkpt lat="32.68152" lon="-5.85693"></trkpt>
      <trkpt lat="32.68163" lon="-5.85625"></trkpt>
      <trkpt lat="32.68284" lon="-5.85494"></trkpt>
      <trkpt lat="32.68501" lon="-5.85392"></trkpt>
      <trkpt lat="32.68668" lon="-5.85406"></trkpt>
      <trkpt lat="32.69591" lon="-5.85214"></trkpt>
      <trkpt lat="32.69734" lon="-5.85028"></trkpt>
      <trkpt lat="32.69829" lon="-5.84965"></trkpt>
      <trkpt lat="32.69868" lon="-5.84857"></trkpt>
      <trkpt lat="32.69851" lon="-5.84766"></trkpt>
      <trkpt lat="32.69740" lon="-5.84630"></trkpt>
      <trkpt lat="32.69578" lon="-5.84521"></trkpt>
      <trkpt lat="32.69538" lon="-5.84450"></trkpt>
      <trkpt lat="32.69539" lon="-5.84399"></trkpt>
      <trkpt lat="32.69670" lon="-5.84298"></trkpt>
      <trkpt lat="32.69708" lon="-5.84321"></trkpt>
      <trkpt lat="32.69726" lon="-5.84413"></trkpt>
      <trkpt lat="32.69824" lon="-5.84478"></trkpt>
      <trkpt lat="32.70013" lon="-5.84472"></trkpt>
      <trkpt lat="32.70185" lon="-5.84394"></trkpt>
      <trkpt lat="32.70307" lon="-5.84141"></trkpt>
      <trkpt lat="32.70397" lon="-5.84024"></trkpt>
      <trkpt lat="32.70359" lon="-5.83843"></trkpt>
      <trkpt lat="32.70522" lon="-5.83516"></trkpt>
      <trkpt lat="32.70363" lon="-5.82882"></trkpt>
      <trkpt lat="32.70164" lon="-5.82336"></trkpt>
      <trkpt lat="32.70158" lon="-5.82156"></trkpt>
      <trkpt lat="32.70082" lon="-5.81864"></trkpt>
      <trkpt lat="32.70090" lon="-5.81805"></trkpt>
      <trkpt lat="32.70542" lon="-5.81553"></trkpt>
      <trkpt lat="32.70879" lon="-5.81126"></trkpt>
      <trkpt lat="32.70945" lon="-5.81007"></trkpt>
      <trkpt lat="32.70992" lon="-5.80827"></trkpt>
      <trkpt lat="32.71052" lon="-5.80744"></trkpt>
      <trkpt lat="32.71101" lon="-5.80721"></trkpt>
      <trkpt lat="32.71192" lon="-5.80758"></trkpt>
      <trkpt lat="32.71284" lon="-5.80735"></trkpt>
      <trkpt lat="32.71503" lon="-5.80621"></trkpt>
      <trkpt lat="32.71789" lon="-5.80375"></trkpt>
      <trkpt lat="32.71806" lon="-5.80310"></trkpt>
      <trkpt lat="32.71774" lon="-5.80250"></trkpt>
      <trkpt lat="32.71643" lon="-5.80211"></trkpt>
      <trkpt lat="32.71594" lon="-5.80138"></trkpt>
      <trkpt lat="32.71614" lon="-5.80010"></trkpt>
      <trkpt lat="32.71694" lon="-5.79931"></trkpt>
      <trkpt lat="32.71794" lon="-5.79861"></trkpt>
      <trkpt lat="32.72204" lon="-5.79674"></trkpt>
      <trkpt lat="32.72449" lon="-5.79643"></trkpt>
      <trkpt lat="32.72505" lon="-5.79603"></trkpt>
      <trkpt lat="32.72538" lon="-5.79414"></trkpt>
      <trkpt lat="32.72608" lon="-5.79283"></trkpt>
      <trkpt lat="32.72657" lon="-5.79218"></trkpt>
      <trkpt lat="32.72818" lon="-5.79099"></trkpt>
      <trkpt lat="32.72854" lon="-5.79041"></trkpt>
      <trkpt lat="32.72890" lon="-5.78904"></trkpt>
      <trkpt lat="32.72881" lon="-5.78614"></trkpt>
      <trkpt lat="32.72902" lon="-5.78551"></trkpt>
      <trkpt lat="32.73206" lon="-5.78210"></trkpt>
      <trkpt lat="32.73820" lon="-5.77300"></trkpt>
      <trkpt lat="32.74088" lon="-5.76671"></trkpt>
      <trkpt lat="32.74330" lon="-5.76003"></trkpt>
      <trkpt lat="32.74416" lon="-5.75833"></trkpt>
      <trkpt lat="32.74450" lon="-5.75614"></trkpt>
      <trkpt lat="32.74523" lon="-5.75499"></trkpt>
      <trkpt lat="32.74602" lon="-5.75250"></trkpt>
      <trkpt lat="32.74751" lon="-5.75038"></trkpt>
      <trkpt lat="32.74906" lon="-5.74638"></trkpt>
      <trkpt lat="32.74954" lon="-5.74504"></trkpt>
      <trkpt lat="32.75005" lon="-5.74078"></trkpt>
      <trkpt lat="32.74982" lon="-5.73897"></trkpt>
      <trkpt lat="32.74921" lon="-5.73719"></trkpt>
      <trkpt lat="32.74907" lon="-5.73272"></trkpt>
      <trkpt lat="32.74780" lon="-5.72780"></trkpt>
      <trkpt lat="32.74753" lon="-5.72338"></trkpt>
      <trkpt lat="32.74343" lon="-5.71742"></trkpt>
      <trkpt lat="32.74106" lon="-5.71552"></trkpt>
      <trkpt lat="32.74054" lon="-5.71372"></trkpt>
      <trkpt lat="32.73943" lon="-5.71200"></trkpt>
      <trkpt lat="32.73954" lon="-5.70989"></trkpt>
      <trkpt lat="32.74207" lon="-5.70141"></trkpt>
      <trkpt lat="32.74163" lon="-5.69653"></trkpt>
      <trkpt lat="32.74088" lon="-5.69356"></trkpt>
      <trkpt lat="32.74103" lon="-5.69183"></trkpt>
      <trkpt lat="32.74526" lon="-5.68616"></trkpt>
      <trkpt lat="32.74645" lon="-5.68570"></trkpt>
      <trkpt lat="32.74844" lon="-5.68567"></trkpt>
      <trkpt lat="32.74978" lon="-5.68499"></trkpt>
      <trkpt lat="32.75073" lon="-5.68420"></trkpt>
      <trkpt lat="32.75180" lon="-5.68174"></trkpt>
      <trkpt lat="32.75420" lon="-5.67819"></trkpt>
      <trkpt lat="32.75529" lon="-5.67613"></trkpt>
      <trkpt lat="32.75681" lon="-5.67503"></trkpt>
      <trkpt lat="32.75705" lon="-5.67457"></trkpt>
      <trkpt lat="32.75756" lon="-5.67455"></trkpt>
      <trkpt lat="32.75861" lon="-5.67399"></trkpt>
      <trkpt lat="32.76461" lon="-5.66752"></trkpt>
      <trkpt lat="32.76870" lon="-5.66704"></trkpt>
      <trkpt lat="32.76989" lon="-5.66734"></trkpt>
      <trkpt lat="32.77159" lon="-5.66500"></trkpt>
      <trkpt lat="32.77403" lon="-5.66349"></trkpt>
      <trkpt lat="32.77600" lon="-5.66334"></trkpt>
      <trkpt lat="32.77710" lon="-5.66418"></trkpt>
      <trkpt lat="32.77769" lon="-5.66404"></trkpt>
      <trkpt lat="32.77781" lon="-5.66317"></trkpt>
      <trkpt lat="32.77707" lon="-5.66158"></trkpt>
      <trkpt lat="32.77711" lon="-5.66114"></trkpt>
      <trkpt lat="32.77814" lon="-5.66050"></trkpt>
      <trkpt lat="32.77875" lon="-5.65930"></trkpt>
      <trkpt lat="32.78131" lon="-5.65872"></trkpt>
      <trkpt lat="32.78181" lon="-5.65835"></trkpt>
      <trkpt lat="32.78217" lon="-5.65722"></trkpt>
      <trkpt lat="32.78257" lon="-5.65401"></trkpt>
      <trkpt lat="32.78357" lon="-5.65301"></trkpt>
      <trkpt lat="32.78452" lon="-5.65110"></trkpt>
      <trkpt lat="32.79001" lon="-5.64310"></trkpt>
      <trkpt lat="32.79094" lon="-5.64140"></trkpt>
      <trkpt lat="32.79159" lon="-5.64115"></trkpt>
      <trkpt lat="32.79283" lon="-5.64139"></trkpt>
      <trkpt lat="32.79347" lon="-5.64127"></trkpt>
      <trkpt lat="32.79547" lon="-5.64029"></trkpt>
      <trkpt lat="32.79674" lon="-5.63883"></trkpt>
      <trkpt lat="32.79858" lon="-5.63489"></trkpt>
      <trkpt lat="32.80143" lon="-5.63342"></trkpt>
      <trkpt lat="32.80297" lon="-5.63209"></trkpt>
      <trkpt lat="32.80449" lon="-5.63175"></trkpt>
      <trkpt lat="32.80761" lon="-5.62960"></trkpt>
      <trkpt lat="32.81174" lon="-5.62808"></trkpt>
      <trkpt lat="32.81509" lon="-5.62653"></trkpt>
      <trkpt lat="32.81703" lon="-5.62500"></trkpt>
      <trkpt lat="32.81821" lon="-5.62456"></trkpt>
      <trkpt lat="32.81936" lon="-5.62376"></trkpt>
      <trkpt lat="32.82196" lon="-5.62143"></trkpt>
      <trkpt lat="32.82376" lon="-5.61856"></trkpt>
      <trkpt lat="32.82601" lon="-5.61586"></trkpt>
      <trkpt lat="32.82941" lon="-5.61532"></trkpt>
      <trkpt lat="32.83097" lon="-5.61463"></trkpt>
      <trkpt lat="32.83964" lon="-5.61398"></trkpt>
      <trkpt lat="32.84036" lon="-5.61543"></trkpt>
      <trkpt lat="32.84145" lon="-5.61602"></trkpt>
      <trkpt lat="32.85153" lon="-5.62004"></trkpt>
      <trkpt lat="32.85280" lon="-5.62034"></trkpt>
      <trkpt lat="32.85518" lon="-5.62165"></trkpt>
      <trkpt lat="32.85827" lon="-5.62239"></trkpt>
      <trkpt lat="32.86116" lon="-5.62434"></trkpt>
      <trkpt lat="32.86503" lon="-5.62529"></trkpt>
      <trkpt lat="32.86675" lon="-5.62675"></trkpt>
      <trkpt lat="32.86848" lon="-5.62713"></trkpt>
      <trkpt lat="32.87188" lon="-5.63118"></trkpt>
      <trkpt lat="32.87552" lon="-5.63328"></trkpt>
      <trkpt lat="32.87863" lon="-5.63441"></trkpt>
      <trkpt lat="32.88169" lon="-5.63475"></trkpt>
      <trkpt lat="32.88397" lon="-5.63557"></trkpt>
      <trkpt lat="32.88511" lon="-5.63649"></trkpt>
      <trkpt lat="32.88639" lon="-5.63640"></trkpt>
      <trkpt lat="32.89494" lon="-5.63854"></trkpt>
      <trkpt lat="32.89569" lon="-5.64000"></trkpt>
      <trkpt lat="32.89717" lon="-5.64136"></trkpt>
      <trkpt lat="32.89860" lon="-5.64316"></trkpt>
      <trkpt lat="32.89929" lon="-5.64523"></trkpt>
      <trkpt lat="32.89993" lon="-5.64578"></trkpt>
      <trkpt lat="32.90135" lon="-5.64816"></trkpt>
      <trkpt lat="32.90111" lon="-5.65027"></trkpt>
      <trkpt lat="32.90046" lon="-5.65159"></trkpt>
      <trkpt lat="32.90066" lon="-5.65296"></trkpt>
      <trkpt lat="32.90012" lon="-5.65403"></trkpt>
      <trkpt lat="32.90069" lon="-5.65500"></trkpt>
      <trkpt lat="32.90172" lon="-5.65576"></trkpt>
      <trkpt lat="32.90249" lon="-5.65849"></trkpt>
      <trkpt lat="32.90413" lon="-5.66155"></trkpt>
      <trkpt lat="32.90447" lon="-5.66295"></trkpt>
      <trkpt lat="32.90242" lon="-5.66614"></trkpt>
      <trkpt lat="32.90185" lon="-5.66808"></trkpt>
      <trkpt lat="32.90216" lon="-5.66859"></trkpt>
      <trkpt lat="32.90335" lon="-5.66929"></trkpt>
      <trkpt lat="32.90368" lon="-5.67041"></trkpt>
      <trkpt lat="32.90451" lon="-5.67148"></trkpt>
      <trkpt lat="32.90514" lon="-5.67144"></trkpt>
      <trkpt lat="32.90593" lon="-5.67084"></trkpt>
      <trkpt lat="32.90680" lon="-5.67089"></trkpt>
      <trkpt lat="32.90825" lon="-5.67044"></trkpt>
      <trkpt lat="32.90928" lon="-5.67051"></trkpt>
      <trkpt lat="32.91075" lon="-5.66983"></trkpt>
      <trkpt lat="32.91126" lon="-5.67016"></trkpt>
      <trkpt lat="32.91158" lon="-5.67112"></trkpt>
      <trkpt lat="32.91201" lon="-5.67153"></trkpt>
      <trkpt lat="32.91723" lon="-5.67147"></trkpt>
      <trkpt lat="32.93444" lon="-5.66812"></trkpt>
      <trkpt lat="32.93453" lon="-5.66849"></trkpt>
      <trkpt lat="32.93512" lon="-5.66831"></trkpt>
      <trkpt lat="32.93504" lon="-5.66793"></trkpt>
      <trkpt lat="32.93339" lon="-5.66853"></trkpt>
      <trkpt lat="32.91723" lon="-5.67147"></trkpt>
      <trkpt lat="32.91201" lon="-5.67153"></trkpt>
      <trkpt lat="32.91165" lon="-5.67124"></trkpt>
      <trkpt lat="32.91121" lon="-5.67010"></trkpt>
      <trkpt lat="32.91042" lon="-5.66994"></trkpt>
      <trkpt lat="32.90928" lon="-5.67051"></trkpt>
      <trkpt lat="32.90825" lon="-5.67044"></trkpt>
      <trkpt lat="32.90680" lon="-5.67089"></trkpt>
      <trkpt lat="32.90593" lon="-5.67084"></trkpt>
      <trkpt lat="32.90514" lon="-5.67144"></trkpt>
      <trkpt lat="32.90451" lon="-5.67148"></trkpt>
      <trkpt lat="32.90368" lon="-5.67041"></trkpt>
      <trkpt lat="32.90335" lon="-5.66929"></trkpt>
      <trkpt lat="32.90216" lon="-5.66859"></trkpt>
      <trkpt lat="32.90185" lon="-5.66808"></trkpt>
      <trkpt lat="32.90226" lon="-5.66646"></trkpt>
      <trkpt lat="32.90373" lon="-5.66414"></trkpt>
      <trkpt lat="32.90426" lon="-5.66248"></trkpt>
      <trkpt lat="32.90413" lon="-5.66155"></trkpt>
      <trkpt lat="32.90249" lon="-5.65849"></trkpt>
      <trkpt lat="32.90172" lon="-5.65576"></trkpt>
      <trkpt lat="32.90069" lon="-5.65500"></trkpt>
      <trkpt lat="32.90012" lon="-5.65403"></trkpt>
      <trkpt lat="32.90066" lon="-5.65296"></trkpt>
      <trkpt lat="32.90046" lon="-5.65159"></trkpt>
      <trkpt lat="32.90111" lon="-5.65027"></trkpt>
      <trkpt lat="32.90135" lon="-5.64816"></trkpt>
      <trkpt lat="32.89993" lon="-5.64578"></trkpt>
      <trkpt lat="32.89929" lon="-5.64523"></trkpt>
      <trkpt lat="32.89860" lon="-5.64316"></trkpt>
      <trkpt lat="32.89717" lon="-5.64136"></trkpt>
      <trkpt lat="32.89569" lon="-5.64000"></trkpt>
      <trkpt lat="32.89494" lon="-5.63854"></trkpt>
      <trkpt lat="32.88639" lon="-5.63640"></trkpt>
      <trkpt lat="32.88511" lon="-5.63649"></trkpt>
      <trkpt lat="32.88397" lon="-5.63557"></trkpt>
      <trkpt lat="32.88169" lon="-5.63475"></trkpt>
      <trkpt lat="32.87863" lon="-5.63441"></trkpt>
      <trkpt lat="32.87552" lon="-5.63328"></trkpt>
      <trkpt lat="32.87188" lon="-5.63118"></trkpt>
      <trkpt lat="32.86848" lon="-5.62713"></trkpt>
      <trkpt lat="32.86675" lon="-5.62675"></trkpt>
      <trkpt lat="32.86503" lon="-5.62529"></trkpt>
      <trkpt lat="32.86116" lon="-5.62434"></trkpt>
      <trkpt lat="32.85827" lon="-5.62239"></trkpt>
      <trkpt lat="32.85518" lon="-5.62165"></trkpt>
      <trkpt lat="32.85280" lon="-5.62034"></trkpt>
      <trkpt lat="32.85153" lon="-5.62004"></trkpt>
      <trkpt lat="32.84145" lon="-5.61602"></trkpt>
      <trkpt lat="32.84036" lon="-5.61543"></trkpt>
      <trkpt lat="32.83979" lon="-5.61413"></trkpt>
      <trkpt lat="32.83942" lon="-5.61391"></trkpt>
      <trkpt lat="32.83097" lon="-5.61463"></trkpt>
      <trkpt lat="32.82918" lon="-5.61538"></trkpt>
      <trkpt lat="32.82638" lon="-5.61570"></trkpt>
      <trkpt lat="32.82563" lon="-5.61620"></trkpt>
      <trkpt lat="32.82334" lon="-5.61915"></trkpt>
      <trkpt lat="32.82271" lon="-5.61705"></trkpt>
      <trkpt lat="32.82296" lon="-5.61512"></trkpt>
      <trkpt lat="32.82543" lon="-5.61248"></trkpt>
      <trkpt lat="32.82579" lon="-5.61182"></trkpt>
      <trkpt lat="32.82556" lon="-5.61086"></trkpt>
      <trkpt lat="32.82418" lon="-5.60927"></trkpt>
      <trkpt lat="32.82236" lon="-5.60896"></trkpt>
      <trkpt lat="32.82050" lon="-5.60940"></trkpt>
      <trkpt lat="32.81901" lon="-5.60873"></trkpt>
      <trkpt lat="32.81822" lon="-5.60868"></trkpt>
      <trkpt lat="32.81636" lon="-5.60742"></trkpt>
      <trkpt lat="32.81420" lon="-5.60729"></trkpt>
      <trkpt lat="32.81301" lon="-5.60667"></trkpt>
      <trkpt lat="32.81115" lon="-5.60452"></trkpt>
      <trkpt lat="32.80744" lon="-5.60266"></trkpt>
      <trkpt lat="32.80485" lon="-5.60295"></trkpt>
      <trkpt lat="32.80299" lon="-5.60224"></trkpt>
      <trkpt lat="32.80119" lon="-5.60107"></trkpt>
      <trkpt lat="32.79818" lon="-5.60056"></trkpt>
      <trkpt lat="32.79357" lon="-5.59852"></trkpt>
      <trkpt lat="32.79133" lon="-5.59631"></trkpt>
      <trkpt lat="32.78739" lon="-5.59159"></trkpt>
      <trkpt lat="32.78704" lon="-5.59022"></trkpt>
      <trkpt lat="32.78669" lon="-5.58979"></trkpt>
      <trkpt lat="32.78526" lon="-5.58934"></trkpt>
      <trkpt lat="32.78192" lon="-5.58904"></trkpt>
      <trkpt lat="32.78062" lon="-5.58833"></trkpt>
      <trkpt lat="32.77873" lon="-5.58816"></trkpt>
      <trkpt lat="32.77668" lon="-5.58872"></trkpt>
      <trkpt lat="32.77420" lon="-5.58824"></trkpt>
      <trkpt lat="32.77309" lon="-5.58751"></trkpt>
      <trkpt lat="32.77466" lon="-5.58577"></trkpt>
      <trkpt lat="32.77476" lon="-5.58539"></trkpt>
      <trkpt lat="32.77455" lon="-5.58499"></trkpt>
      <trkpt lat="32.77127" lon="-5.58451"></trkpt>
      <trkpt lat="32.77015" lon="-5.58373"></trkpt>
      <trkpt lat="32.76812" lon="-5.58288"></trkpt>
      <trkpt lat="32.76752" lon="-5.58203"></trkpt>
      <trkpt lat="32.75613" lon="-5.58214"></trkpt>
      <trkpt lat="32.75189" lon="-5.58372"></trkpt>
      <trkpt lat="32.75106" lon="-5.58202"></trkpt>
      <trkpt lat="32.74666" lon="-5.57624"></trkpt>
      <trkpt lat="32.74358" lon="-5.57361"></trkpt>
      <trkpt lat="32.74064" lon="-5.57232"></trkpt>
      <trkpt lat="32.73712" lon="-5.57289"></trkpt>
      <trkpt lat="32.73513" lon="-5.57203"></trkpt>
      <trkpt lat="32.73420" lon="-5.57200"></trkpt>
      <trkpt lat="32.72865" lon="-5.57394"></trkpt>
      <trkpt lat="32.72702" lon="-5.57511"></trkpt>
      <trkpt lat="32.72254" lon="-5.57587"></trkpt>
      <trkpt lat="32.72130" lon="-5.57698"></trkpt>
      <trkpt lat="32.72039" lon="-5.57736"></trkpt>
      <trkpt lat="32.71964" lon="-5.57809"></trkpt>
      <trkpt lat="32.71921" lon="-5.57815"></trkpt>
      <trkpt lat="32.71880" lon="-5.57774"></trkpt>
      <trkpt lat="32.71887" lon="-5.57703"></trkpt>
      <trkpt lat="32.72105" lon="-5.57392"></trkpt>
      <trkpt lat="32.72094" lon="-5.57332"></trkpt>
      <trkpt lat="32.72037" lon="-5.57306"></trkpt>
      <trkpt lat="32.71888" lon="-5.57456"></trkpt>
      <trkpt lat="32.71567" lon="-5.57504"></trkpt>
      <trkpt lat="32.71185" lon="-5.57608"></trkpt>
      <trkpt lat="32.71150" lon="-5.57663"></trkpt>
      <trkpt lat="32.71130" lon="-5.57835"></trkpt>
      <trkpt lat="32.70837" lon="-5.57926"></trkpt>
      <trkpt lat="32.70707" lon="-5.58134"></trkpt>
      <trkpt lat="32.70655" lon="-5.58170"></trkpt>
      <trkpt lat="32.70569" lon="-5.58137"></trkpt>
      <trkpt lat="32.70528" lon="-5.57990"></trkpt>
      <trkpt lat="32.70484" lon="-5.57937"></trkpt>
      <trkpt lat="32.70434" lon="-5.57930"></trkpt>
      <trkpt lat="32.70327" lon="-5.57975"></trkpt>
      <trkpt lat="32.70083" lon="-5.57864"></trkpt>
      <trkpt lat="32.69979" lon="-5.57768"></trkpt>
      <trkpt lat="32.69898" lon="-5.57600"></trkpt>
      <trkpt lat="32.69698" lon="-5.57451"></trkpt>
      <trkpt lat="32.69399" lon="-5.57422"></trkpt>
      <trkpt lat="32.69232" lon="-5.57334"></trkpt>
      <trkpt lat="32.69172" lon="-5.57365"></trkpt>
      <trkpt lat="32.69100" lon="-5.57469"></trkpt>
      <trkpt lat="32.69018" lon="-5.57468"></trkpt>
      <trkpt lat="32.68897" lon="-5.57355"></trkpt>
      <trkpt lat="32.68863" lon="-5.57265"></trkpt>
      <trkpt lat="32.68888" lon="-5.57105"></trkpt>
      <trkpt lat="32.68963" lon="-5.56880"></trkpt>
      <trkpt lat="32.68951" lon="-5.56792"></trkpt>
      <trkpt lat="32.68906" lon="-5.56755"></trkpt>
      <trkpt lat="32.68810" lon="-5.56731"></trkpt>
      <trkpt lat="32.68749" lon="-5.56630"></trkpt>
      <trkpt lat="32.68667" lon="-5.56577"></trkpt>
      <trkpt lat="32.68536" lon="-5.56342"></trkpt>
      <trkpt lat="32.68495" lon="-5.56200"></trkpt>
      <trkpt lat="32.68342" lon="-5.56040"></trkpt>
      <trkpt lat="32.68270" lon="-5.55995"></trkpt>
      <trkpt lat="32.68059" lon="-5.55733"></trkpt>
      <trkpt lat="32.68089" lon="-5.55563"></trkpt>
      <trkpt lat="32.68070" lon="-5.55417"></trkpt>
      <trkpt lat="32.68218" lon="-5.55165"></trkpt>
      <trkpt lat="32.68216" lon="-5.54979"></trkpt>
      <trkpt lat="32.68357" lon="-5.54861"></trkpt>
      <trkpt lat="32.68394" lon="-5.54780"></trkpt>
      <trkpt lat="32.68391" lon="-5.54657"></trkpt>
      <trkpt lat="32.68426" lon="-5.54465"></trkpt>
      <trkpt lat="32.68425" lon="-5.53992"></trkpt>
      <trkpt lat="32.68480" lon="-5.53792"></trkpt>
      <trkpt lat="32.68446" lon="-5.53497"></trkpt>
      <trkpt lat="32.68493" lon="-5.53163"></trkpt>
      <trkpt lat="32.68384" lon="-5.52940"></trkpt>
      <trkpt lat="32.68288" lon="-5.52584"></trkpt>
      <trkpt lat="32.68291" lon="-5.52034"></trkpt>
      <trkpt lat="32.68194" lon="-5.51699"></trkpt>
      <trkpt lat="32.67543" lon="-5.50821"></trkpt>
      <trkpt lat="32.67279" lon="-5.50751"></trkpt>
      <trkpt lat="32.66997" lon="-5.50467"></trkpt>
      <trkpt lat="32.66933" lon="-5.50431"></trkpt>
      <trkpt lat="32.66697" lon="-5.50468"></trkpt>
      <trkpt lat="32.66578" lon="-5.50609"></trkpt>
      <trkpt lat="32.66516" lon="-5.50596"></trkpt>
      <trkpt lat="32.66470" lon="-5.50533"></trkpt>
      <trkpt lat="32.66472" lon="-5.50379"></trkpt>
      <trkpt lat="32.66603" lon="-5.50258"></trkpt>
      <trkpt lat="32.66655" lon="-5.50102"></trkpt>
      <trkpt lat="32.66696" lon="-5.50075"></trkpt>
      <trkpt lat="32.66823" lon="-5.50070"></trkpt>
      <trkpt lat="32.66887" lon="-5.50001"></trkpt>
      <trkpt lat="32.66929" lon="-5.49904"></trkpt>
      <trkpt lat="32.66977" lon="-5.49642"></trkpt>
      <trkpt lat="32.67046" lon="-5.49531"></trkpt>
      <trkpt lat="32.67073" lon="-5.49207"></trkpt>
      <trkpt lat="32.67159" lon="-5.49114"></trkpt>
      <trkpt lat="32.67200" lon="-5.49029"></trkpt>
      <trkpt lat="32.67202" lon="-5.48965"></trkpt>
      <trkpt lat="32.67167" lon="-5.48905"></trkpt>
      <trkpt lat="32.67015" lon="-5.48861"></trkpt>
      <trkpt lat="32.66965" lon="-5.48818"></trkpt>
      <trkpt lat="32.66949" lon="-5.48711"></trkpt>
      <trkpt lat="32.67073" lon="-5.48476"></trkpt>
      <trkpt lat="32.67123" lon="-5.47986"></trkpt>
      <trkpt lat="32.67184" lon="-5.47787"></trkpt>
      <trkpt lat="32.67317" lon="-5.47404"></trkpt>
      <trkpt lat="32.67466" lon="-5.47173"></trkpt>
      <trkpt lat="32.67510" lon="-5.46731"></trkpt>
      <trkpt lat="32.67629" lon="-5.46512"></trkpt>
      <trkpt lat="32.67641" lon="-5.46310"></trkpt>
      <trkpt lat="32.67718" lon="-5.46052"></trkpt>
      <trkpt lat="32.67660" lon="-5.45871"></trkpt>
      <trkpt lat="32.67673" lon="-5.45733"></trkpt>
      <trkpt lat="32.67654" lon="-5.45678"></trkpt>
      <trkpt lat="32.67267" lon="-5.45344"></trkpt>
      <trkpt lat="32.67087" lon="-5.45134"></trkpt>
      <trkpt lat="32.67033" lon="-5.45015"></trkpt>
      <trkpt lat="32.66946" lon="-5.44563"></trkpt>
      <trkpt lat="32.66783" lon="-5.44048"></trkpt>
      <trkpt lat="32.66797" lon="-5.43643"></trkpt>
      <trkpt lat="32.66761" lon="-5.43395"></trkpt>
      <trkpt lat="32.66646" lon="-5.42987"></trkpt>
      <trkpt lat="32.66657" lon="-5.42754"></trkpt>
      <trkpt lat="32.66639" lon="-5.42664"></trkpt>
      <trkpt lat="32.66323" lon="-5.42155"></trkpt>
      <trkpt lat="32.66094" lon="-5.41929"></trkpt>
      <trkpt lat="32.65935" lon="-5.41641"></trkpt>
      <trkpt lat="32.65888" lon="-5.41237"></trkpt>
      <trkpt lat="32.65976" lon="-5.40805"></trkpt>
      <trkpt lat="32.65912" lon="-5.40493"></trkpt>
      <trkpt lat="32.65931" lon="-5.39829"></trkpt>
      <trkpt lat="32.65853" lon="-5.39674"></trkpt>
      <trkpt lat="32.65689" lon="-5.39607"></trkpt>
      <trkpt lat="32.65618" lon="-5.39517"></trkpt>
      <trkpt lat="32.65439" lon="-5.38984"></trkpt>
      <trkpt lat="32.65257" lon="-5.38246"></trkpt>
      <trkpt lat="32.65317" lon="-5.38058"></trkpt>
      <trkpt lat="32.65950" lon="-5.37287"></trkpt>
      <trkpt lat="32.66054" lon="-5.37108"></trkpt>
      <trkpt lat="32.66316" lon="-5.36355"></trkpt>
      <trkpt lat="32.66368" lon="-5.35928"></trkpt>
      <trkpt lat="32.67000" lon="-5.34215"></trkpt>
      <trkpt lat="32.67184" lon="-5.33789"></trkpt>
      <trkpt lat="32.67403" lon="-5.33492"></trkpt>
      <trkpt lat="32.67655" lon="-5.33045"></trkpt>
      <trkpt lat="32.67748" lon="-5.32749"></trkpt>
      <trkpt lat="32.67924" lon="-5.32459"></trkpt>
      <trkpt lat="32.68048" lon="-5.32180"></trkpt>
      <trkpt lat="32.68131" lon="-5.31919"></trkpt>
      <trkpt lat="32.68308" lon="-5.31094"></trkpt>
      <trkpt lat="32.68316" lon="-5.30963"></trkpt>
      <trkpt lat="32.68293" lon="-5.30868"></trkpt>
      <trkpt lat="32.68017" lon="-5.30348"></trkpt>
      <trkpt lat="32.67675" lon="-5.29198"></trkpt>
      <trkpt lat="32.67434" lon="-5.28639"></trkpt>
      <trkpt lat="32.67394" lon="-5.28450"></trkpt>
      <trkpt lat="32.67424" lon="-5.27185"></trkpt>
      <trkpt lat="32.67387" lon="-5.26030"></trkpt>
      <trkpt lat="32.67876" lon="-5.24383"></trkpt>
      <trkpt lat="32.67844" lon="-5.23796"></trkpt>
      <trkpt lat="32.67933" lon="-5.23389"></trkpt>
      <trkpt lat="32.67909" lon="-5.22964"></trkpt>
      <trkpt lat="32.67926" lon="-5.22825"></trkpt>
      <trkpt lat="32.68098" lon="-5.22367"></trkpt>
      <trkpt lat="32.68358" lon="-5.22012"></trkpt>
      <trkpt lat="32.69092" lon="-5.20674"></trkpt>
      <trkpt lat="32.70277" lon="-5.19395"></trkpt>
      <trkpt lat="32.72767" lon="-5.18104"></trkpt>
      <trkpt lat="32.74417" lon="-5.17403"></trkpt>
      <trkpt lat="32.74514" lon="-5.17338"></trkpt>
      <trkpt lat="32.74592" lon="-5.17233"></trkpt>
      <trkpt lat="32.74680" lon="-5.16931"></trkpt>
      <trkpt lat="32.74672" lon="-5.16686"></trkpt>
      <trkpt lat="32.74211" lon="-5.15672"></trkpt>
      <trkpt lat="32.73985" lon="-5.14417"></trkpt>
      <trkpt lat="32.73996" lon="-5.14189"></trkpt>
      <trkpt lat="32.74268" lon="-5.13469"></trkpt>
      <trkpt lat="32.74465" lon="-5.13170"></trkpt>
      <trkpt lat="32.74618" lon="-5.13042"></trkpt>
      <trkpt lat="32.75519" lon="-5.12436"></trkpt>
      <trkpt lat="32.75700" lon="-5.12244"></trkpt>
      <trkpt lat="32.75796" lon="-5.12024"></trkpt>
      <trkpt lat="32.75951" lon="-5.11403"></trkpt>
      <trkpt lat="32.76245" lon="-5.10857"></trkpt>
      <trkpt lat="32.76269" lon="-5.10743"></trkpt>
      <trkpt lat="32.76211" lon="-5.10374"></trkpt>
      <trkpt lat="32.76131" lon="-5.10282"></trkpt>
      <trkpt lat="32.75972" lon="-5.10245"></trkpt>
      <trkpt lat="32.75892" lon="-5.10166"></trkpt>
      <trkpt lat="32.74392" lon="-5.06829"></trkpt>
      <trkpt lat="32.74308" lon="-5.06520"></trkpt>
      <trkpt lat="32.74228" lon="-5.05592"></trkpt>
      <trkpt lat="32.74242" lon="-5.05370"></trkpt>
      <trkpt lat="32.74327" lon="-5.05131"></trkpt>
      <trkpt lat="32.74752" lon="-5.04429"></trkpt>
      <trkpt lat="32.74831" lon="-5.04250"></trkpt>
      <trkpt lat="32.74880" lon="-5.04033"></trkpt>
      <trkpt lat="32.75019" lon="-5.02900"></trkpt>
      <trkpt lat="32.75071" lon="-5.02695"></trkpt>
      <trkpt lat="32.75191" lon="-5.02444"></trkpt>
      <trkpt lat="32.75491" lon="-5.02012"></trkpt>
      <trkpt lat="32.75855" lon="-5.00957"></trkpt>
      <trkpt lat="32.75939" lon="-5.00801"></trkpt>
      <trkpt lat="32.76064" lon="-5.00661"></trkpt>
      <trkpt lat="32.77425" lon="-4.99483"></trkpt>
      <trkpt lat="32.81815" lon="-4.96199"></trkpt>
      <trkpt lat="32.81868" lon="-4.96076"></trkpt>
      <trkpt lat="32.81851" lon="-4.95995"></trkpt>
      <trkpt lat="32.81804" lon="-4.95939"></trkpt>
      <trkpt lat="32.81619" lon="-4.95832"></trkpt>
      <trkpt lat="32.80175" lon="-4.94583"></trkpt>
      <trkpt lat="32.79446" lon="-4.94234"></trkpt>
      <trkpt lat="32.79143" lon="-4.93768"></trkpt>
      <trkpt lat="32.79055" lon="-4.93689"></trkpt>
      <trkpt lat="32.75682" lon="-4.92623"></trkpt>
      <trkpt lat="32.75591" lon="-4.92535"></trkpt>
      <trkpt lat="32.74771" lon="-4.91375"></trkpt>
      <trkpt lat="32.74645" lon="-4.91318"></trkpt>
      <trkpt lat="32.74385" lon="-4.91297"></trkpt>
      <trkpt lat="32.73623" lon="-4.90975"></trkpt>
      <trkpt lat="32.73530" lon="-4.90911"></trkpt>
      <trkpt lat="32.72101" lon="-4.88739"></trkpt>
      <trkpt lat="32.72040" lon="-4.88661"></trkpt>
      <trkpt lat="32.71809" lon="-4.88472"></trkpt>
      <trkpt lat="32.71032" lon="-4.87291"></trkpt>
      <trkpt lat="32.70961" lon="-4.87139"></trkpt>
      <trkpt lat="32.70485" lon="-4.85098"></trkpt>
      <trkpt lat="32.70403" lon="-4.84966"></trkpt>
      <trkpt lat="32.69838" lon="-4.84380"></trkpt>
      <trkpt lat="32.69770" lon="-4.84185"></trkpt>
      <trkpt lat="32.69745" lon="-4.82350"></trkpt>
      <trkpt lat="32.69874" lon="-4.81332"></trkpt>
      <trkpt lat="32.69928" lon="-4.81204"></trkpt>
      <trkpt lat="32.70460" lon="-4.80490"></trkpt>
      <trkpt lat="32.70653" lon="-4.79656"></trkpt>
      <trkpt lat="32.70573" lon="-4.77936"></trkpt>
      <trkpt lat="32.70238" lon="-4.77336"></trkpt>
      <trkpt lat="32.70069" lon="-4.76468"></trkpt>
      <trkpt lat="32.70065" lon="-4.76287"></trkpt>
      <trkpt lat="32.70101" lon="-4.76150"></trkpt>
      <trkpt lat="32.70101" lon="-4.75990"></trkpt>
      <trkpt lat="32.69869" lon="-4.75483"></trkpt>
      <trkpt lat="32.69757" lon="-4.75378"></trkpt>
      <trkpt lat="32.69502" lon="-4.75318"></trkpt>
      <trkpt lat="32.69305" lon="-4.75189"></trkpt>
      <trkpt lat="32.68652" lon="-4.74428"></trkpt>
      <trkpt lat="32.68593" lon="-4.74384"></trkpt>
      <trkpt lat="32.68353" lon="-4.74308"></trkpt>
      <trkpt lat="32.68235" lon="-4.74325"></trkpt>
      <trkpt lat="32.68082" lon="-4.74311"></trkpt>
      <trkpt lat="32.68028" lon="-4.74333"></trkpt>
      <trkpt lat="32.68017" lon="-4.74373"></trkpt>
      <trkpt lat="32.68036" lon="-4.74405"></trkpt>
    </trkseg>
  </trk>
</gpx>
