<?xml version="1.0" encoding="UTF-8"?>
<gpx version="1.1" creator="Marokko Motorreis 2026"
     xmlns="http://www.topografix.com/GPX/1/1"
     xmlns:xsi="http://www.w3.org/2001/XMLSchema-instance"
     xsi:schemaLocation="http://www.topografix.com/GPX/1/1 http://www.topografix.com/GPX/1/1/gpx.xsd">
  <metadata><name>Dag 1 (12 okt) Nador - Guercif</name><desc>173 km, ca. 2u42 rijden. Grens Beni Ansar, dan Rif-uitlopers zuidwaarts. Rustige eerste dag.</desc></metadata>
  <wpt lat="35.268173" lon="-2.933074"><name>Haven Nador (Beni Ansar)</name><sym>Flag, Blue</sym></wpt>
  <wpt lat="35.064506" lon="-2.928615"><name>Selouane</name><sym>Flag, Blue</sym></wpt>
  <wpt lat="34.412841" lon="-2.894402"><name>Taourirt</name><sym>Flag, Blue</sym></wpt>
  <wpt lat="34.227190" lon="-3.353116"><name>Guercif</name><sym>Flag, Blue</sym></wpt>
  <trk>
    <name>Dag 1 (12 okt) Nador - Guercif</name>
    <desc>173 km, ca. 2u42 rijden. Grens Beni Ansar, dan Rif-uitlopers zuidwaarts. Rustige eerste dag.</desc>
    <trkseg>
      <trkpt lat="35.26817" lon="-2.93307"></trkpt>
      <trkpt lat="35.26810" lon="-2.93334"></trkpt>
      <trkpt lat="35.26552" lon="-2.93194"></trkpt>
      <trkpt lat="35.26527" lon="-2.93232"></trkpt>
      <trkpt lat="35.26489" lon="-2.93181"></trkpt>
      <trkpt lat="35.26068" lon="-2.92968"></trkpt>
      <trkpt lat="35.25762" lon="-2.92942"></trkpt>
      <trkpt lat="35.24103" lon="-2.93355"></trkpt>
      <trkpt lat="35.24064" lon="-2.93386"></trkpt>
      <trkpt lat="35.23436" lon="-2.93160"></trkpt>
      <trkpt lat="35.22969" lon="-2.92744"></trkpt>
      <trkpt lat="35.22492" lon="-2.92516"></trkpt>
      <trkpt lat="35.22358" lon="-2.92425"></trkpt>
      <trkpt lat="35.22170" lon="-2.92171"></trkpt>
      <trkpt lat="35.21793" lon="-2.91956"></trkpt>
      <trkpt lat="35.21386" lon="-2.91546"></trkpt>
      <trkpt lat="35.21285" lon="-2.91494"></trkpt>
      <trkpt lat="35.21165" lon="-2.91470"></trkpt>
      <trkpt lat="35.20955" lon="-2.91476"></trkpt>
      <trkpt lat="35.20802" lon="-2.91542"></trkpt>
      <trkpt lat="35.20261" lon="-2.92060"></trkpt>
      <trkpt lat="35.20125" lon="-2.92233"></trkpt>
      <trkpt lat="35.19655" lon="-2.93025"></trkpt>
      <trkpt lat="35.19530" lon="-2.93134"></trkpt>
      <trkpt lat="35.19111" lon="-2.93126"></trkpt>
      <trkpt lat="35.18947" lon="-2.93061"></trkpt>
      <trkpt lat="35.18771" lon="-2.92904"></trkpt>
      <trkpt lat="35.18574" lon="-2.92818"></trkpt>
      <trkpt lat="35.17992" lon="-2.92852"></trkpt>
      <trkpt lat="35.17914" lon="-2.92841"></trkpt>
      <trkpt lat="35.17901" lon="-2.92797"></trkpt>
      <trkpt lat="35.17645" lon="-2.92790"></trkpt>
      <trkpt lat="35.17333" lon="-2.92868"></trkpt>
      <trkpt lat="35.15628" lon="-2.92847"></trkpt>
      <trkpt lat="35.15234" lon="-2.92782"></trkpt>
      <trkpt lat="35.15228" lon="-2.92862"></trkpt>
      <trkpt lat="35.13842" lon="-2.92519"></trkpt>
      <trkpt lat="35.13599" lon="-2.92432"></trkpt>
      <trkpt lat="35.13303" lon="-2.92266"></trkpt>
      <trkpt lat="35.13178" lon="-2.92230"></trkpt>
      <trkpt lat="35.13086" lon="-2.92258"></trkpt>
      <trkpt lat="35.13012" lon="-2.92237"></trkpt>
      <trkpt lat="35.12886" lon="-2.92264"></trkpt>
      <trkpt lat="35.12667" lon="-2.92347"></trkpt>
      <trkpt lat="35.12529" lon="-2.92370"></trkpt>
      <trkpt lat="35.12401" lon="-2.92434"></trkpt>
      <trkpt lat="35.12274" lon="-2.92445"></trkpt>
      <trkpt lat="35.09761" lon="-2.93191"></trkpt>
      <trkpt lat="35.09691" lon="-2.93235"></trkpt>
      <trkpt lat="35.09614" lon="-2.93235"></trkpt>
      <trkpt lat="35.08744" lon="-2.93499"></trkpt>
      <trkpt lat="35.08613" lon="-2.93513"></trkpt>
      <trkpt lat="35.08449" lon="-2.93499"></trkpt>
      <trkpt lat="35.08248" lon="-2.93418"></trkpt>
      <trkpt lat="35.07797" lon="-2.93063"></trkpt>
      <trkpt lat="35.07617" lon="-2.92963"></trkpt>
      <trkpt lat="35.07434" lon="-2.92911"></trkpt>
      <trkpt lat="35.07281" lon="-2.92899"></trkpt>
      <trkpt lat="35.06714" lon="-2.93017"></trkpt>
      <trkpt lat="35.06682" lon="-2.92933"></trkpt>
      <trkpt lat="35.06569" lon="-2.92962"></trkpt>
      <trkpt lat="35.06506" lon="-2.92825"></trkpt>
      <trkpt lat="35.06399" lon="-2.92894"></trkpt>
      <trkpt lat="35.06438" lon="-2.93009"></trkpt>
      <trkpt lat="35.06682" lon="-2.92933"></trkpt>
      <trkpt lat="35.06729" lon="-2.93009"></trkpt>
      <trkpt lat="35.06550" lon="-2.93044"></trkpt>
      <trkpt lat="35.06431" lon="-2.93095"></trkpt>
      <trkpt lat="35.06306" lon="-2.93195"></trkpt>
      <trkpt lat="35.06210" lon="-2.93315"></trkpt>
      <trkpt lat="35.06040" lon="-2.93716"></trkpt>
      <trkpt lat="35.05793" lon="-2.94426"></trkpt>
      <trkpt lat="35.05657" lon="-2.94710"></trkpt>
      <trkpt lat="35.05228" lon="-2.95221"></trkpt>
      <trkpt lat="35.04572" lon="-2.96095"></trkpt>
      <trkpt lat="35.04501" lon="-2.96029"></trkpt>
      <trkpt lat="35.02623" lon="-2.95023"></trkpt>
      <trkpt lat="35.02259" lon="-2.94892"></trkpt>
      <trkpt lat="35.01247" lon="-2.94435"></trkpt>
      <trkpt lat="35.01021" lon="-2.94245"></trkpt>
      <trkpt lat="35.00626" lon="-2.94000"></trkpt>
      <trkpt lat="35.00470" lon="-2.93823"></trkpt>
      <trkpt lat="34.99950" lon="-2.92909"></trkpt>
      <trkpt lat="34.99813" lon="-2.92742"></trkpt>
      <trkpt lat="34.99676" lon="-2.92670"></trkpt>
      <trkpt lat="34.99354" lon="-2.92604"></trkpt>
      <trkpt lat="34.99199" lon="-2.92537"></trkpt>
      <trkpt lat="34.99039" lon="-2.92422"></trkpt>
      <trkpt lat="34.98224" lon="-2.91663"></trkpt>
      <trkpt lat="34.97197" lon="-2.91193"></trkpt>
      <trkpt lat="34.96883" lon="-2.90927"></trkpt>
      <trkpt lat="34.96131" lon="-2.90037"></trkpt>
      <trkpt lat="34.95864" lon="-2.89682"></trkpt>
      <trkpt lat="34.95271" lon="-2.89027"></trkpt>
      <trkpt lat="34.94593" lon="-2.88537"></trkpt>
      <trkpt lat="34.93462" lon="-2.87957"></trkpt>
      <trkpt lat="34.93075" lon="-2.87793"></trkpt>
      <trkpt lat="34.92616" lon="-2.87432"></trkpt>
      <trkpt lat="34.92434" lon="-2.87395"></trkpt>
      <trkpt lat="34.91801" lon="-2.87422"></trkpt>
      <trkpt lat="34.91167" lon="-2.87341"></trkpt>
      <trkpt lat="34.90503" lon="-2.87060"></trkpt>
      <trkpt lat="34.89792" lon="-2.86854"></trkpt>
      <trkpt lat="34.89351" lon="-2.86648"></trkpt>
      <trkpt lat="34.89273" lon="-2.86645"></trkpt>
      <trkpt lat="34.89068" lon="-2.86704"></trkpt>
      <trkpt lat="34.88857" lon="-2.86706"></trkpt>
      <trkpt lat="34.88345" lon="-2.86984"></trkpt>
      <trkpt lat="34.88228" lon="-2.86976"></trkpt>
      <trkpt lat="34.87967" lon="-2.86868"></trkpt>
      <trkpt lat="34.87690" lon="-2.86860"></trkpt>
      <trkpt lat="34.86995" lon="-2.87130"></trkpt>
      <trkpt lat="34.86666" lon="-2.87349"></trkpt>
      <trkpt lat="34.86586" lon="-2.87457"></trkpt>
      <trkpt lat="34.86432" lon="-2.87881"></trkpt>
      <trkpt lat="34.86337" lon="-2.87986"></trkpt>
      <trkpt lat="34.86208" lon="-2.88060"></trkpt>
      <trkpt lat="34.86040" lon="-2.88053"></trkpt>
      <trkpt lat="34.85745" lon="-2.87921"></trkpt>
      <trkpt lat="34.85527" lon="-2.87906"></trkpt>
      <trkpt lat="34.85092" lon="-2.88029"></trkpt>
      <trkpt lat="34.84855" lon="-2.88022"></trkpt>
      <trkpt lat="34.84531" lon="-2.87858"></trkpt>
      <trkpt lat="34.84078" lon="-2.87744"></trkpt>
      <trkpt lat="34.83875" lon="-2.87726"></trkpt>
      <trkpt lat="34.83749" lon="-2.87737"></trkpt>
      <trkpt lat="34.83552" lon="-2.87818"></trkpt>
      <trkpt lat="34.83264" lon="-2.88069"></trkpt>
      <trkpt lat="34.82955" lon="-2.88638"></trkpt>
      <trkpt lat="34.82803" lon="-2.89310"></trkpt>
      <trkpt lat="34.82304" lon="-2.90773"></trkpt>
      <trkpt lat="34.81998" lon="-2.91294"></trkpt>
      <trkpt lat="34.81799" lon="-2.91872"></trkpt>
      <trkpt lat="34.81697" lon="-2.92389"></trkpt>
      <trkpt lat="34.81438" lon="-2.93138"></trkpt>
      <trkpt lat="34.81367" lon="-2.93251"></trkpt>
      <trkpt lat="34.81067" lon="-2.93538"></trkpt>
      <trkpt lat="34.80953" lon="-2.93754"></trkpt>
      <trkpt lat="34.79843" lon="-2.97900"></trkpt>
      <trkpt lat="34.79760" lon="-2.98058"></trkpt>
      <trkpt lat="34.79504" lon="-2.98311"></trkpt>
      <trkpt lat="34.78488" lon="-2.98543"></trkpt>
      <trkpt lat="34.77074" lon="-2.98676"></trkpt>
      <trkpt lat="34.75706" lon="-2.98895"></trkpt>
      <trkpt lat="34.75171" lon="-2.98936"></trkpt>
      <trkpt lat="34.74501" lon="-2.99253"></trkpt>
      <trkpt lat="34.74392" lon="-2.99392"></trkpt>
      <trkpt lat="34.74311" lon="-2.99687"></trkpt>
      <trkpt lat="34.74242" lon="-2.99802"></trkpt>
      <trkpt lat="34.74106" lon="-2.99899"></trkpt>
      <trkpt lat="34.74023" lon="-2.99913"></trkpt>
      <trkpt lat="34.73813" lon="-2.99818"></trkpt>
      <trkpt lat="34.73316" lon="-2.99136"></trkpt>
      <trkpt lat="34.73230" lon="-2.99083"></trkpt>
      <trkpt lat="34.72919" lon="-2.98979"></trkpt>
      <trkpt lat="34.72456" lon="-2.98639"></trkpt>
      <trkpt lat="34.71731" lon="-2.98389"></trkpt>
      <trkpt lat="34.71258" lon="-2.98276"></trkpt>
      <trkpt lat="34.70823" lon="-2.98018"></trkpt>
      <trkpt lat="34.70263" lon="-2.98025"></trkpt>
      <trkpt lat="34.70164" lon="-2.97996"></trkpt>
      <trkpt lat="34.69897" lon="-2.97852"></trkpt>
      <trkpt lat="34.69741" lon="-2.97845"></trkpt>
      <trkpt lat="34.69335" lon="-2.98034"></trkpt>
      <trkpt lat="34.68663" lon="-2.98097"></trkpt>
      <trkpt lat="34.68567" lon="-2.98125"></trkpt>
      <trkpt lat="34.68195" lon="-2.98425"></trkpt>
      <trkpt lat="34.67451" lon="-2.98787"></trkpt>
      <trkpt lat="34.66860" lon="-2.99022"></trkpt>
      <trkpt lat="34.66095" lon="-2.99841"></trkpt>
      <trkpt lat="34.65499" lon="-3.00654"></trkpt>
      <trkpt lat="34.65350" lon="-3.00765"></trkpt>
      <trkpt lat="34.64952" lon="-3.00953"></trkpt>
      <trkpt lat="34.64788" lon="-3.01106"></trkpt>
      <trkpt lat="34.64449" lon="-3.01498"></trkpt>
      <trkpt lat="34.64301" lon="-3.01707"></trkpt>
      <trkpt lat="34.64196" lon="-3.02139"></trkpt>
      <trkpt lat="34.64143" lon="-3.02221"></trkpt>
      <trkpt lat="34.64047" lon="-3.02289"></trkpt>
      <trkpt lat="34.63412" lon="-3.02522"></trkpt>
      <trkpt lat="34.62401" lon="-3.02542"></trkpt>
      <trkpt lat="34.61408" lon="-3.02832"></trkpt>
      <trkpt lat="34.61131" lon="-3.02885"></trkpt>
      <trkpt lat="34.60379" lon="-3.02959"></trkpt>
      <trkpt lat="34.58297" lon="-3.03003"></trkpt>
      <trkpt lat="34.57603" lon="-3.03135"></trkpt>
      <trkpt lat="34.57161" lon="-3.03391"></trkpt>
      <trkpt lat="34.57030" lon="-3.03430"></trkpt>
      <trkpt lat="34.56840" lon="-3.03366"></trkpt>
      <trkpt lat="34.56602" lon="-3.03245"></trkpt>
      <trkpt lat="34.56334" lon="-3.03061"></trkpt>
      <trkpt lat="34.55896" lon="-3.02888"></trkpt>
      <trkpt lat="34.55573" lon="-3.02715"></trkpt>
      <trkpt lat="34.55426" lon="-3.02523"></trkpt>
      <trkpt lat="34.55323" lon="-3.02211"></trkpt>
      <trkpt lat="34.55257" lon="-3.02088"></trkpt>
      <trkpt lat="34.55063" lon="-3.01931"></trkpt>
      <trkpt lat="34.54930" lon="-3.01869"></trkpt>
      <trkpt lat="34.54767" lon="-3.01872"></trkpt>
      <trkpt lat="34.54647" lon="-3.01925"></trkpt>
      <trkpt lat="34.54568" lon="-3.01991"></trkpt>
      <trkpt lat="34.54450" lon="-3.02209"></trkpt>
      <trkpt lat="34.54384" lon="-3.02633"></trkpt>
      <trkpt lat="34.54299" lon="-3.02843"></trkpt>
      <trkpt lat="34.54225" lon="-3.02941"></trkpt>
      <trkpt lat="34.54113" lon="-3.03033"></trkpt>
      <trkpt lat="34.54022" lon="-3.03077"></trkpt>
      <trkpt lat="34.53878" lon="-3.03093"></trkpt>
      <trkpt lat="34.53693" lon="-3.03056"></trkpt>
      <trkpt lat="34.51955" lon="-3.02183"></trkpt>
      <trkpt lat="34.51520" lon="-3.02039"></trkpt>
      <trkpt lat="34.51323" lon="-3.01888"></trkpt>
      <trkpt lat="34.51200" lon="-3.01721"></trkpt>
      <trkpt lat="34.51090" lon="-3.01492"></trkpt>
      <trkpt lat="34.51016" lon="-3.01192"></trkpt>
      <trkpt lat="34.50939" lon="-3.01058"></trkpt>
      <trkpt lat="34.49837" lon="-2.99682"></trkpt>
      <trkpt lat="34.49686" lon="-2.99531"></trkpt>
      <trkpt lat="34.49449" lon="-2.99441"></trkpt>
      <trkpt lat="34.48913" lon="-2.99413"></trkpt>
      <trkpt lat="34.48733" lon="-2.99373"></trkpt>
      <trkpt lat="34.47314" lon="-2.98764"></trkpt>
      <trkpt lat="34.47044" lon="-2.98729"></trkpt>
      <trkpt lat="34.46601" lon="-2.98753"></trkpt>
      <trkpt lat="34.46541" lon="-2.98722"></trkpt>
      <trkpt lat="34.45413" lon="-2.98584"></trkpt>
      <trkpt lat="34.45215" lon="-2.98513"></trkpt>
      <trkpt lat="34.44708" lon="-2.98196"></trkpt>
      <trkpt lat="34.44197" lon="-2.98032"></trkpt>
      <trkpt lat="34.44049" lon="-2.97922"></trkpt>
      <trkpt lat="34.43942" lon="-2.97740"></trkpt>
      <trkpt lat="34.43808" lon="-2.96914"></trkpt>
      <trkpt lat="34.43744" lon="-2.96764"></trkpt>
      <trkpt lat="34.43631" lon="-2.96633"></trkpt>
      <trkpt lat="34.43294" lon="-2.96403"></trkpt>
      <trkpt lat="34.43174" lon="-2.96364"></trkpt>
      <trkpt lat="34.42789" lon="-2.96310"></trkpt>
      <trkpt lat="34.42333" lon="-2.96364"></trkpt>
      <trkpt lat="34.42165" lon="-2.96321"></trkpt>
      <trkpt lat="34.41842" lon="-2.96135"></trkpt>
      <trkpt lat="34.40813" lon="-2.95296"></trkpt>
      <trkpt lat="34.41069" lon="-2.94373"></trkpt>
      <trkpt lat="34.41053" lon="-2.94175"></trkpt>
      <trkpt lat="34.40900" lon="-2.93641"></trkpt>
      <trkpt lat="34.40986" lon="-2.92965"></trkpt>
      <trkpt lat="34.41202" lon="-2.92522"></trkpt>
      <trkpt lat="34.41224" lon="-2.92430"></trkpt>
      <trkpt lat="34.41355" lon="-2.92218"></trkpt>
      <trkpt lat="34.41593" lon="-2.91551"></trkpt>
      <trkpt lat="34.41849" lon="-2.91039"></trkpt>
      <trkpt lat="34.41822" lon="-2.90923"></trkpt>
      <trkpt lat="34.41805" lon="-2.90578"></trkpt>
      <trkpt lat="34.41503" lon="-2.89880"></trkpt>
      <trkpt lat="34.41348" lon="-2.89408"></trkpt>
      <trkpt lat="34.41335" lon="-2.89390"></trkpt>
      <trkpt lat="34.41241" lon="-2.89391"></trkpt>
      <trkpt lat="34.41260" lon="-2.89465"></trkpt>
      <trkpt lat="34.41341" lon="-2.89370"></trkpt>
      <trkpt lat="34.41362" lon="-2.89375"></trkpt>
      <trkpt lat="34.41369" lon="-2.89465"></trkpt>
      <trkpt lat="34.41482" lon="-2.89800"></trkpt>
      <trkpt lat="34.41819" lon="-2.90588"></trkpt>
      <trkpt lat="34.41830" lon="-2.90932"></trkpt>
      <trkpt lat="34.41873" lon="-2.91036"></trkpt>
      <trkpt lat="34.41726" lon="-2.91255"></trkpt>
      <trkpt lat="34.41622" lon="-2.91571"></trkpt>
      <trkpt lat="34.41583" lon="-2.91621"></trkpt>
      <trkpt lat="34.41355" lon="-2.92218"></trkpt>
      <trkpt lat="34.41266" lon="-2.92384"></trkpt>
      <trkpt lat="34.41256" lon="-2.92451"></trkpt>
      <trkpt lat="34.41216" lon="-2.92487"></trkpt>
      <trkpt lat="34.40997" lon="-2.92931"></trkpt>
      <trkpt lat="34.40977" lon="-2.93011"></trkpt>
      <trkpt lat="34.40900" lon="-2.93641"></trkpt>
      <trkpt lat="34.41053" lon="-2.94175"></trkpt>
      <trkpt lat="34.41069" lon="-2.94373"></trkpt>
      <trkpt lat="34.40691" lon="-2.95711"></trkpt>
      <trkpt lat="34.40590" lon="-2.96161"></trkpt>
      <trkpt lat="34.40465" lon="-2.97288"></trkpt>
      <trkpt lat="34.40487" lon="-2.97467"></trkpt>
      <trkpt lat="34.40609" lon="-2.97924"></trkpt>
      <trkpt lat="34.40608" lon="-2.98065"></trkpt>
      <trkpt lat="34.40573" lon="-2.98218"></trkpt>
      <trkpt lat="34.38283" lon="-3.01815"></trkpt>
      <trkpt lat="34.37830" lon="-3.02196"></trkpt>
      <trkpt lat="34.37573" lon="-3.02684"></trkpt>
      <trkpt lat="34.37254" lon="-3.02918"></trkpt>
      <trkpt lat="34.36970" lon="-3.03363"></trkpt>
      <trkpt lat="34.36053" lon="-3.04087"></trkpt>
      <trkpt lat="34.35965" lon="-3.04110"></trkpt>
      <trkpt lat="34.35554" lon="-3.04111"></trkpt>
      <trkpt lat="34.35167" lon="-3.04201"></trkpt>
      <trkpt lat="34.34775" lon="-3.04530"></trkpt>
      <trkpt lat="34.34463" lon="-3.04901"></trkpt>
      <trkpt lat="34.33969" lon="-3.05279"></trkpt>
      <trkpt lat="34.33835" lon="-3.05410"></trkpt>
      <trkpt lat="34.33606" lon="-3.05761"></trkpt>
      <trkpt lat="34.33366" lon="-3.06404"></trkpt>
      <trkpt lat="34.33130" lon="-3.06756"></trkpt>
      <trkpt lat="34.33002" lon="-3.06853"></trkpt>
      <trkpt lat="34.32738" lon="-3.06921"></trkpt>
      <trkpt lat="34.32609" lon="-3.07047"></trkpt>
      <trkpt lat="34.31565" lon="-3.08964"></trkpt>
      <trkpt lat="34.30182" lon="-3.11152"></trkpt>
      <trkpt lat="34.30092" lon="-3.11482"></trkpt>
      <trkpt lat="34.30047" lon="-3.13024"></trkpt>
      <trkpt lat="34.29977" lon="-3.13716"></trkpt>
      <trkpt lat="34.29980" lon="-3.14144"></trkpt>
      <trkpt lat="34.29954" lon="-3.14258"></trkpt>
      <trkpt lat="34.29850" lon="-3.14436"></trkpt>
      <trkpt lat="34.29728" lon="-3.14571"></trkpt>
      <trkpt lat="34.29638" lon="-3.14615"></trkpt>
      <trkpt lat="34.29257" lon="-3.14698"></trkpt>
      <trkpt lat="34.29109" lon="-3.14826"></trkpt>
      <trkpt lat="34.29023" lon="-3.14976"></trkpt>
      <trkpt lat="34.28554" lon="-3.17306"></trkpt>
      <trkpt lat="34.28469" lon="-3.17537"></trkpt>
      <trkpt lat="34.27689" lon="-3.19070"></trkpt>
      <trkpt lat="34.27569" lon="-3.19348"></trkpt>
      <trkpt lat="34.26238" lon="-3.23476"></trkpt>
      <trkpt lat="34.26029" lon="-3.24790"></trkpt>
      <trkpt lat="34.25967" lon="-3.24988"></trkpt>
      <trkpt lat="34.25653" lon="-3.25474"></trkpt>
      <trkpt lat="34.25252" lon="-3.26025"></trkpt>
      <trkpt lat="34.24602" lon="-3.26668"></trkpt>
      <trkpt lat="34.24501" lon="-3.26844"></trkpt>
      <trkpt lat="34.23997" lon="-3.29273"></trkpt>
      <trkpt lat="34.23869" lon="-3.31102"></trkpt>
      <trkpt lat="34.23896" lon="-3.31327"></trkpt>
      <trkpt lat="34.24076" lon="-3.31589"></trkpt>
      <trkpt lat="34.24162" lon="-3.31786"></trkpt>
      <trkpt lat="34.24188" lon="-3.31984"></trkpt>
      <trkpt lat="34.24184" lon="-3.32255"></trkpt>
      <trkpt lat="34.24130" lon="-3.32372"></trkpt>
      <trkpt lat="34.23939" lon="-3.32574"></trkpt>
      <trkpt lat="34.23128" lon="-3.34060"></trkpt>
      <trkpt lat="34.22652" lon="-3.34986"></trkpt>
      <trkpt lat="34.22636" lon="-3.35144"></trkpt>
      <trkpt lat="34.22739" lon="-3.35267"></trkpt>
      <trkpt lat="34.22719" lon="-3.35312"></trkpt>
    </trkseg>
  </trk>
</gpx>
