<?xml version="1.0" encoding="UTF-8"?>
<gpx version="1.1" creator="Marokko Motorreis 2026"
     xmlns="http://www.topografix.com/GPX/1/1"
     xmlns:xsi="http://www.w3.org/2001/XMLSchema-instance"
     xsi:schemaLocation="http://www.topografix.com/GPX/1/1 http://www.topografix.com/GPX/1/1/gpx.xsd">
  <metadata><name>Dag 8 (19 okt) Marrakech - Ouzoud - Beni Mellal</name><desc>275 km, ca. 5u32 rijden. Hoogste watervallen van Marokko, daarna door naar Beni Mellal.</desc></metadata>
  <wpt lat="31.625941" lon="-7.989529"><name>Marrakech</name><sym>Flag, Blue</sym></wpt>
  <wpt lat="31.732000" lon="-7.002741"><name>Demnate</name><sym>Flag, Blue</sym></wpt>
  <wpt lat="32.015015" lon="-6.719551"><name>Ouzoud-watervallen</name><sym>Flag, Blue</sym></wpt>
  <wpt lat="32.217485" lon="-6.495421"><name>Afourer</name><sym>Flag, Blue</sym></wpt>
  <wpt lat="32.337344" lon="-6.349810"><name>Beni Mellal</name><sym>Flag, Blue</sym></wpt>
  <trk>
    <name>Dag 8 (19 okt) Marrakech - Ouzoud - Beni Mellal</name>
    <desc>275 km, ca. 5u32 rijden. Hoogste watervallen van Marokko, daarna door naar Beni Mellal.</desc>
    <trkseg>
      <trkpt lat="31.62594" lon="-7.98953"></trkpt>
      <trkpt lat="31.62528" lon="-7.98979"></trkpt>
      <trkpt lat="31.62455" lon="-7.99184"></trkpt>
      <trkpt lat="31.62471" lon="-7.99209"></trkpt>
      <trkpt lat="31.62592" lon="-7.99307"></trkpt>
      <trkpt lat="31.62907" lon="-7.99411"></trkpt>
      <trkpt lat="31.63122" lon="-7.99629"></trkpt>
      <trkpt lat="31.63148" lon="-7.99616"></trkpt>
      <trkpt lat="31.63213" lon="-7.99650"></trkpt>
      <trkpt lat="31.63297" lon="-7.99742"></trkpt>
      <trkpt lat="31.63370" lon="-7.99896"></trkpt>
      <trkpt lat="31.63349" lon="-7.99931"></trkpt>
      <trkpt lat="31.63386" lon="-7.99980"></trkpt>
      <trkpt lat="31.63455" lon="-7.99954"></trkpt>
      <trkpt lat="31.63565" lon="-8.00030"></trkpt>
      <trkpt lat="31.63603" lon="-8.00020"></trkpt>
      <trkpt lat="31.64337" lon="-7.99446"></trkpt>
      <trkpt lat="31.64424" lon="-7.99249"></trkpt>
      <trkpt lat="31.64443" lon="-7.98745"></trkpt>
      <trkpt lat="31.64474" lon="-7.98652"></trkpt>
      <trkpt lat="31.64839" lon="-7.96208"></trkpt>
      <trkpt lat="31.64823" lon="-7.95310"></trkpt>
      <trkpt lat="31.64801" lon="-7.95215"></trkpt>
      <trkpt lat="31.64820" lon="-7.95114"></trkpt>
      <trkpt lat="31.64816" lon="-7.94704"></trkpt>
      <trkpt lat="31.64711" lon="-7.89680"></trkpt>
      <trkpt lat="31.64468" lon="-7.88056"></trkpt>
      <trkpt lat="31.64250" lon="-7.85921"></trkpt>
      <trkpt lat="31.64307" lon="-7.85640"></trkpt>
      <trkpt lat="31.64780" lon="-7.84446"></trkpt>
      <trkpt lat="31.64792" lon="-7.83746"></trkpt>
      <trkpt lat="31.64939" lon="-7.83298"></trkpt>
      <trkpt lat="31.64818" lon="-7.83252"></trkpt>
      <trkpt lat="31.64480" lon="-7.83204"></trkpt>
      <trkpt lat="31.64103" lon="-7.82736"></trkpt>
      <trkpt lat="31.64076" lon="-7.82658"></trkpt>
      <trkpt lat="31.63970" lon="-7.79101"></trkpt>
      <trkpt lat="31.63353" lon="-7.65540"></trkpt>
      <trkpt lat="31.63371" lon="-7.63666"></trkpt>
      <trkpt lat="31.64273" lon="-7.55592"></trkpt>
      <trkpt lat="31.64324" lon="-7.55338"></trkpt>
      <trkpt lat="31.64334" lon="-7.55009"></trkpt>
      <trkpt lat="31.64478" lon="-7.53692"></trkpt>
      <trkpt lat="31.64231" lon="-7.49986"></trkpt>
      <trkpt lat="31.64588" lon="-7.48713"></trkpt>
      <trkpt lat="31.64591" lon="-7.48418"></trkpt>
      <trkpt lat="31.64663" lon="-7.48307"></trkpt>
      <trkpt lat="31.64795" lon="-7.48206"></trkpt>
      <trkpt lat="31.64923" lon="-7.47966"></trkpt>
      <trkpt lat="31.64910" lon="-7.47917"></trkpt>
      <trkpt lat="31.64779" lon="-7.47828"></trkpt>
      <trkpt lat="31.64571" lon="-7.47585"></trkpt>
      <trkpt lat="31.64646" lon="-7.47142"></trkpt>
      <trkpt lat="31.64565" lon="-7.46988"></trkpt>
      <trkpt lat="31.64390" lon="-7.46402"></trkpt>
      <trkpt lat="31.64379" lon="-7.46239"></trkpt>
      <trkpt lat="31.64404" lon="-7.46017"></trkpt>
      <trkpt lat="31.64869" lon="-7.44588"></trkpt>
      <trkpt lat="31.65198" lon="-7.43844"></trkpt>
      <trkpt lat="31.65697" lon="-7.42237"></trkpt>
      <trkpt lat="31.65825" lon="-7.42035"></trkpt>
      <trkpt lat="31.66088" lon="-7.41745"></trkpt>
      <trkpt lat="31.66291" lon="-7.41277"></trkpt>
      <trkpt lat="31.66374" lon="-7.40826"></trkpt>
      <trkpt lat="31.66590" lon="-7.40379"></trkpt>
      <trkpt lat="31.67439" lon="-7.39187"></trkpt>
      <trkpt lat="31.67932" lon="-7.38056"></trkpt>
      <trkpt lat="31.68433" lon="-7.37156"></trkpt>
      <trkpt lat="31.68619" lon="-7.36623"></trkpt>
      <trkpt lat="31.69724" lon="-7.34771"></trkpt>
      <trkpt lat="31.71079" lon="-7.31971"></trkpt>
      <trkpt lat="31.72996" lon="-7.28761"></trkpt>
      <trkpt lat="31.73091" lon="-7.28392"></trkpt>
      <trkpt lat="31.73274" lon="-7.28299"></trkpt>
      <trkpt lat="31.73459" lon="-7.28061"></trkpt>
      <trkpt lat="31.73454" lon="-7.27807"></trkpt>
      <trkpt lat="31.73532" lon="-7.27245"></trkpt>
      <trkpt lat="31.73421" lon="-7.26233"></trkpt>
      <trkpt lat="31.73596" lon="-7.24794"></trkpt>
      <trkpt lat="31.73527" lon="-7.22968"></trkpt>
      <trkpt lat="31.73934" lon="-7.20692"></trkpt>
      <trkpt lat="31.73933" lon="-7.20403"></trkpt>
      <trkpt lat="31.73973" lon="-7.20075"></trkpt>
      <trkpt lat="31.73938" lon="-7.19770"></trkpt>
      <trkpt lat="31.73971" lon="-7.19470"></trkpt>
      <trkpt lat="31.73961" lon="-7.19067"></trkpt>
      <trkpt lat="31.74444" lon="-7.17017"></trkpt>
      <trkpt lat="31.74695" lon="-7.15776"></trkpt>
      <trkpt lat="31.74989" lon="-7.15046"></trkpt>
      <trkpt lat="31.75999" lon="-7.11063"></trkpt>
      <trkpt lat="31.76079" lon="-7.10100"></trkpt>
      <trkpt lat="31.76199" lon="-7.09471"></trkpt>
      <trkpt lat="31.76244" lon="-7.07936"></trkpt>
      <trkpt lat="31.76234" lon="-7.07313"></trkpt>
      <trkpt lat="31.76193" lon="-7.07181"></trkpt>
      <trkpt lat="31.76000" lon="-7.06931"></trkpt>
      <trkpt lat="31.75697" lon="-7.06704"></trkpt>
      <trkpt lat="31.75520" lon="-7.06527"></trkpt>
      <trkpt lat="31.74811" lon="-7.06040"></trkpt>
      <trkpt lat="31.74339" lon="-7.05459"></trkpt>
      <trkpt lat="31.74150" lon="-7.04829"></trkpt>
      <trkpt lat="31.74071" lon="-7.04827"></trkpt>
      <trkpt lat="31.73814" lon="-7.04914"></trkpt>
      <trkpt lat="31.73764" lon="-7.04891"></trkpt>
      <trkpt lat="31.73737" lon="-7.04841"></trkpt>
      <trkpt lat="31.73596" lon="-7.03920"></trkpt>
      <trkpt lat="31.73659" lon="-7.03500"></trkpt>
      <trkpt lat="31.73672" lon="-7.03079"></trkpt>
      <trkpt lat="31.73529" lon="-7.02731"></trkpt>
      <trkpt lat="31.73469" lon="-7.02504"></trkpt>
      <trkpt lat="31.73307" lon="-7.02286"></trkpt>
      <trkpt lat="31.73357" lon="-7.02032"></trkpt>
      <trkpt lat="31.73383" lon="-7.01677"></trkpt>
      <trkpt lat="31.73371" lon="-7.01027"></trkpt>
      <trkpt lat="31.73273" lon="-7.00719"></trkpt>
      <trkpt lat="31.73246" lon="-7.00536"></trkpt>
      <trkpt lat="31.73353" lon="-7.00398"></trkpt>
      <trkpt lat="31.73322" lon="-7.00324"></trkpt>
      <trkpt lat="31.73212" lon="-7.00346"></trkpt>
      <trkpt lat="31.73188" lon="-7.00213"></trkpt>
      <trkpt lat="31.73309" lon="-7.00183"></trkpt>
      <trkpt lat="31.73317" lon="-7.00293"></trkpt>
      <trkpt lat="31.73461" lon="-7.00626"></trkpt>
      <trkpt lat="31.73585" lon="-7.00725"></trkpt>
      <trkpt lat="31.73666" lon="-7.00828"></trkpt>
      <trkpt lat="31.73846" lon="-7.00732"></trkpt>
      <trkpt lat="31.73993" lon="-7.00798"></trkpt>
      <trkpt lat="31.74084" lon="-7.00768"></trkpt>
      <trkpt lat="31.74139" lon="-7.00802"></trkpt>
      <trkpt lat="31.74194" lon="-7.00897"></trkpt>
      <trkpt lat="31.74274" lon="-7.00945"></trkpt>
      <trkpt lat="31.74310" lon="-7.00893"></trkpt>
      <trkpt lat="31.74292" lon="-7.00756"></trkpt>
      <trkpt lat="31.74356" lon="-7.00667"></trkpt>
      <trkpt lat="31.74505" lon="-7.00632"></trkpt>
      <trkpt lat="31.74652" lon="-7.00641"></trkpt>
      <trkpt lat="31.74813" lon="-7.00559"></trkpt>
      <trkpt lat="31.75037" lon="-7.00542"></trkpt>
      <trkpt lat="31.75571" lon="-7.00926"></trkpt>
      <trkpt lat="31.75680" lon="-7.01072"></trkpt>
      <trkpt lat="31.75705" lon="-7.01063"></trkpt>
      <trkpt lat="31.75744" lon="-7.00903"></trkpt>
      <trkpt lat="31.75867" lon="-7.00781"></trkpt>
      <trkpt lat="31.75916" lon="-7.00770"></trkpt>
      <trkpt lat="31.76245" lon="-7.00958"></trkpt>
      <trkpt lat="31.76252" lon="-7.01044"></trkpt>
      <trkpt lat="31.76137" lon="-7.01108"></trkpt>
      <trkpt lat="31.76124" lon="-7.01155"></trkpt>
      <trkpt lat="31.76312" lon="-7.01209"></trkpt>
      <trkpt lat="31.76429" lon="-7.01210"></trkpt>
      <trkpt lat="31.76636" lon="-7.01304"></trkpt>
      <trkpt lat="31.76824" lon="-7.01260"></trkpt>
      <trkpt lat="31.76943" lon="-7.01271"></trkpt>
      <trkpt lat="31.76963" lon="-7.01314"></trkpt>
      <trkpt lat="31.76928" lon="-7.01424"></trkpt>
      <trkpt lat="31.76990" lon="-7.01680"></trkpt>
      <trkpt lat="31.77143" lon="-7.01873"></trkpt>
      <trkpt lat="31.77385" lon="-7.01957"></trkpt>
      <trkpt lat="31.77630" lon="-7.01937"></trkpt>
      <trkpt lat="31.77770" lon="-7.01973"></trkpt>
      <trkpt lat="31.77876" lon="-7.02078"></trkpt>
      <trkpt lat="31.77929" lon="-7.02193"></trkpt>
      <trkpt lat="31.78014" lon="-7.02280"></trkpt>
      <trkpt lat="31.77961" lon="-7.02358"></trkpt>
      <trkpt lat="31.77976" lon="-7.02485"></trkpt>
      <trkpt lat="31.77902" lon="-7.02550"></trkpt>
      <trkpt lat="31.78036" lon="-7.02721"></trkpt>
      <trkpt lat="31.78032" lon="-7.02917"></trkpt>
      <trkpt lat="31.78870" lon="-7.03974"></trkpt>
      <trkpt lat="31.78912" lon="-7.03977"></trkpt>
      <trkpt lat="31.79359" lon="-7.03490"></trkpt>
      <trkpt lat="31.79464" lon="-7.03421"></trkpt>
      <trkpt lat="31.80362" lon="-7.03315"></trkpt>
      <trkpt lat="31.80804" lon="-7.03169"></trkpt>
      <trkpt lat="31.81748" lon="-7.03189"></trkpt>
      <trkpt lat="31.81918" lon="-7.03105"></trkpt>
      <trkpt lat="31.82038" lon="-7.03099"></trkpt>
      <trkpt lat="31.82111" lon="-7.02973"></trkpt>
      <trkpt lat="31.82204" lon="-7.02947"></trkpt>
      <trkpt lat="31.82256" lon="-7.02974"></trkpt>
      <trkpt lat="31.82281" lon="-7.03052"></trkpt>
      <trkpt lat="31.82559" lon="-7.03285"></trkpt>
      <trkpt lat="31.82607" lon="-7.03308"></trkpt>
      <trkpt lat="31.82648" lon="-7.03295"></trkpt>
      <trkpt lat="31.82675" lon="-7.03237"></trkpt>
      <trkpt lat="31.82655" lon="-7.03077"></trkpt>
      <trkpt lat="31.82678" lon="-7.03025"></trkpt>
      <trkpt lat="31.82768" lon="-7.02998"></trkpt>
      <trkpt lat="31.82893" lon="-7.02845"></trkpt>
      <trkpt lat="31.83305" lon="-7.02548"></trkpt>
      <trkpt lat="31.83325" lon="-7.02462"></trkpt>
      <trkpt lat="31.83316" lon="-7.02259"></trkpt>
      <trkpt lat="31.83418" lon="-7.02155"></trkpt>
      <trkpt lat="31.83497" lon="-7.02008"></trkpt>
      <trkpt lat="31.83493" lon="-7.01975"></trkpt>
      <trkpt lat="31.83434" lon="-7.01924"></trkpt>
      <trkpt lat="31.83452" lon="-7.01849"></trkpt>
      <trkpt lat="31.83407" lon="-7.01783"></trkpt>
      <trkpt lat="31.83415" lon="-7.01673"></trkpt>
      <trkpt lat="31.83594" lon="-7.01470"></trkpt>
      <trkpt lat="31.83632" lon="-7.01377"></trkpt>
      <trkpt lat="31.83485" lon="-7.01276"></trkpt>
      <trkpt lat="31.83355" lon="-7.01022"></trkpt>
      <trkpt lat="31.83246" lon="-7.00541"></trkpt>
      <trkpt lat="31.83237" lon="-7.00385"></trkpt>
      <trkpt lat="31.83275" lon="-7.00270"></trkpt>
      <trkpt lat="31.83253" lon="-7.00119"></trkpt>
      <trkpt lat="31.83306" lon="-7.00033"></trkpt>
      <trkpt lat="31.83323" lon="-6.99797"></trkpt>
      <trkpt lat="31.83358" lon="-6.99774"></trkpt>
      <trkpt lat="31.83435" lon="-6.99798"></trkpt>
      <trkpt lat="31.83468" lon="-6.99765"></trkpt>
      <trkpt lat="31.83492" lon="-6.99618"></trkpt>
      <trkpt lat="31.83461" lon="-6.99489"></trkpt>
      <trkpt lat="31.83610" lon="-6.99206"></trkpt>
      <trkpt lat="31.83593" lon="-6.99146"></trkpt>
      <trkpt lat="31.83512" lon="-6.99123"></trkpt>
      <trkpt lat="31.83461" lon="-6.99059"></trkpt>
      <trkpt lat="31.83668" lon="-6.98748"></trkpt>
      <trkpt lat="31.83783" lon="-6.98450"></trkpt>
      <trkpt lat="31.83867" lon="-6.98339"></trkpt>
      <trkpt lat="31.83969" lon="-6.98284"></trkpt>
      <trkpt lat="31.84017" lon="-6.98155"></trkpt>
      <trkpt lat="31.84087" lon="-6.98088"></trkpt>
      <trkpt lat="31.84898" lon="-6.97672"></trkpt>
      <trkpt lat="31.85078" lon="-6.97199"></trkpt>
      <trkpt lat="31.85083" lon="-6.96862"></trkpt>
      <trkpt lat="31.85156" lon="-6.96590"></trkpt>
      <trkpt lat="31.85245" lon="-6.96484"></trkpt>
      <trkpt lat="31.85411" lon="-6.96398"></trkpt>
      <trkpt lat="31.85829" lon="-6.96500"></trkpt>
      <trkpt lat="31.85912" lon="-6.96499"></trkpt>
      <trkpt lat="31.86098" lon="-6.96396"></trkpt>
      <trkpt lat="31.86164" lon="-6.96316"></trkpt>
      <trkpt lat="31.86299" lon="-6.96227"></trkpt>
      <trkpt lat="31.86262" lon="-6.95908"></trkpt>
      <trkpt lat="31.86399" lon="-6.95525"></trkpt>
      <trkpt lat="31.86382" lon="-6.95370"></trkpt>
      <trkpt lat="31.86068" lon="-6.94694"></trkpt>
      <trkpt lat="31.85994" lon="-6.94451"></trkpt>
      <trkpt lat="31.86009" lon="-6.94429"></trkpt>
      <trkpt lat="31.86104" lon="-6.94409"></trkpt>
      <trkpt lat="31.86177" lon="-6.94337"></trkpt>
      <trkpt lat="31.86251" lon="-6.94316"></trkpt>
      <trkpt lat="31.86297" lon="-6.94271"></trkpt>
      <trkpt lat="31.86300" lon="-6.94234"></trkpt>
      <trkpt lat="31.86224" lon="-6.94159"></trkpt>
      <trkpt lat="31.86260" lon="-6.94011"></trkpt>
      <trkpt lat="31.86422" lon="-6.93868"></trkpt>
      <trkpt lat="31.86542" lon="-6.93797"></trkpt>
      <trkpt lat="31.86844" lon="-6.93686"></trkpt>
      <trkpt lat="31.87047" lon="-6.93449"></trkpt>
      <trkpt lat="31.87674" lon="-6.93294"></trkpt>
      <trkpt lat="31.88010" lon="-6.93112"></trkpt>
      <trkpt lat="31.88689" lon="-6.92384"></trkpt>
      <trkpt lat="31.88767" lon="-6.92192"></trkpt>
      <trkpt lat="31.88769" lon="-6.91983"></trkpt>
      <trkpt lat="31.88563" lon="-6.91219"></trkpt>
      <trkpt lat="31.88458" lon="-6.91092"></trkpt>
      <trkpt lat="31.88317" lon="-6.91031"></trkpt>
      <trkpt lat="31.88265" lon="-6.90975"></trkpt>
      <trkpt lat="31.88175" lon="-6.90808"></trkpt>
      <trkpt lat="31.88158" lon="-6.90651"></trkpt>
      <trkpt lat="31.88230" lon="-6.89623"></trkpt>
      <trkpt lat="31.88187" lon="-6.89144"></trkpt>
      <trkpt lat="31.88217" lon="-6.88973"></trkpt>
      <trkpt lat="31.88182" lon="-6.88699"></trkpt>
      <trkpt lat="31.88230" lon="-6.88222"></trkpt>
      <trkpt lat="31.88358" lon="-6.87793"></trkpt>
      <trkpt lat="31.88454" lon="-6.87202"></trkpt>
      <trkpt lat="31.88456" lon="-6.87061"></trkpt>
      <trkpt lat="31.88777" lon="-6.85712"></trkpt>
      <trkpt lat="31.88751" lon="-6.85332"></trkpt>
      <trkpt lat="31.88865" lon="-6.84197"></trkpt>
      <trkpt lat="31.88822" lon="-6.83996"></trkpt>
      <trkpt lat="31.88815" lon="-6.83384"></trkpt>
      <trkpt lat="31.88846" lon="-6.82962"></trkpt>
      <trkpt lat="31.88800" lon="-6.82698"></trkpt>
      <trkpt lat="31.88914" lon="-6.82413"></trkpt>
      <trkpt lat="31.88939" lon="-6.81711"></trkpt>
      <trkpt lat="31.88774" lon="-6.81417"></trkpt>
      <trkpt lat="31.88718" lon="-6.81112"></trkpt>
      <trkpt lat="31.88815" lon="-6.80950"></trkpt>
      <trkpt lat="31.88935" lon="-6.80612"></trkpt>
      <trkpt lat="31.89077" lon="-6.80362"></trkpt>
      <trkpt lat="31.89305" lon="-6.80276"></trkpt>
      <trkpt lat="31.89420" lon="-6.80100"></trkpt>
      <trkpt lat="31.89519" lon="-6.80011"></trkpt>
      <trkpt lat="31.90112" lon="-6.78835"></trkpt>
      <trkpt lat="31.90216" lon="-6.78555"></trkpt>
      <trkpt lat="31.90559" lon="-6.77405"></trkpt>
      <trkpt lat="31.90694" lon="-6.77162"></trkpt>
      <trkpt lat="31.90796" lon="-6.76785"></trkpt>
      <trkpt lat="31.90805" lon="-6.76409"></trkpt>
      <trkpt lat="31.90946" lon="-6.75995"></trkpt>
      <trkpt lat="31.91200" lon="-6.75057"></trkpt>
      <trkpt lat="31.91245" lon="-6.74325"></trkpt>
      <trkpt lat="31.91176" lon="-6.73865"></trkpt>
      <trkpt lat="31.91324" lon="-6.73760"></trkpt>
      <trkpt lat="31.91365" lon="-6.73765"></trkpt>
      <trkpt lat="31.91786" lon="-6.74167"></trkpt>
      <trkpt lat="31.91903" lon="-6.74341"></trkpt>
      <trkpt lat="31.92189" lon="-6.74616"></trkpt>
      <trkpt lat="31.92492" lon="-6.74810"></trkpt>
      <trkpt lat="31.93071" lon="-6.75400"></trkpt>
      <trkpt lat="31.93293" lon="-6.75549"></trkpt>
      <trkpt lat="31.93366" lon="-6.75700"></trkpt>
      <trkpt lat="31.93554" lon="-6.75889"></trkpt>
      <trkpt lat="31.93916" lon="-6.76180"></trkpt>
      <trkpt lat="31.94241" lon="-6.76331"></trkpt>
      <trkpt lat="31.94432" lon="-6.76475"></trkpt>
      <trkpt lat="31.94620" lon="-6.76544"></trkpt>
      <trkpt lat="31.94712" lon="-6.76614"></trkpt>
      <trkpt lat="31.94871" lon="-6.76663"></trkpt>
      <trkpt lat="31.94995" lon="-6.76616"></trkpt>
      <trkpt lat="31.95284" lon="-6.76581"></trkpt>
      <trkpt lat="31.95386" lon="-6.76605"></trkpt>
      <trkpt lat="31.95448" lon="-6.76661"></trkpt>
      <trkpt lat="31.95549" lon="-6.76652"></trkpt>
      <trkpt lat="31.95577" lon="-6.76688"></trkpt>
      <trkpt lat="31.95609" lon="-6.76856"></trkpt>
      <trkpt lat="31.95655" lon="-6.76897"></trkpt>
      <trkpt lat="31.96024" lon="-6.76795"></trkpt>
      <trkpt lat="31.96202" lon="-6.76641"></trkpt>
      <trkpt lat="31.96316" lon="-6.76689"></trkpt>
      <trkpt lat="31.96523" lon="-6.76458"></trkpt>
      <trkpt lat="31.96562" lon="-6.76478"></trkpt>
      <trkpt lat="31.96525" lon="-6.76558"></trkpt>
      <trkpt lat="31.96541" lon="-6.76593"></trkpt>
      <trkpt lat="31.96669" lon="-6.76559"></trkpt>
      <trkpt lat="31.96736" lon="-6.76599"></trkpt>
      <trkpt lat="31.96829" lon="-6.76571"></trkpt>
      <trkpt lat="31.96843" lon="-6.76537"></trkpt>
      <trkpt lat="31.96824" lon="-6.76474"></trkpt>
      <trkpt lat="31.96854" lon="-6.76381"></trkpt>
      <trkpt lat="31.96796" lon="-6.76281"></trkpt>
      <trkpt lat="31.96810" lon="-6.76213"></trkpt>
      <trkpt lat="31.96843" lon="-6.76193"></trkpt>
      <trkpt lat="31.96926" lon="-6.76199"></trkpt>
      <trkpt lat="31.97164" lon="-6.76315"></trkpt>
      <trkpt lat="31.97247" lon="-6.76313"></trkpt>
      <trkpt lat="31.97485" lon="-6.76032"></trkpt>
      <trkpt lat="31.97646" lon="-6.75886"></trkpt>
      <trkpt lat="31.97971" lon="-6.75730"></trkpt>
      <trkpt lat="31.98079" lon="-6.75605"></trkpt>
      <trkpt lat="31.98269" lon="-6.75542"></trkpt>
      <trkpt lat="31.98739" lon="-6.75098"></trkpt>
      <trkpt lat="31.98856" lon="-6.74894"></trkpt>
      <trkpt lat="31.98988" lon="-6.74560"></trkpt>
      <trkpt lat="31.99197" lon="-6.74137"></trkpt>
      <trkpt lat="31.99319" lon="-6.74027"></trkpt>
      <trkpt lat="31.99448" lon="-6.73863"></trkpt>
      <trkpt lat="31.99642" lon="-6.73809"></trkpt>
      <trkpt lat="31.99841" lon="-6.73606"></trkpt>
      <trkpt lat="32.00050" lon="-6.73478"></trkpt>
      <trkpt lat="32.00201" lon="-6.73080"></trkpt>
      <trkpt lat="32.00337" lon="-6.72984"></trkpt>
      <trkpt lat="32.00392" lon="-6.72877"></trkpt>
      <trkpt lat="32.00426" lon="-6.72688"></trkpt>
      <trkpt lat="32.00563" lon="-6.72511"></trkpt>
      <trkpt lat="32.00648" lon="-6.72149"></trkpt>
      <trkpt lat="32.00592" lon="-6.71842"></trkpt>
      <trkpt lat="32.00622" lon="-6.71776"></trkpt>
      <trkpt lat="32.00728" lon="-6.71664"></trkpt>
      <trkpt lat="32.00803" lon="-6.71645"></trkpt>
      <trkpt lat="32.00886" lon="-6.71698"></trkpt>
      <trkpt lat="32.01023" lon="-6.71740"></trkpt>
      <trkpt lat="32.01227" lon="-6.71773"></trkpt>
      <trkpt lat="32.01271" lon="-6.71757"></trkpt>
      <trkpt lat="32.01301" lon="-6.71708"></trkpt>
      <trkpt lat="32.01502" lon="-6.71955"></trkpt>
      <trkpt lat="32.01301" lon="-6.71708"></trkpt>
      <trkpt lat="32.01333" lon="-6.71453"></trkpt>
      <trkpt lat="32.01450" lon="-6.71303"></trkpt>
      <trkpt lat="32.01473" lon="-6.71114"></trkpt>
      <trkpt lat="32.01573" lon="-6.71154"></trkpt>
      <trkpt lat="32.01705" lon="-6.71122"></trkpt>
      <trkpt lat="32.01860" lon="-6.71119"></trkpt>
      <trkpt lat="32.01993" lon="-6.71043"></trkpt>
      <trkpt lat="32.02118" lon="-6.70871"></trkpt>
      <trkpt lat="32.02156" lon="-6.70706"></trkpt>
      <trkpt lat="32.02110" lon="-6.70614"></trkpt>
      <trkpt lat="32.02126" lon="-6.70534"></trkpt>
      <trkpt lat="32.02088" lon="-6.70397"></trkpt>
      <trkpt lat="32.02141" lon="-6.70355"></trkpt>
      <trkpt lat="32.02152" lon="-6.70254"></trkpt>
      <trkpt lat="32.02202" lon="-6.70187"></trkpt>
      <trkpt lat="32.02247" lon="-6.70021"></trkpt>
      <trkpt lat="32.02345" lon="-6.69955"></trkpt>
      <trkpt lat="32.02464" lon="-6.69964"></trkpt>
      <trkpt lat="32.02486" lon="-6.69944"></trkpt>
      <trkpt lat="32.02423" lon="-6.69717"></trkpt>
      <trkpt lat="32.02535" lon="-6.69712"></trkpt>
      <trkpt lat="32.02662" lon="-6.69805"></trkpt>
      <trkpt lat="32.02687" lon="-6.69727"></trkpt>
      <trkpt lat="32.02786" lon="-6.69762"></trkpt>
      <trkpt lat="32.02845" lon="-6.69727"></trkpt>
      <trkpt lat="32.02928" lon="-6.69716"></trkpt>
      <trkpt lat="32.02945" lon="-6.69683"></trkpt>
      <trkpt lat="32.02911" lon="-6.69630"></trkpt>
      <trkpt lat="32.02923" lon="-6.69578"></trkpt>
      <trkpt lat="32.03058" lon="-6.69490"></trkpt>
      <trkpt lat="32.03019" lon="-6.69410"></trkpt>
      <trkpt lat="32.02892" lon="-6.69275"></trkpt>
      <trkpt lat="32.02846" lon="-6.69257"></trkpt>
      <trkpt lat="32.02850" lon="-6.69137"></trkpt>
      <trkpt lat="32.02720" lon="-6.69133"></trkpt>
      <trkpt lat="32.02690" lon="-6.69095"></trkpt>
      <trkpt lat="32.02701" lon="-6.69048"></trkpt>
      <trkpt lat="32.02779" lon="-6.69038"></trkpt>
      <trkpt lat="32.02831" lon="-6.68963"></trkpt>
      <trkpt lat="32.02987" lon="-6.68944"></trkpt>
      <trkpt lat="32.03083" lon="-6.68844"></trkpt>
      <trkpt lat="32.03117" lon="-6.68988"></trkpt>
      <trkpt lat="32.03226" lon="-6.68944"></trkpt>
      <trkpt lat="32.03447" lon="-6.68752"></trkpt>
      <trkpt lat="32.03464" lon="-6.68703"></trkpt>
      <trkpt lat="32.03605" lon="-6.68540"></trkpt>
      <trkpt lat="32.03623" lon="-6.68561"></trkpt>
      <trkpt lat="32.03596" lon="-6.68708"></trkpt>
      <trkpt lat="32.03638" lon="-6.68818"></trkpt>
      <trkpt lat="32.03701" lon="-6.68823"></trkpt>
      <trkpt lat="32.03820" lon="-6.68755"></trkpt>
      <trkpt lat="32.03923" lon="-6.68787"></trkpt>
      <trkpt lat="32.03934" lon="-6.68899"></trkpt>
      <trkpt lat="32.03993" lon="-6.68963"></trkpt>
      <trkpt lat="32.04014" lon="-6.69029"></trkpt>
      <trkpt lat="32.04092" lon="-6.69075"></trkpt>
      <trkpt lat="32.04148" lon="-6.69170"></trkpt>
      <trkpt lat="32.04189" lon="-6.69166"></trkpt>
      <trkpt lat="32.04196" lon="-6.68975"></trkpt>
      <trkpt lat="32.04286" lon="-6.68819"></trkpt>
      <trkpt lat="32.04401" lon="-6.68712"></trkpt>
      <trkpt lat="32.04315" lon="-6.68541"></trkpt>
      <trkpt lat="32.04315" lon="-6.68492"></trkpt>
      <trkpt lat="32.04435" lon="-6.68432"></trkpt>
      <trkpt lat="32.04522" lon="-6.68363"></trkpt>
      <trkpt lat="32.04530" lon="-6.68333"></trkpt>
      <trkpt lat="32.04455" lon="-6.68217"></trkpt>
      <trkpt lat="32.04432" lon="-6.68075"></trkpt>
      <trkpt lat="32.04329" lon="-6.67923"></trkpt>
      <trkpt lat="32.04225" lon="-6.67935"></trkpt>
      <trkpt lat="32.04220" lon="-6.67831"></trkpt>
      <trkpt lat="32.04115" lon="-6.67750"></trkpt>
      <trkpt lat="32.04132" lon="-6.67703"></trkpt>
      <trkpt lat="32.04363" lon="-6.67683"></trkpt>
      <trkpt lat="32.04436" lon="-6.67602"></trkpt>
      <trkpt lat="32.04521" lon="-6.67690"></trkpt>
      <trkpt lat="32.04655" lon="-6.67691"></trkpt>
      <trkpt lat="32.04759" lon="-6.67575"></trkpt>
      <trkpt lat="32.04807" lon="-6.67648"></trkpt>
      <trkpt lat="32.04843" lon="-6.67836"></trkpt>
      <trkpt lat="32.05029" lon="-6.67859"></trkpt>
      <trkpt lat="32.05085" lon="-6.67778"></trkpt>
      <trkpt lat="32.05251" lon="-6.67657"></trkpt>
      <trkpt lat="32.05293" lon="-6.67571"></trkpt>
      <trkpt lat="32.05288" lon="-6.67522"></trkpt>
      <trkpt lat="32.05186" lon="-6.67356"></trkpt>
      <trkpt lat="32.05208" lon="-6.67318"></trkpt>
      <trkpt lat="32.05335" lon="-6.67312"></trkpt>
      <trkpt lat="32.05434" lon="-6.67404"></trkpt>
      <trkpt lat="32.05591" lon="-6.67460"></trkpt>
      <trkpt lat="32.05667" lon="-6.67413"></trkpt>
      <trkpt lat="32.05697" lon="-6.67334"></trkpt>
      <trkpt lat="32.05673" lon="-6.67183"></trkpt>
      <trkpt lat="32.05815" lon="-6.67161"></trkpt>
      <trkpt lat="32.05878" lon="-6.67089"></trkpt>
      <trkpt lat="32.05967" lon="-6.67129"></trkpt>
      <trkpt lat="32.06047" lon="-6.67071"></trkpt>
      <trkpt lat="32.06086" lon="-6.67089"></trkpt>
      <trkpt lat="32.06171" lon="-6.67213"></trkpt>
      <trkpt lat="32.06247" lon="-6.67251"></trkpt>
      <trkpt lat="32.06300" lon="-6.67311"></trkpt>
      <trkpt lat="32.06391" lon="-6.67260"></trkpt>
      <trkpt lat="32.06541" lon="-6.67275"></trkpt>
      <trkpt lat="32.06636" lon="-6.67158"></trkpt>
      <trkpt lat="32.06719" lon="-6.67183"></trkpt>
      <trkpt lat="32.06742" lon="-6.67164"></trkpt>
      <trkpt lat="32.06765" lon="-6.67027"></trkpt>
      <trkpt lat="32.06670" lon="-6.66999"></trkpt>
      <trkpt lat="32.06663" lon="-6.66974"></trkpt>
      <trkpt lat="32.06917" lon="-6.66974"></trkpt>
      <trkpt lat="32.06939" lon="-6.67051"></trkpt>
      <trkpt lat="32.06745" lon="-6.67465"></trkpt>
      <trkpt lat="32.06645" lon="-6.67473"></trkpt>
      <trkpt lat="32.06531" lon="-6.67561"></trkpt>
      <trkpt lat="32.06456" lon="-6.67540"></trkpt>
      <trkpt lat="32.06552" lon="-6.67593"></trkpt>
      <trkpt lat="32.06665" lon="-6.67529"></trkpt>
      <trkpt lat="32.06728" lon="-6.67584"></trkpt>
      <trkpt lat="32.06911" lon="-6.67575"></trkpt>
      <trkpt lat="32.07013" lon="-6.67542"></trkpt>
      <trkpt lat="32.07045" lon="-6.67484"></trkpt>
      <trkpt lat="32.07091" lon="-6.67460"></trkpt>
      <trkpt lat="32.07109" lon="-6.67492"></trkpt>
      <trkpt lat="32.07059" lon="-6.67564"></trkpt>
      <trkpt lat="32.06738" lon="-6.67713"></trkpt>
      <trkpt lat="32.06107" lon="-6.67820"></trkpt>
      <trkpt lat="32.06099" lon="-6.67897"></trkpt>
      <trkpt lat="32.06280" lon="-6.67847"></trkpt>
      <trkpt lat="32.06901" lon="-6.67806"></trkpt>
      <trkpt lat="32.07070" lon="-6.67745"></trkpt>
      <trkpt lat="32.07242" lon="-6.67744"></trkpt>
      <trkpt lat="32.07393" lon="-6.67973"></trkpt>
      <trkpt lat="32.07719" lon="-6.67960"></trkpt>
      <trkpt lat="32.07813" lon="-6.68005"></trkpt>
      <trkpt lat="32.07927" lon="-6.68119"></trkpt>
      <trkpt lat="32.08134" lon="-6.68207"></trkpt>
      <trkpt lat="32.08380" lon="-6.68640"></trkpt>
      <trkpt lat="32.08373" lon="-6.68689"></trkpt>
      <trkpt lat="32.08272" lon="-6.68813"></trkpt>
      <trkpt lat="32.08272" lon="-6.69061"></trkpt>
      <trkpt lat="32.08407" lon="-6.69386"></trkpt>
      <trkpt lat="32.08484" lon="-6.69487"></trkpt>
      <trkpt lat="32.08606" lon="-6.69744"></trkpt>
      <trkpt lat="32.08709" lon="-6.69877"></trkpt>
      <trkpt lat="32.08860" lon="-6.69988"></trkpt>
      <trkpt lat="32.08958" lon="-6.70105"></trkpt>
      <trkpt lat="32.09192" lon="-6.70427"></trkpt>
      <trkpt lat="32.09292" lon="-6.70652"></trkpt>
      <trkpt lat="32.09384" lon="-6.70789"></trkpt>
      <trkpt lat="32.09461" lon="-6.70843"></trkpt>
      <trkpt lat="32.09643" lon="-6.70853"></trkpt>
      <trkpt lat="32.09685" lon="-6.70874"></trkpt>
      <trkpt lat="32.09958" lon="-6.71269"></trkpt>
      <trkpt lat="32.10071" lon="-6.71312"></trkpt>
      <trkpt lat="32.10572" lon="-6.71206"></trkpt>
      <trkpt lat="32.10791" lon="-6.71094"></trkpt>
      <trkpt lat="32.11275" lon="-6.70924"></trkpt>
      <trkpt lat="32.11320" lon="-6.70856"></trkpt>
      <trkpt lat="32.11334" lon="-6.70771"></trkpt>
      <trkpt lat="32.11398" lon="-6.70856"></trkpt>
      <trkpt lat="32.11407" lon="-6.71035"></trkpt>
      <trkpt lat="32.11449" lon="-6.71131"></trkpt>
      <trkpt lat="32.11571" lon="-6.71060"></trkpt>
      <trkpt lat="32.11569" lon="-6.71180"></trkpt>
      <trkpt lat="32.11773" lon="-6.71292"></trkpt>
      <trkpt lat="32.12102" lon="-6.71370"></trkpt>
      <trkpt lat="32.12176" lon="-6.71355"></trkpt>
      <trkpt lat="32.12251" lon="-6.71294"></trkpt>
      <trkpt lat="32.12333" lon="-6.71332"></trkpt>
      <trkpt lat="32.12320" lon="-6.71453"></trkpt>
      <trkpt lat="32.12274" lon="-6.71577"></trkpt>
      <trkpt lat="32.12308" lon="-6.71975"></trkpt>
      <trkpt lat="32.12359" lon="-6.72193"></trkpt>
      <trkpt lat="32.12355" lon="-6.72296"></trkpt>
      <trkpt lat="32.12420" lon="-6.72334"></trkpt>
      <trkpt lat="32.12450" lon="-6.72438"></trkpt>
      <trkpt lat="32.12544" lon="-6.72596"></trkpt>
      <trkpt lat="32.12621" lon="-6.72616"></trkpt>
      <trkpt lat="32.12659" lon="-6.72737"></trkpt>
      <trkpt lat="32.12717" lon="-6.72776"></trkpt>
      <trkpt lat="32.12781" lon="-6.72749"></trkpt>
      <trkpt lat="32.12997" lon="-6.73032"></trkpt>
      <trkpt lat="32.13017" lon="-6.73131"></trkpt>
      <trkpt lat="32.12979" lon="-6.73405"></trkpt>
      <trkpt lat="32.13053" lon="-6.73638"></trkpt>
      <trkpt lat="32.13426" lon="-6.73986"></trkpt>
      <trkpt lat="32.13634" lon="-6.74021"></trkpt>
      <trkpt lat="32.13829" lon="-6.74140"></trkpt>
      <trkpt lat="32.13951" lon="-6.74384"></trkpt>
      <trkpt lat="32.13970" lon="-6.74560"></trkpt>
      <trkpt lat="32.13951" lon="-6.74860"></trkpt>
      <trkpt lat="32.14028" lon="-6.75167"></trkpt>
      <trkpt lat="32.14111" lon="-6.75219"></trkpt>
      <trkpt lat="32.14206" lon="-6.75229"></trkpt>
      <trkpt lat="32.14285" lon="-6.75208"></trkpt>
      <trkpt lat="32.14317" lon="-6.75176"></trkpt>
      <trkpt lat="32.14512" lon="-6.75114"></trkpt>
      <trkpt lat="32.14566" lon="-6.75070"></trkpt>
      <trkpt lat="32.14591" lon="-6.74991"></trkpt>
      <trkpt lat="32.14619" lon="-6.74989"></trkpt>
      <trkpt lat="32.14679" lon="-6.75337"></trkpt>
      <trkpt lat="32.14669" lon="-6.75464"></trkpt>
      <trkpt lat="32.14708" lon="-6.75539"></trkpt>
      <trkpt lat="32.14733" lon="-6.75873"></trkpt>
      <trkpt lat="32.14862" lon="-6.76044"></trkpt>
      <trkpt lat="32.15001" lon="-6.76075"></trkpt>
      <trkpt lat="32.14994" lon="-6.76098"></trkpt>
      <trkpt lat="32.14951" lon="-6.76109"></trkpt>
      <trkpt lat="32.14952" lon="-6.76140"></trkpt>
      <trkpt lat="32.15019" lon="-6.76205"></trkpt>
      <trkpt lat="32.15140" lon="-6.76416"></trkpt>
      <trkpt lat="32.15247" lon="-6.76695"></trkpt>
      <trkpt lat="32.15310" lon="-6.77007"></trkpt>
      <trkpt lat="32.15299" lon="-6.77240"></trkpt>
      <trkpt lat="32.15258" lon="-6.77348"></trkpt>
      <trkpt lat="32.15304" lon="-6.77495"></trkpt>
      <trkpt lat="32.15184" lon="-6.77577"></trkpt>
      <trkpt lat="32.15055" lon="-6.77573"></trkpt>
      <trkpt lat="32.15039" lon="-6.77590"></trkpt>
      <trkpt lat="32.15174" lon="-6.77695"></trkpt>
      <trkpt lat="32.15270" lon="-6.77725"></trkpt>
      <trkpt lat="32.15334" lon="-6.77803"></trkpt>
      <trkpt lat="32.15447" lon="-6.77786"></trkpt>
      <trkpt lat="32.15470" lon="-6.77821"></trkpt>
      <trkpt lat="32.15394" lon="-6.77954"></trkpt>
      <trkpt lat="32.15243" lon="-6.77964"></trkpt>
      <trkpt lat="32.15234" lon="-6.77991"></trkpt>
      <trkpt lat="32.15313" lon="-6.78067"></trkpt>
      <trkpt lat="32.15361" lon="-6.78056"></trkpt>
      <trkpt lat="32.15479" lon="-6.78079"></trkpt>
      <trkpt lat="32.15527" lon="-6.78117"></trkpt>
      <trkpt lat="32.15574" lon="-6.78113"></trkpt>
      <trkpt lat="32.15702" lon="-6.78031"></trkpt>
      <trkpt lat="32.15828" lon="-6.77852"></trkpt>
      <trkpt lat="32.15843" lon="-6.77761"></trkpt>
      <trkpt lat="32.15894" lon="-6.77717"></trkpt>
      <trkpt lat="32.15982" lon="-6.77694"></trkpt>
      <trkpt lat="32.16195" lon="-6.77712"></trkpt>
      <trkpt lat="32.16311" lon="-6.77761"></trkpt>
      <trkpt lat="32.16478" lon="-6.77762"></trkpt>
      <trkpt lat="32.16624" lon="-6.77847"></trkpt>
      <trkpt lat="32.16765" lon="-6.78006"></trkpt>
      <trkpt lat="32.16675" lon="-6.78155"></trkpt>
      <trkpt lat="32.16672" lon="-6.78285"></trkpt>
      <trkpt lat="32.16708" lon="-6.78468"></trkpt>
      <trkpt lat="32.16767" lon="-6.78618"></trkpt>
      <trkpt lat="32.16897" lon="-6.78757"></trkpt>
      <trkpt lat="32.16997" lon="-6.78824"></trkpt>
      <trkpt lat="32.17109" lon="-6.78854"></trkpt>
      <trkpt lat="32.17419" lon="-6.79143"></trkpt>
      <trkpt lat="32.17562" lon="-6.79189"></trkpt>
      <trkpt lat="32.17688" lon="-6.79410"></trkpt>
      <trkpt lat="32.17814" lon="-6.79271"></trkpt>
      <trkpt lat="32.17928" lon="-6.79216"></trkpt>
      <trkpt lat="32.17960" lon="-6.79145"></trkpt>
      <trkpt lat="32.18031" lon="-6.79136"></trkpt>
      <trkpt lat="32.18092" lon="-6.79313"></trkpt>
      <trkpt lat="32.17919" lon="-6.79488"></trkpt>
      <trkpt lat="32.17897" lon="-6.79557"></trkpt>
      <trkpt lat="32.17911" lon="-6.79659"></trkpt>
      <trkpt lat="32.18032" lon="-6.79881"></trkpt>
      <trkpt lat="32.18146" lon="-6.79977"></trkpt>
      <trkpt lat="32.18215" lon="-6.80137"></trkpt>
      <trkpt lat="32.18238" lon="-6.80408"></trkpt>
      <trkpt lat="32.18269" lon="-6.80438"></trkpt>
      <trkpt lat="32.18371" lon="-6.80424"></trkpt>
      <trkpt lat="32.18336" lon="-6.80487"></trkpt>
      <trkpt lat="32.18388" lon="-6.80574"></trkpt>
      <trkpt lat="32.18405" lon="-6.80567"></trkpt>
      <trkpt lat="32.18377" lon="-6.80527"></trkpt>
      <trkpt lat="32.18387" lon="-6.80495"></trkpt>
      <trkpt lat="32.18513" lon="-6.80450"></trkpt>
      <trkpt lat="32.18586" lon="-6.80395"></trkpt>
      <trkpt lat="32.18756" lon="-6.80456"></trkpt>
      <trkpt lat="32.18924" lon="-6.80422"></trkpt>
      <trkpt lat="32.18765" lon="-6.80557"></trkpt>
      <trkpt lat="32.18754" lon="-6.80591"></trkpt>
      <trkpt lat="32.18775" lon="-6.80613"></trkpt>
      <trkpt lat="32.19170" lon="-6.80469"></trkpt>
      <trkpt lat="32.19465" lon="-6.80412"></trkpt>
      <trkpt lat="32.20547" lon="-6.80745"></trkpt>
      <trkpt lat="32.20575" lon="-6.80717"></trkpt>
      <trkpt lat="32.20928" lon="-6.81042"></trkpt>
      <trkpt lat="32.21026" lon="-6.81074"></trkpt>
      <trkpt lat="32.21098" lon="-6.81051"></trkpt>
      <trkpt lat="32.21128" lon="-6.81017"></trkpt>
      <trkpt lat="32.21348" lon="-6.79902"></trkpt>
      <trkpt lat="32.22791" lon="-6.72314"></trkpt>
      <trkpt lat="32.25638" lon="-6.56730"></trkpt>
      <trkpt lat="32.26087" lon="-6.54739"></trkpt>
      <trkpt lat="32.25855" lon="-6.54648"></trkpt>
      <trkpt lat="32.21316" lon="-6.53222"></trkpt>
      <trkpt lat="32.21223" lon="-6.53198"></trkpt>
      <trkpt lat="32.21117" lon="-6.53204"></trkpt>
      <trkpt lat="32.21038" lon="-6.53244"></trkpt>
      <trkpt lat="32.20967" lon="-6.53319"></trkpt>
      <trkpt lat="32.20926" lon="-6.53260"></trkpt>
      <trkpt lat="32.20866" lon="-6.53054"></trkpt>
      <trkpt lat="32.20886" lon="-6.52802"></trkpt>
      <trkpt lat="32.20984" lon="-6.52601"></trkpt>
      <trkpt lat="32.21000" lon="-6.52423"></trkpt>
      <trkpt lat="32.21133" lon="-6.52165"></trkpt>
      <trkpt lat="32.21263" lon="-6.51582"></trkpt>
      <trkpt lat="32.21236" lon="-6.51360"></trkpt>
      <trkpt lat="32.21269" lon="-6.50949"></trkpt>
      <trkpt lat="32.21193" lon="-6.50894"></trkpt>
      <trkpt lat="32.21060" lon="-6.50586"></trkpt>
      <trkpt lat="32.21026" lon="-6.50448"></trkpt>
      <trkpt lat="32.21012" lon="-6.50232"></trkpt>
      <trkpt lat="32.21202" lon="-6.50019"></trkpt>
      <trkpt lat="32.21518" lon="-6.49766"></trkpt>
      <trkpt lat="32.21630" lon="-6.49635"></trkpt>
      <trkpt lat="32.21838" lon="-6.49462"></trkpt>
      <trkpt lat="32.21922" lon="-6.49303"></trkpt>
      <trkpt lat="32.21471" lon="-6.48889"></trkpt>
      <trkpt lat="32.21182" lon="-6.48700"></trkpt>
      <trkpt lat="32.21032" lon="-6.48643"></trkpt>
      <trkpt lat="32.20977" lon="-6.47947"></trkpt>
      <trkpt lat="32.20742" lon="-6.47169"></trkpt>
      <trkpt lat="32.20842" lon="-6.47011"></trkpt>
      <trkpt lat="32.20900" lon="-6.46639"></trkpt>
      <trkpt lat="32.20898" lon="-6.46604"></trkpt>
      <trkpt lat="32.20864" lon="-6.46603"></trkpt>
      <trkpt lat="32.20832" lon="-6.46340"></trkpt>
      <trkpt lat="32.21109" lon="-6.46118"></trkpt>
      <trkpt lat="32.21313" lon="-6.46042"></trkpt>
      <trkpt lat="32.21412" lon="-6.46061"></trkpt>
      <trkpt lat="32.22220" lon="-6.46037"></trkpt>
      <trkpt lat="32.23037" lon="-6.46180"></trkpt>
      <trkpt lat="32.25138" lon="-6.45941"></trkpt>
      <trkpt lat="32.26738" lon="-6.45670"></trkpt>
      <trkpt lat="32.27045" lon="-6.45730"></trkpt>
      <trkpt lat="32.27605" lon="-6.45535"></trkpt>
      <trkpt lat="32.28122" lon="-6.45632"></trkpt>
      <trkpt lat="32.28199" lon="-6.45169"></trkpt>
      <trkpt lat="32.28748" lon="-6.43987"></trkpt>
      <trkpt lat="32.29525" lon="-6.42469"></trkpt>
      <trkpt lat="32.30827" lon="-6.40379"></trkpt>
      <trkpt lat="32.33032" lon="-6.36920"></trkpt>
      <trkpt lat="32.33456" lon="-6.35701"></trkpt>
      <trkpt lat="32.33576" lon="-6.35631"></trkpt>
      <trkpt lat="32.33661" lon="-6.35434"></trkpt>
      <trkpt lat="32.33747" lon="-6.35141"></trkpt>
      <trkpt lat="32.33734" lon="-6.34981"></trkpt>
    </trkseg>
  </trk>
</gpx>
