<?xml version="1.0" encoding="UTF-8"?>
<gpx version="1.1" creator="Marokko Motorreis 2026"
     xmlns="http://www.topografix.com/GPX/1/1"
     xmlns:xsi="http://www.w3.org/2001/XMLSchema-instance"
     xsi:schemaLocation="http://www.topografix.com/GPX/1/1 http://www.topografix.com/GPX/1/1/gpx.xsd">
  <metadata><name>Dag 2 (13 okt) Guercif - Midelt (N15)</name><desc>262 km, ca. 4u14 rijden. Favoriete weg N15: vloeiend, rustig, klimmend berglandschap.</desc></metadata>
  <wpt lat="34.227190" lon="-3.353116"><name>Guercif</name><sym>Flag, Blue</sym></wpt>
  <wpt lat="33.340957" lon="-3.688991"><name>Outat El Haj (N15)</name><sym>Flag, Blue</sym></wpt>
  <wpt lat="33.047297" lon="-3.989184"><name>Missour</name><sym>Flag, Blue</sym></wpt>
  <wpt lat="32.680360" lon="-4.744051"><name>Midelt - Moonrise Villa VIP</name><sym>Flag, Blue</sym></wpt>
  <trk>
    <name>Dag 2 (13 okt) Guercif - Midelt (N15)</name>
    <desc>262 km, ca. 4u14 rijden. Favoriete weg N15: vloeiend, rustig, klimmend berglandschap.</desc>
    <trkseg>
      <trkpt lat="34.22719" lon="-3.35312"></trkpt>
      <trkpt lat="34.22739" lon="-3.35267"></trkpt>
      <trkpt lat="34.22666" lon="-3.35187"></trkpt>
      <trkpt lat="34.22612" lon="-3.35165"></trkpt>
      <trkpt lat="34.22652" lon="-3.34986"></trkpt>
      <trkpt lat="34.23098" lon="-3.34094"></trkpt>
      <trkpt lat="34.23939" lon="-3.32574"></trkpt>
      <trkpt lat="34.24130" lon="-3.32372"></trkpt>
      <trkpt lat="34.24184" lon="-3.32255"></trkpt>
      <trkpt lat="34.24184" lon="-3.31903"></trkpt>
      <trkpt lat="34.24153" lon="-3.31755"></trkpt>
      <trkpt lat="34.24076" lon="-3.31589"></trkpt>
      <trkpt lat="34.23906" lon="-3.31348"></trkpt>
      <trkpt lat="34.23874" lon="-3.31259"></trkpt>
      <trkpt lat="34.23888" lon="-3.30721"></trkpt>
      <trkpt lat="34.21595" lon="-3.27456"></trkpt>
      <trkpt lat="34.21388" lon="-3.27125"></trkpt>
      <trkpt lat="34.21050" lon="-3.26479"></trkpt>
      <trkpt lat="34.20770" lon="-3.26110"></trkpt>
      <trkpt lat="34.20422" lon="-3.25775"></trkpt>
      <trkpt lat="34.20110" lon="-3.25560"></trkpt>
      <trkpt lat="34.19733" lon="-3.25363"></trkpt>
      <trkpt lat="34.19240" lon="-3.25157"></trkpt>
      <trkpt lat="34.18997" lon="-3.25004"></trkpt>
      <trkpt lat="34.18736" lon="-3.24795"></trkpt>
      <trkpt lat="34.18410" lon="-3.24440"></trkpt>
      <trkpt lat="34.17790" lon="-3.23576"></trkpt>
      <trkpt lat="34.17371" lon="-3.23200"></trkpt>
      <trkpt lat="34.17200" lon="-3.23109"></trkpt>
      <trkpt lat="34.17079" lon="-3.23075"></trkpt>
      <trkpt lat="34.16017" lon="-3.22957"></trkpt>
      <trkpt lat="34.15702" lon="-3.22884"></trkpt>
      <trkpt lat="34.14410" lon="-3.22857"></trkpt>
      <trkpt lat="34.13739" lon="-3.22903"></trkpt>
      <trkpt lat="34.13435" lon="-3.22845"></trkpt>
      <trkpt lat="34.13275" lon="-3.22840"></trkpt>
      <trkpt lat="34.05120" lon="-3.23327"></trkpt>
      <trkpt lat="34.04856" lon="-3.23366"></trkpt>
      <trkpt lat="34.04500" lon="-3.23471"></trkpt>
      <trkpt lat="34.04020" lon="-3.23714"></trkpt>
      <trkpt lat="34.03668" lon="-3.23994"></trkpt>
      <trkpt lat="34.00932" lon="-3.26773"></trkpt>
      <trkpt lat="34.00742" lon="-3.26869"></trkpt>
      <trkpt lat="34.00236" lon="-3.26975"></trkpt>
      <trkpt lat="34.00133" lon="-3.27025"></trkpt>
      <trkpt lat="33.99925" lon="-3.27192"></trkpt>
      <trkpt lat="33.98295" lon="-3.29404"></trkpt>
      <trkpt lat="33.98225" lon="-3.29639"></trkpt>
      <trkpt lat="33.98223" lon="-3.30137"></trkpt>
      <trkpt lat="33.98122" lon="-3.30376"></trkpt>
      <trkpt lat="33.97095" lon="-3.31457"></trkpt>
      <trkpt lat="33.91266" lon="-3.38373"></trkpt>
      <trkpt lat="33.91110" lon="-3.38522"></trkpt>
      <trkpt lat="33.90051" lon="-3.39391"></trkpt>
      <trkpt lat="33.87656" lon="-3.41065"></trkpt>
      <trkpt lat="33.87494" lon="-3.41288"></trkpt>
      <trkpt lat="33.87199" lon="-3.41365"></trkpt>
      <trkpt lat="33.86895" lon="-3.41350"></trkpt>
      <trkpt lat="33.86775" lon="-3.41484"></trkpt>
      <trkpt lat="33.86182" lon="-3.41799"></trkpt>
      <trkpt lat="33.85932" lon="-3.42121"></trkpt>
      <trkpt lat="33.84993" lon="-3.43621"></trkpt>
      <trkpt lat="33.84486" lon="-3.44220"></trkpt>
      <trkpt lat="33.84348" lon="-3.44287"></trkpt>
      <trkpt lat="33.82695" lon="-3.44755"></trkpt>
      <trkpt lat="33.81408" lon="-3.45443"></trkpt>
      <trkpt lat="33.79742" lon="-3.47228"></trkpt>
      <trkpt lat="33.79661" lon="-3.47248"></trkpt>
      <trkpt lat="33.79576" lon="-3.47211"></trkpt>
      <trkpt lat="33.79395" lon="-3.46939"></trkpt>
      <trkpt lat="33.79279" lon="-3.46909"></trkpt>
      <trkpt lat="33.79162" lon="-3.46945"></trkpt>
      <trkpt lat="33.78972" lon="-3.47184"></trkpt>
      <trkpt lat="33.78881" lon="-3.47256"></trkpt>
      <trkpt lat="33.77650" lon="-3.47951"></trkpt>
      <trkpt lat="33.75565" lon="-3.49641"></trkpt>
      <trkpt lat="33.74803" lon="-3.49869"></trkpt>
      <trkpt lat="33.74710" lon="-3.49915"></trkpt>
      <trkpt lat="33.73858" lon="-3.50996"></trkpt>
      <trkpt lat="33.73751" lon="-3.51052"></trkpt>
      <trkpt lat="33.73070" lon="-3.51228"></trkpt>
      <trkpt lat="33.72960" lon="-3.51281"></trkpt>
      <trkpt lat="33.71693" lon="-3.52512"></trkpt>
      <trkpt lat="33.71030" lon="-3.52865"></trkpt>
      <trkpt lat="33.70902" lon="-3.52897"></trkpt>
      <trkpt lat="33.70161" lon="-3.52790"></trkpt>
      <trkpt lat="33.68596" lon="-3.52854"></trkpt>
      <trkpt lat="33.68466" lon="-3.52920"></trkpt>
      <trkpt lat="33.67903" lon="-3.53553"></trkpt>
      <trkpt lat="33.67709" lon="-3.53669"></trkpt>
      <trkpt lat="33.66400" lon="-3.53938"></trkpt>
      <trkpt lat="33.65689" lon="-3.53929"></trkpt>
      <trkpt lat="33.64436" lon="-3.54103"></trkpt>
      <trkpt lat="33.63815" lon="-3.54318"></trkpt>
      <trkpt lat="33.61946" lon="-3.54600"></trkpt>
      <trkpt lat="33.61826" lon="-3.54669"></trkpt>
      <trkpt lat="33.60862" lon="-3.55548"></trkpt>
      <trkpt lat="33.60607" lon="-3.55705"></trkpt>
      <trkpt lat="33.59897" lon="-3.56045"></trkpt>
      <trkpt lat="33.59488" lon="-3.56128"></trkpt>
      <trkpt lat="33.57825" lon="-3.56996"></trkpt>
      <trkpt lat="33.57681" lon="-3.57006"></trkpt>
      <trkpt lat="33.57506" lon="-3.56907"></trkpt>
      <trkpt lat="33.57401" lon="-3.56886"></trkpt>
      <trkpt lat="33.57124" lon="-3.56985"></trkpt>
      <trkpt lat="33.57002" lon="-3.57121"></trkpt>
      <trkpt lat="33.56684" lon="-3.57760"></trkpt>
      <trkpt lat="33.56195" lon="-3.58195"></trkpt>
      <trkpt lat="33.55426" lon="-3.59243"></trkpt>
      <trkpt lat="33.55337" lon="-3.59310"></trkpt>
      <trkpt lat="33.53837" lon="-3.59809"></trkpt>
      <trkpt lat="33.53054" lon="-3.60132"></trkpt>
      <trkpt lat="33.52239" lon="-3.60076"></trkpt>
      <trkpt lat="33.50888" lon="-3.60183"></trkpt>
      <trkpt lat="33.50456" lon="-3.60163"></trkpt>
      <trkpt lat="33.50091" lon="-3.60247"></trkpt>
      <trkpt lat="33.49973" lon="-3.60320"></trkpt>
      <trkpt lat="33.49861" lon="-3.60483"></trkpt>
      <trkpt lat="33.49817" lon="-3.60606"></trkpt>
      <trkpt lat="33.49806" lon="-3.60938"></trkpt>
      <trkpt lat="33.49778" lon="-3.61053"></trkpt>
      <trkpt lat="33.49564" lon="-3.61405"></trkpt>
      <trkpt lat="33.49439" lon="-3.61509"></trkpt>
      <trkpt lat="33.48214" lon="-3.61556"></trkpt>
      <trkpt lat="33.47371" lon="-3.62013"></trkpt>
      <trkpt lat="33.43274" lon="-3.63188"></trkpt>
      <trkpt lat="33.39474" lon="-3.65079"></trkpt>
      <trkpt lat="33.39311" lon="-3.65103"></trkpt>
      <trkpt lat="33.39181" lon="-3.65080"></trkpt>
      <trkpt lat="33.38842" lon="-3.64868"></trkpt>
      <trkpt lat="33.38750" lon="-3.64837"></trkpt>
      <trkpt lat="33.37460" lon="-3.64811"></trkpt>
      <trkpt lat="33.35925" lon="-3.65654"></trkpt>
      <trkpt lat="33.33986" lon="-3.68737"></trkpt>
      <trkpt lat="33.34127" lon="-3.68874"></trkpt>
      <trkpt lat="33.34007" lon="-3.68982"></trkpt>
      <trkpt lat="33.33894" lon="-3.68883"></trkpt>
      <trkpt lat="33.33724" lon="-3.69155"></trkpt>
      <trkpt lat="33.33677" lon="-3.69280"></trkpt>
      <trkpt lat="33.33540" lon="-3.70138"></trkpt>
      <trkpt lat="33.33411" lon="-3.70205"></trkpt>
      <trkpt lat="33.33122" lon="-3.70215"></trkpt>
      <trkpt lat="33.33036" lon="-3.70314"></trkpt>
      <trkpt lat="33.32983" lon="-3.70540"></trkpt>
      <trkpt lat="33.33078" lon="-3.71655"></trkpt>
      <trkpt lat="33.33065" lon="-3.71998"></trkpt>
      <trkpt lat="33.33184" lon="-3.72803"></trkpt>
      <trkpt lat="33.33217" lon="-3.73336"></trkpt>
      <trkpt lat="33.33171" lon="-3.73486"></trkpt>
      <trkpt lat="33.32854" lon="-3.73832"></trkpt>
      <trkpt lat="33.24352" lon="-3.82708"></trkpt>
      <trkpt lat="33.24264" lon="-3.82757"></trkpt>
      <trkpt lat="33.24193" lon="-3.82765"></trkpt>
      <trkpt lat="33.23072" lon="-3.82649"></trkpt>
      <trkpt lat="33.21745" lon="-3.83584"></trkpt>
      <trkpt lat="33.21665" lon="-3.83667"></trkpt>
      <trkpt lat="33.19613" lon="-3.87018"></trkpt>
      <trkpt lat="33.18903" lon="-3.87616"></trkpt>
      <trkpt lat="33.18135" lon="-3.87904"></trkpt>
      <trkpt lat="33.16623" lon="-3.89043"></trkpt>
      <trkpt lat="33.15863" lon="-3.89406"></trkpt>
      <trkpt lat="33.13471" lon="-3.91531"></trkpt>
      <trkpt lat="33.13374" lon="-3.91668"></trkpt>
      <trkpt lat="33.13077" lon="-3.92243"></trkpt>
      <trkpt lat="33.12803" lon="-3.92874"></trkpt>
      <trkpt lat="33.12226" lon="-3.93681"></trkpt>
      <trkpt lat="33.11886" lon="-3.93979"></trkpt>
      <trkpt lat="33.11488" lon="-3.94974"></trkpt>
      <trkpt lat="33.10965" lon="-3.95660"></trkpt>
      <trkpt lat="33.10032" lon="-3.96388"></trkpt>
      <trkpt lat="33.09329" lon="-3.96590"></trkpt>
      <trkpt lat="33.08872" lon="-3.96666"></trkpt>
      <trkpt lat="33.08787" lon="-3.96705"></trkpt>
      <trkpt lat="33.08553" lon="-3.96886"></trkpt>
      <trkpt lat="33.08264" lon="-3.97252"></trkpt>
      <trkpt lat="33.07790" lon="-3.97936"></trkpt>
      <trkpt lat="33.07415" lon="-3.98188"></trkpt>
      <trkpt lat="33.06966" lon="-3.98388"></trkpt>
      <trkpt lat="33.06268" lon="-3.98930"></trkpt>
      <trkpt lat="33.05735" lon="-3.99077"></trkpt>
      <trkpt lat="33.05665" lon="-3.99078"></trkpt>
      <trkpt lat="33.05498" lon="-3.98848"></trkpt>
      <trkpt lat="33.05165" lon="-3.98569"></trkpt>
      <trkpt lat="33.05019" lon="-3.98573"></trkpt>
      <trkpt lat="33.04898" lon="-3.98481"></trkpt>
      <trkpt lat="33.04709" lon="-3.98522"></trkpt>
      <trkpt lat="33.04688" lon="-3.98595"></trkpt>
      <trkpt lat="33.04758" lon="-3.98783"></trkpt>
      <trkpt lat="33.04755" lon="-3.98851"></trkpt>
      <trkpt lat="33.04430" lon="-3.99622"></trkpt>
      <trkpt lat="33.04202" lon="-4.00635"></trkpt>
      <trkpt lat="33.04249" lon="-4.01088"></trkpt>
      <trkpt lat="33.04232" lon="-4.01285"></trkpt>
      <trkpt lat="33.04250" lon="-4.01567"></trkpt>
      <trkpt lat="33.04165" lon="-4.02043"></trkpt>
      <trkpt lat="33.04223" lon="-4.02616"></trkpt>
      <trkpt lat="33.04135" lon="-4.03273"></trkpt>
      <trkpt lat="33.04205" lon="-4.03778"></trkpt>
      <trkpt lat="33.04167" lon="-4.04129"></trkpt>
      <trkpt lat="33.04046" lon="-4.04626"></trkpt>
      <trkpt lat="33.04135" lon="-4.05148"></trkpt>
      <trkpt lat="33.04118" lon="-4.05213"></trkpt>
      <trkpt lat="33.04057" lon="-4.05291"></trkpt>
      <trkpt lat="33.03717" lon="-4.05360"></trkpt>
      <trkpt lat="33.03661" lon="-4.05402"></trkpt>
      <trkpt lat="33.03614" lon="-4.05493"></trkpt>
      <trkpt lat="33.03608" lon="-4.05600"></trkpt>
      <trkpt lat="33.03684" lon="-4.06128"></trkpt>
      <trkpt lat="33.03616" lon="-4.06640"></trkpt>
      <trkpt lat="33.03435" lon="-4.07489"></trkpt>
      <trkpt lat="33.03423" lon="-4.07709"></trkpt>
      <trkpt lat="33.03268" lon="-4.07812"></trkpt>
      <trkpt lat="33.02585" lon="-4.08438"></trkpt>
      <trkpt lat="33.01327" lon="-4.10267"></trkpt>
      <trkpt lat="33.00861" lon="-4.10722"></trkpt>
      <trkpt lat="33.00415" lon="-4.11505"></trkpt>
      <trkpt lat="32.99858" lon="-4.12692"></trkpt>
      <trkpt lat="32.99092" lon="-4.13651"></trkpt>
      <trkpt lat="32.98944" lon="-4.13990"></trkpt>
      <trkpt lat="32.98802" lon="-4.14203"></trkpt>
      <trkpt lat="32.98691" lon="-4.14281"></trkpt>
      <trkpt lat="32.98447" lon="-4.14305"></trkpt>
      <trkpt lat="32.98153" lon="-4.14420"></trkpt>
      <trkpt lat="32.97635" lon="-4.15066"></trkpt>
      <trkpt lat="32.97313" lon="-4.15418"></trkpt>
      <trkpt lat="32.97001" lon="-4.16092"></trkpt>
      <trkpt lat="32.96613" lon="-4.16502"></trkpt>
      <trkpt lat="32.96496" lon="-4.16797"></trkpt>
      <trkpt lat="32.96278" lon="-4.17042"></trkpt>
      <trkpt lat="32.96209" lon="-4.17307"></trkpt>
      <trkpt lat="32.95917" lon="-4.18141"></trkpt>
      <trkpt lat="32.95743" lon="-4.18569"></trkpt>
      <trkpt lat="32.95660" lon="-4.18711"></trkpt>
      <trkpt lat="32.95247" lon="-4.19310"></trkpt>
      <trkpt lat="32.94450" lon="-4.20086"></trkpt>
      <trkpt lat="32.93581" lon="-4.21233"></trkpt>
      <trkpt lat="32.92467" lon="-4.21945"></trkpt>
      <trkpt lat="32.91684" lon="-4.22264"></trkpt>
      <trkpt lat="32.91229" lon="-4.22600"></trkpt>
      <trkpt lat="32.89996" lon="-4.23111"></trkpt>
      <trkpt lat="32.89703" lon="-4.23411"></trkpt>
      <trkpt lat="32.89582" lon="-4.23714"></trkpt>
      <trkpt lat="32.89243" lon="-4.24071"></trkpt>
      <trkpt lat="32.88887" lon="-4.24253"></trkpt>
      <trkpt lat="32.88769" lon="-4.24269"></trkpt>
      <trkpt lat="32.88489" lon="-4.24238"></trkpt>
      <trkpt lat="32.88311" lon="-4.24090"></trkpt>
      <trkpt lat="32.88043" lon="-4.24051"></trkpt>
      <trkpt lat="32.87750" lon="-4.23906"></trkpt>
      <trkpt lat="32.87690" lon="-4.23908"></trkpt>
      <trkpt lat="32.87619" lon="-4.23958"></trkpt>
      <trkpt lat="32.87582" lon="-4.24090"></trkpt>
      <trkpt lat="32.87614" lon="-4.24538"></trkpt>
      <trkpt lat="32.87328" lon="-4.25335"></trkpt>
      <trkpt lat="32.87018" lon="-4.25834"></trkpt>
      <trkpt lat="32.86792" lon="-4.26135"></trkpt>
      <trkpt lat="32.86615" lon="-4.26655"></trkpt>
      <trkpt lat="32.86189" lon="-4.27332"></trkpt>
      <trkpt lat="32.85934" lon="-4.27594"></trkpt>
      <trkpt lat="32.85712" lon="-4.28106"></trkpt>
      <trkpt lat="32.85542" lon="-4.28340"></trkpt>
      <trkpt lat="32.85393" lon="-4.28811"></trkpt>
      <trkpt lat="32.85266" lon="-4.28932"></trkpt>
      <trkpt lat="32.84006" lon="-4.31071"></trkpt>
      <trkpt lat="32.83921" lon="-4.31531"></trkpt>
      <trkpt lat="32.83575" lon="-4.32137"></trkpt>
      <trkpt lat="32.83580" lon="-4.32228"></trkpt>
      <trkpt lat="32.83668" lon="-4.32420"></trkpt>
      <trkpt lat="32.83645" lon="-4.32611"></trkpt>
      <trkpt lat="32.83412" lon="-4.32912"></trkpt>
      <trkpt lat="32.83214" lon="-4.33322"></trkpt>
      <trkpt lat="32.83072" lon="-4.33486"></trkpt>
      <trkpt lat="32.82918" lon="-4.33873"></trkpt>
      <trkpt lat="32.82622" lon="-4.34185"></trkpt>
      <trkpt lat="32.82511" lon="-4.34779"></trkpt>
      <trkpt lat="32.82472" lon="-4.34879"></trkpt>
      <trkpt lat="32.82417" lon="-4.34945"></trkpt>
      <trkpt lat="32.81967" lon="-4.35302"></trkpt>
      <trkpt lat="32.81589" lon="-4.35963"></trkpt>
      <trkpt lat="32.81100" lon="-4.36524"></trkpt>
      <trkpt lat="32.80971" lon="-4.36623"></trkpt>
      <trkpt lat="32.80698" lon="-4.36686"></trkpt>
      <trkpt lat="32.80622" lon="-4.36749"></trkpt>
      <trkpt lat="32.80569" lon="-4.36839"></trkpt>
      <trkpt lat="32.80544" lon="-4.36952"></trkpt>
      <trkpt lat="32.80536" lon="-4.37291"></trkpt>
      <trkpt lat="32.80560" lon="-4.37451"></trkpt>
      <trkpt lat="32.81273" lon="-4.38954"></trkpt>
      <trkpt lat="32.81655" lon="-4.39692"></trkpt>
      <trkpt lat="32.81769" lon="-4.40101"></trkpt>
      <trkpt lat="32.81799" lon="-4.40329"></trkpt>
      <trkpt lat="32.81778" lon="-4.40541"></trkpt>
      <trkpt lat="32.81688" lon="-4.40775"></trkpt>
      <trkpt lat="32.81560" lon="-4.40946"></trkpt>
      <trkpt lat="32.79537" lon="-4.42768"></trkpt>
      <trkpt lat="32.78639" lon="-4.43634"></trkpt>
      <trkpt lat="32.77225" lon="-4.44530"></trkpt>
      <trkpt lat="32.76546" lon="-4.45253"></trkpt>
      <trkpt lat="32.75852" lon="-4.45886"></trkpt>
      <trkpt lat="32.74927" lon="-4.46835"></trkpt>
      <trkpt lat="32.73354" lon="-4.47920"></trkpt>
      <trkpt lat="32.73188" lon="-4.48070"></trkpt>
      <trkpt lat="32.72525" lon="-4.49130"></trkpt>
      <trkpt lat="32.72148" lon="-4.49619"></trkpt>
      <trkpt lat="32.71796" lon="-4.50036"></trkpt>
      <trkpt lat="32.71179" lon="-4.50582"></trkpt>
      <trkpt lat="32.70905" lon="-4.50953"></trkpt>
      <trkpt lat="32.70543" lon="-4.51745"></trkpt>
      <trkpt lat="32.69772" lon="-4.53706"></trkpt>
      <trkpt lat="32.69722" lon="-4.53884"></trkpt>
      <trkpt lat="32.69358" lon="-4.56034"></trkpt>
      <trkpt lat="32.69256" lon="-4.56426"></trkpt>
      <trkpt lat="32.68593" lon="-4.58047"></trkpt>
      <trkpt lat="32.68006" lon="-4.59334"></trkpt>
      <trkpt lat="32.67898" lon="-4.59698"></trkpt>
      <trkpt lat="32.67579" lon="-4.61116"></trkpt>
      <trkpt lat="32.66824" lon="-4.62782"></trkpt>
      <trkpt lat="32.67702" lon="-4.64705"></trkpt>
      <trkpt lat="32.67862" lon="-4.65216"></trkpt>
      <trkpt lat="32.67924" lon="-4.65733"></trkpt>
      <trkpt lat="32.67918" lon="-4.67129"></trkpt>
      <trkpt lat="32.68071" lon="-4.68055"></trkpt>
      <trkpt lat="32.68339" lon="-4.69224"></trkpt>
      <trkpt lat="32.68293" lon="-4.69767"></trkpt>
      <trkpt lat="32.68299" lon="-4.70154"></trkpt>
      <trkpt lat="32.68325" lon="-4.70209"></trkpt>
      <trkpt lat="32.68303" lon="-4.70258"></trkpt>
      <trkpt lat="32.68315" lon="-4.70747"></trkpt>
      <trkpt lat="32.68117" lon="-4.71587"></trkpt>
      <trkpt lat="32.68102" lon="-4.71990"></trkpt>
      <trkpt lat="32.68029" lon="-4.72466"></trkpt>
      <trkpt lat="32.67861" lon="-4.73145"></trkpt>
      <trkpt lat="32.67869" lon="-4.73240"></trkpt>
      <trkpt lat="32.67966" lon="-4.73470"></trkpt>
      <trkpt lat="32.67969" lon="-4.73619"></trkpt>
      <trkpt lat="32.67918" lon="-4.73902"></trkpt>
      <trkpt lat="32.67944" lon="-4.74048"></trkpt>
      <trkpt lat="32.67995" lon="-4.74077"></trkpt>
      <trkpt lat="32.67983" lon="-4.74125"></trkpt>
      <trkpt lat="32.68051" lon="-4.74254"></trkpt>
      <trkpt lat="32.68018" lon="-4.74355"></trkpt>
      <trkpt lat="32.68036" lon="-4.74405"></trkpt>
    </trkseg>
  </trk>
</gpx>
