<?xml version="1.0" encoding="UTF-8"?>
<gpx version="1.1" creator="Marokko Motorreis 2026"
     xmlns="http://www.topografix.com/GPX/1/1"
     xmlns:xsi="http://www.w3.org/2001/XMLSchema-instance"
     xsi:schemaLocation="http://www.topografix.com/GPX/1/1 http://www.topografix.com/GPX/1/1/gpx.xsd">
  <metadata><name>Dag 3 (14 okt) Midelt - Ifrane - Azrou - Midelt</name><desc>289 km, ca. 5u37 rijden. Lus zonder bagage. Cederbos, berbermakaken, Ifrane. Terug naar Midelt.</desc></metadata>
  <wpt lat="32.680360" lon="-4.744051"><name>Midelt</name><sym>Flag, Blue</sym></wpt>
  <wpt lat="33.235013" lon="-5.060033"><name>Timahdite (N13)</name><sym>Flag, Blue</sym></wpt>
  <wpt lat="33.522763" lon="-5.110529"><name>Ifrane</name><sym>Flag, Blue</sym></wpt>
  <wpt lat="33.407935" lon="-5.233286"><name>Cederbos Cedre Gouraud</name><sym>Flag, Blue</sym></wpt>
  <wpt lat="33.434065" lon="-5.221366"><name>Azrou (lunch)</name><sym>Flag, Blue</sym></wpt>
  <wpt lat="32.680360" lon="-4.744051"><name>Midelt - Moonrise Villa VIP</name><sym>Flag, Blue</sym></wpt>
  <trk>
    <name>Dag 3 (14 okt) Midelt - Ifrane - Azrou - Midelt</name>
    <desc>289 km, ca. 5u37 rijden. Lus zonder bagage. Cederbos, berbermakaken, Ifrane. Terug naar Midelt.</desc>
    <trkseg>
      <trkpt lat="32.68036" lon="-4.74405"></trkpt>
      <trkpt lat="32.68017" lon="-4.74373"></trkpt>
      <trkpt lat="32.68028" lon="-4.74333"></trkpt>
      <trkpt lat="32.68082" lon="-4.74311"></trkpt>
      <trkpt lat="32.68235" lon="-4.74325"></trkpt>
      <trkpt lat="32.68324" lon="-4.74309"></trkpt>
      <trkpt lat="32.68348" lon="-4.74284"></trkpt>
      <trkpt lat="32.68624" lon="-4.74403"></trkpt>
      <trkpt lat="32.69305" lon="-4.75189"></trkpt>
      <trkpt lat="32.69478" lon="-4.75307"></trkpt>
      <trkpt lat="32.69681" lon="-4.75346"></trkpt>
      <trkpt lat="32.69820" lon="-4.75427"></trkpt>
      <trkpt lat="32.69893" lon="-4.75523"></trkpt>
      <trkpt lat="32.70016" lon="-4.75791"></trkpt>
      <trkpt lat="32.70054" lon="-4.75824"></trkpt>
      <trkpt lat="32.70108" lon="-4.76052"></trkpt>
      <trkpt lat="32.70069" lon="-4.76468"></trkpt>
      <trkpt lat="32.70238" lon="-4.77336"></trkpt>
      <trkpt lat="32.70573" lon="-4.77936"></trkpt>
      <trkpt lat="32.70653" lon="-4.79656"></trkpt>
      <trkpt lat="32.70460" lon="-4.80490"></trkpt>
      <trkpt lat="32.69928" lon="-4.81204"></trkpt>
      <trkpt lat="32.69874" lon="-4.81332"></trkpt>
      <trkpt lat="32.69745" lon="-4.82350"></trkpt>
      <trkpt lat="32.69781" lon="-4.84253"></trkpt>
      <trkpt lat="32.69852" lon="-4.84397"></trkpt>
      <trkpt lat="32.70403" lon="-4.84966"></trkpt>
      <trkpt lat="32.70485" lon="-4.85098"></trkpt>
      <trkpt lat="32.70961" lon="-4.87139"></trkpt>
      <trkpt lat="32.71032" lon="-4.87291"></trkpt>
      <trkpt lat="32.71809" lon="-4.88472"></trkpt>
      <trkpt lat="32.72040" lon="-4.88661"></trkpt>
      <trkpt lat="32.72101" lon="-4.88739"></trkpt>
      <trkpt lat="32.73489" lon="-4.90864"></trkpt>
      <trkpt lat="32.73623" lon="-4.90975"></trkpt>
      <trkpt lat="32.74385" lon="-4.91297"></trkpt>
      <trkpt lat="32.74645" lon="-4.91318"></trkpt>
      <trkpt lat="32.74771" lon="-4.91375"></trkpt>
      <trkpt lat="32.75591" lon="-4.92535"></trkpt>
      <trkpt lat="32.75682" lon="-4.92623"></trkpt>
      <trkpt lat="32.79055" lon="-4.93689"></trkpt>
      <trkpt lat="32.79143" lon="-4.93768"></trkpt>
      <trkpt lat="32.79376" lon="-4.94152"></trkpt>
      <trkpt lat="32.79469" lon="-4.94251"></trkpt>
      <trkpt lat="32.80175" lon="-4.94583"></trkpt>
      <trkpt lat="32.81649" lon="-4.95852"></trkpt>
      <trkpt lat="32.81804" lon="-4.95939"></trkpt>
      <trkpt lat="32.82114" lon="-4.95988"></trkpt>
      <trkpt lat="32.82364" lon="-4.96139"></trkpt>
      <trkpt lat="32.83279" lon="-4.96085"></trkpt>
      <trkpt lat="32.83365" lon="-4.96058"></trkpt>
      <trkpt lat="32.84344" lon="-4.95255"></trkpt>
      <trkpt lat="32.84670" lon="-4.95112"></trkpt>
      <trkpt lat="32.84858" lon="-4.94912"></trkpt>
      <trkpt lat="32.84975" lon="-4.94841"></trkpt>
      <trkpt lat="32.85238" lon="-4.94787"></trkpt>
      <trkpt lat="32.85903" lon="-4.94576"></trkpt>
      <trkpt lat="32.86845" lon="-4.94394"></trkpt>
      <trkpt lat="32.87108" lon="-4.94403"></trkpt>
      <trkpt lat="32.87561" lon="-4.94540"></trkpt>
      <trkpt lat="32.87636" lon="-4.94582"></trkpt>
      <trkpt lat="32.87751" lon="-4.94690"></trkpt>
      <trkpt lat="32.88134" lon="-4.95275"></trkpt>
      <trkpt lat="32.88339" lon="-4.95749"></trkpt>
      <trkpt lat="32.88468" lon="-4.95886"></trkpt>
      <trkpt lat="32.88514" lon="-4.95984"></trkpt>
      <trkpt lat="32.88672" lon="-4.97438"></trkpt>
      <trkpt lat="32.90193" lon="-5.02410"></trkpt>
      <trkpt lat="32.90238" lon="-5.02480"></trkpt>
      <trkpt lat="32.90960" lon="-5.03184"></trkpt>
      <trkpt lat="32.92993" lon="-5.05110"></trkpt>
      <trkpt lat="32.93156" lon="-5.05405"></trkpt>
      <trkpt lat="32.93223" lon="-5.05446"></trkpt>
      <trkpt lat="32.93355" lon="-5.05477"></trkpt>
      <trkpt lat="32.93709" lon="-5.05725"></trkpt>
      <trkpt lat="32.93864" lon="-5.05786"></trkpt>
      <trkpt lat="32.93960" lon="-5.06036"></trkpt>
      <trkpt lat="32.94013" lon="-5.06083"></trkpt>
      <trkpt lat="32.94540" lon="-5.05941"></trkpt>
      <trkpt lat="32.95418" lon="-5.05366"></trkpt>
      <trkpt lat="32.95636" lon="-5.05298"></trkpt>
      <trkpt lat="32.95775" lon="-5.05297"></trkpt>
      <trkpt lat="32.95876" lon="-5.05335"></trkpt>
      <trkpt lat="32.96223" lon="-5.05581"></trkpt>
      <trkpt lat="32.96510" lon="-5.05654"></trkpt>
      <trkpt lat="32.96928" lon="-5.05821"></trkpt>
      <trkpt lat="32.97032" lon="-5.05757"></trkpt>
      <trkpt lat="32.97251" lon="-5.05704"></trkpt>
      <trkpt lat="32.97287" lon="-5.05766"></trkpt>
      <trkpt lat="32.97411" lon="-5.05864"></trkpt>
      <trkpt lat="32.97430" lon="-5.05992"></trkpt>
      <trkpt lat="32.97590" lon="-5.06085"></trkpt>
      <trkpt lat="32.97660" lon="-5.06181"></trkpt>
      <trkpt lat="32.97731" lon="-5.06346"></trkpt>
      <trkpt lat="32.97846" lon="-5.06420"></trkpt>
      <trkpt lat="32.97947" lon="-5.06557"></trkpt>
      <trkpt lat="32.97998" lon="-5.06577"></trkpt>
      <trkpt lat="32.98157" lon="-5.06565"></trkpt>
      <trkpt lat="32.98237" lon="-5.06682"></trkpt>
      <trkpt lat="32.98384" lon="-5.06724"></trkpt>
      <trkpt lat="32.98537" lon="-5.06841"></trkpt>
      <trkpt lat="32.98709" lon="-5.07107"></trkpt>
      <trkpt lat="32.98763" lon="-5.07120"></trkpt>
      <trkpt lat="32.99214" lon="-5.07031"></trkpt>
      <trkpt lat="32.99327" lon="-5.07050"></trkpt>
      <trkpt lat="32.99447" lon="-5.07143"></trkpt>
      <trkpt lat="32.99544" lon="-5.07301"></trkpt>
      <trkpt lat="32.99669" lon="-5.07315"></trkpt>
      <trkpt lat="32.99765" lon="-5.07361"></trkpt>
      <trkpt lat="32.99899" lon="-5.07365"></trkpt>
      <trkpt lat="32.99981" lon="-5.07462"></trkpt>
      <trkpt lat="33.00089" lon="-5.07383"></trkpt>
      <trkpt lat="33.00369" lon="-5.07296"></trkpt>
      <trkpt lat="33.00609" lon="-5.07290"></trkpt>
      <trkpt lat="33.00969" lon="-5.07214"></trkpt>
      <trkpt lat="33.01335" lon="-5.07218"></trkpt>
      <trkpt lat="33.01503" lon="-5.07185"></trkpt>
      <trkpt lat="33.01764" lon="-5.07245"></trkpt>
      <trkpt lat="33.01835" lon="-5.07295"></trkpt>
      <trkpt lat="33.01937" lon="-5.07320"></trkpt>
      <trkpt lat="33.02113" lon="-5.07253"></trkpt>
      <trkpt lat="33.02545" lon="-5.07245"></trkpt>
      <trkpt lat="33.02723" lon="-5.07182"></trkpt>
      <trkpt lat="33.02860" lon="-5.07179"></trkpt>
      <trkpt lat="33.02939" lon="-5.07118"></trkpt>
      <trkpt lat="33.03162" lon="-5.06846"></trkpt>
      <trkpt lat="33.03310" lon="-5.06521"></trkpt>
      <trkpt lat="33.03726" lon="-5.06123"></trkpt>
      <trkpt lat="33.04093" lon="-5.05875"></trkpt>
      <trkpt lat="33.04316" lon="-5.05468"></trkpt>
      <trkpt lat="33.04594" lon="-5.05031"></trkpt>
      <trkpt lat="33.04676" lon="-5.04772"></trkpt>
      <trkpt lat="33.04907" lon="-5.04513"></trkpt>
      <trkpt lat="33.05826" lon="-5.03791"></trkpt>
      <trkpt lat="33.06013" lon="-5.03679"></trkpt>
      <trkpt lat="33.06157" lon="-5.03451"></trkpt>
      <trkpt lat="33.06550" lon="-5.03177"></trkpt>
      <trkpt lat="33.06646" lon="-5.03033"></trkpt>
      <trkpt lat="33.06810" lon="-5.02889"></trkpt>
      <trkpt lat="33.07086" lon="-5.02544"></trkpt>
      <trkpt lat="33.07191" lon="-5.02454"></trkpt>
      <trkpt lat="33.07303" lon="-5.02264"></trkpt>
      <trkpt lat="33.07462" lon="-5.02104"></trkpt>
      <trkpt lat="33.07652" lon="-5.01983"></trkpt>
      <trkpt lat="33.07822" lon="-5.01944"></trkpt>
      <trkpt lat="33.08021" lon="-5.01777"></trkpt>
      <trkpt lat="33.08102" lon="-5.01753"></trkpt>
      <trkpt lat="33.08752" lon="-5.01811"></trkpt>
      <trkpt lat="33.08975" lon="-5.01870"></trkpt>
      <trkpt lat="33.09036" lon="-5.01898"></trkpt>
      <trkpt lat="33.09143" lon="-5.02023"></trkpt>
      <trkpt lat="33.09240" lon="-5.02095"></trkpt>
      <trkpt lat="33.09647" lon="-5.02316"></trkpt>
      <trkpt lat="33.09776" lon="-5.02348"></trkpt>
      <trkpt lat="33.09941" lon="-5.02445"></trkpt>
      <trkpt lat="33.10111" lon="-5.02493"></trkpt>
      <trkpt lat="33.10209" lon="-5.02497"></trkpt>
      <trkpt lat="33.10471" lon="-5.02409"></trkpt>
      <trkpt lat="33.10625" lon="-5.02432"></trkpt>
      <trkpt lat="33.10899" lon="-5.02633"></trkpt>
      <trkpt lat="33.11310" lon="-5.02748"></trkpt>
      <trkpt lat="33.11427" lon="-5.02882"></trkpt>
      <trkpt lat="33.11628" lon="-5.03007"></trkpt>
      <trkpt lat="33.11707" lon="-5.03033"></trkpt>
      <trkpt lat="33.12091" lon="-5.02999"></trkpt>
      <trkpt lat="33.12161" lon="-5.03015"></trkpt>
      <trkpt lat="33.12824" lon="-5.03450"></trkpt>
      <trkpt lat="33.13095" lon="-5.03517"></trkpt>
      <trkpt lat="33.13265" lon="-5.03737"></trkpt>
      <trkpt lat="33.13833" lon="-5.04718"></trkpt>
      <trkpt lat="33.14308" lon="-5.05290"></trkpt>
      <trkpt lat="33.14415" lon="-5.05391"></trkpt>
      <trkpt lat="33.14858" lon="-5.05535"></trkpt>
      <trkpt lat="33.14965" lon="-5.05627"></trkpt>
      <trkpt lat="33.15011" lon="-5.05893"></trkpt>
      <trkpt lat="33.15062" lon="-5.06048"></trkpt>
      <trkpt lat="33.15213" lon="-5.06325"></trkpt>
      <trkpt lat="33.15279" lon="-5.06668"></trkpt>
      <trkpt lat="33.15344" lon="-5.06766"></trkpt>
      <trkpt lat="33.15429" lon="-5.06813"></trkpt>
      <trkpt lat="33.15522" lon="-5.06811"></trkpt>
      <trkpt lat="33.16013" lon="-5.06584"></trkpt>
      <trkpt lat="33.16464" lon="-5.06657"></trkpt>
      <trkpt lat="33.17319" lon="-5.06189"></trkpt>
      <trkpt lat="33.17709" lon="-5.06165"></trkpt>
      <trkpt lat="33.17956" lon="-5.06054"></trkpt>
      <trkpt lat="33.18440" lon="-5.06201"></trkpt>
      <trkpt lat="33.18609" lon="-5.06219"></trkpt>
      <trkpt lat="33.18821" lon="-5.06178"></trkpt>
      <trkpt lat="33.19123" lon="-5.06208"></trkpt>
      <trkpt lat="33.19211" lon="-5.06225"></trkpt>
      <trkpt lat="33.19425" lon="-5.06335"></trkpt>
      <trkpt lat="33.19870" lon="-5.06400"></trkpt>
      <trkpt lat="33.20101" lon="-5.06364"></trkpt>
      <trkpt lat="33.20890" lon="-5.06091"></trkpt>
      <trkpt lat="33.21133" lon="-5.05974"></trkpt>
      <trkpt lat="33.22884" lon="-5.06013"></trkpt>
      <trkpt lat="33.22977" lon="-5.05987"></trkpt>
      <trkpt lat="33.23178" lon="-5.05830"></trkpt>
      <trkpt lat="33.23399" lon="-5.05826"></trkpt>
      <trkpt lat="33.23356" lon="-5.06025"></trkpt>
      <trkpt lat="33.23457" lon="-5.06029"></trkpt>
      <trkpt lat="33.23555" lon="-5.05971"></trkpt>
      <trkpt lat="33.23607" lon="-5.06080"></trkpt>
      <trkpt lat="33.23660" lon="-5.06062"></trkpt>
      <trkpt lat="33.23718" lon="-5.05996"></trkpt>
      <trkpt lat="33.23912" lon="-5.06466"></trkpt>
      <trkpt lat="33.24075" lon="-5.07048"></trkpt>
      <trkpt lat="33.24128" lon="-5.07120"></trkpt>
      <trkpt lat="33.24222" lon="-5.07176"></trkpt>
      <trkpt lat="33.25562" lon="-5.07078"></trkpt>
      <trkpt lat="33.25642" lon="-5.07096"></trkpt>
      <trkpt lat="33.25885" lon="-5.07238"></trkpt>
      <trkpt lat="33.27010" lon="-5.07353"></trkpt>
      <trkpt lat="33.27638" lon="-5.07444"></trkpt>
      <trkpt lat="33.28374" lon="-5.07613"></trkpt>
      <trkpt lat="33.28838" lon="-5.07738"></trkpt>
      <trkpt lat="33.28916" lon="-5.07779"></trkpt>
      <trkpt lat="33.28994" lon="-5.07841"></trkpt>
      <trkpt lat="33.29134" lon="-5.08034"></trkpt>
      <trkpt lat="33.29565" lon="-5.08797"></trkpt>
      <trkpt lat="33.29957" lon="-5.09560"></trkpt>
      <trkpt lat="33.30145" lon="-5.09816"></trkpt>
      <trkpt lat="33.30213" lon="-5.09963"></trkpt>
      <trkpt lat="33.30322" lon="-5.10335"></trkpt>
      <trkpt lat="33.30607" lon="-5.10838"></trkpt>
      <trkpt lat="33.31158" lon="-5.11531"></trkpt>
      <trkpt lat="33.31519" lon="-5.11752"></trkpt>
      <trkpt lat="33.31629" lon="-5.11847"></trkpt>
      <trkpt lat="33.32306" lon="-5.12741"></trkpt>
      <trkpt lat="33.32631" lon="-5.12962"></trkpt>
      <trkpt lat="33.32837" lon="-5.13139"></trkpt>
      <trkpt lat="33.33477" lon="-5.13325"></trkpt>
      <trkpt lat="33.35388" lon="-5.14401"></trkpt>
      <trkpt lat="33.35458" lon="-5.14456"></trkpt>
      <trkpt lat="33.35774" lon="-5.14911"></trkpt>
      <trkpt lat="33.35851" lon="-5.14983"></trkpt>
      <trkpt lat="33.35958" lon="-5.15000"></trkpt>
      <trkpt lat="33.36368" lon="-5.14977"></trkpt>
      <trkpt lat="33.36475" lon="-5.15006"></trkpt>
      <trkpt lat="33.38300" lon="-5.16301"></trkpt>
      <trkpt lat="33.38741" lon="-5.16467"></trkpt>
      <trkpt lat="33.39327" lon="-5.16753"></trkpt>
      <trkpt lat="33.39521" lon="-5.16922"></trkpt>
      <trkpt lat="33.39762" lon="-5.17305"></trkpt>
      <trkpt lat="33.39975" lon="-5.17547"></trkpt>
      <trkpt lat="33.40122" lon="-5.17959"></trkpt>
      <trkpt lat="33.40518" lon="-5.18428"></trkpt>
      <trkpt lat="33.40702" lon="-5.18523"></trkpt>
      <trkpt lat="33.40765" lon="-5.18518"></trkpt>
      <trkpt lat="33.41515" lon="-5.17964"></trkpt>
      <trkpt lat="33.41987" lon="-5.17813"></trkpt>
      <trkpt lat="33.42057" lon="-5.17807"></trkpt>
      <trkpt lat="33.42169" lon="-5.17870"></trkpt>
      <trkpt lat="33.42269" lon="-5.17864"></trkpt>
      <trkpt lat="33.42374" lon="-5.17904"></trkpt>
      <trkpt lat="33.42476" lon="-5.17899"></trkpt>
      <trkpt lat="33.42583" lon="-5.17832"></trkpt>
      <trkpt lat="33.42682" lon="-5.17590"></trkpt>
      <trkpt lat="33.42778" lon="-5.17459"></trkpt>
      <trkpt lat="33.42861" lon="-5.17417"></trkpt>
      <trkpt lat="33.43014" lon="-5.17446"></trkpt>
      <trkpt lat="33.43144" lon="-5.17502"></trkpt>
      <trkpt lat="33.43431" lon="-5.18105"></trkpt>
      <trkpt lat="33.43505" lon="-5.18549"></trkpt>
      <trkpt lat="33.43374" lon="-5.18692"></trkpt>
      <trkpt lat="33.42888" lon="-5.18990"></trkpt>
      <trkpt lat="33.42772" lon="-5.19077"></trkpt>
      <trkpt lat="33.42701" lon="-5.19170"></trkpt>
      <trkpt lat="33.42613" lon="-5.19220"></trkpt>
      <trkpt lat="33.42552" lon="-5.19472"></trkpt>
      <trkpt lat="33.42571" lon="-5.19670"></trkpt>
      <trkpt lat="33.42690" lon="-5.19835"></trkpt>
      <trkpt lat="33.42784" lon="-5.19910"></trkpt>
      <trkpt lat="33.42799" lon="-5.20088"></trkpt>
      <trkpt lat="33.42862" lon="-5.20282"></trkpt>
      <trkpt lat="33.42912" lon="-5.20301"></trkpt>
      <trkpt lat="33.43057" lon="-5.20266"></trkpt>
      <trkpt lat="33.43183" lon="-5.20283"></trkpt>
      <trkpt lat="33.43561" lon="-5.20549"></trkpt>
      <trkpt lat="33.43636" lon="-5.20578"></trkpt>
      <trkpt lat="33.43836" lon="-5.20576"></trkpt>
      <trkpt lat="33.43898" lon="-5.20531"></trkpt>
      <trkpt lat="33.44081" lon="-5.20135"></trkpt>
      <trkpt lat="33.44141" lon="-5.19896"></trkpt>
      <trkpt lat="33.44393" lon="-5.19424"></trkpt>
      <trkpt lat="33.44625" lon="-5.18647"></trkpt>
      <trkpt lat="33.44618" lon="-5.18187"></trkpt>
      <trkpt lat="33.44715" lon="-5.17958"></trkpt>
      <trkpt lat="33.44943" lon="-5.17100"></trkpt>
      <trkpt lat="33.45005" lon="-5.17034"></trkpt>
      <trkpt lat="33.45503" lon="-5.16750"></trkpt>
      <trkpt lat="33.45671" lon="-5.16683"></trkpt>
      <trkpt lat="33.45844" lon="-5.16566"></trkpt>
      <trkpt lat="33.45989" lon="-5.16520"></trkpt>
      <trkpt lat="33.46094" lon="-5.16402"></trkpt>
      <trkpt lat="33.46387" lon="-5.16197"></trkpt>
      <trkpt lat="33.46455" lon="-5.16196"></trkpt>
      <trkpt lat="33.46528" lon="-5.16275"></trkpt>
      <trkpt lat="33.46584" lon="-5.16202"></trkpt>
      <trkpt lat="33.46616" lon="-5.16109"></trkpt>
      <trkpt lat="33.46544" lon="-5.15553"></trkpt>
      <trkpt lat="33.46557" lon="-5.15376"></trkpt>
      <trkpt lat="33.46598" lon="-5.15221"></trkpt>
      <trkpt lat="33.46591" lon="-5.15121"></trkpt>
      <trkpt lat="33.46719" lon="-5.14898"></trkpt>
      <trkpt lat="33.46743" lon="-5.14797"></trkpt>
      <trkpt lat="33.46809" lon="-5.14734"></trkpt>
      <trkpt lat="33.46857" lon="-5.14642"></trkpt>
      <trkpt lat="33.47070" lon="-5.14457"></trkpt>
      <trkpt lat="33.47139" lon="-5.14355"></trkpt>
      <trkpt lat="33.47271" lon="-5.14301"></trkpt>
      <trkpt lat="33.47318" lon="-5.14220"></trkpt>
      <trkpt lat="33.47390" lon="-5.14174"></trkpt>
      <trkpt lat="33.47407" lon="-5.14105"></trkpt>
      <trkpt lat="33.47494" lon="-5.14080"></trkpt>
      <trkpt lat="33.47527" lon="-5.14040"></trkpt>
      <trkpt lat="33.47637" lon="-5.14068"></trkpt>
      <trkpt lat="33.47632" lon="-5.13955"></trkpt>
      <trkpt lat="33.47666" lon="-5.13869"></trkpt>
      <trkpt lat="33.47754" lon="-5.13830"></trkpt>
      <trkpt lat="33.47855" lon="-5.13743"></trkpt>
      <trkpt lat="33.47952" lon="-5.13567"></trkpt>
      <trkpt lat="33.48014" lon="-5.13506"></trkpt>
      <trkpt lat="33.48072" lon="-5.13502"></trkpt>
      <trkpt lat="33.48207" lon="-5.13335"></trkpt>
      <trkpt lat="33.48456" lon="-5.13255"></trkpt>
      <trkpt lat="33.48765" lon="-5.13023"></trkpt>
      <trkpt lat="33.48972" lon="-5.12969"></trkpt>
      <trkpt lat="33.49548" lon="-5.12241"></trkpt>
      <trkpt lat="33.49665" lon="-5.12134"></trkpt>
      <trkpt lat="33.49786" lon="-5.11791"></trkpt>
      <trkpt lat="33.50005" lon="-5.11614"></trkpt>
      <trkpt lat="33.50156" lon="-5.11262"></trkpt>
      <trkpt lat="33.50290" lon="-5.11148"></trkpt>
      <trkpt lat="33.50446" lon="-5.11142"></trkpt>
      <trkpt lat="33.50644" lon="-5.11034"></trkpt>
      <trkpt lat="33.50720" lon="-5.11049"></trkpt>
      <trkpt lat="33.50781" lon="-5.11110"></trkpt>
      <trkpt lat="33.50906" lon="-5.11322"></trkpt>
      <trkpt lat="33.51219" lon="-5.11453"></trkpt>
      <trkpt lat="33.51315" lon="-5.11527"></trkpt>
      <trkpt lat="33.51505" lon="-5.11895"></trkpt>
      <trkpt lat="33.51931" lon="-5.11598"></trkpt>
      <trkpt lat="33.51981" lon="-5.11541"></trkpt>
      <trkpt lat="33.52047" lon="-5.11357"></trkpt>
      <trkpt lat="33.52139" lon="-5.11295"></trkpt>
      <trkpt lat="33.52227" lon="-5.11167"></trkpt>
      <trkpt lat="33.52314" lon="-5.11096"></trkpt>
      <trkpt lat="33.52326" lon="-5.11062"></trkpt>
      <trkpt lat="33.52300" lon="-5.11032"></trkpt>
      <trkpt lat="33.52199" lon="-5.11091"></trkpt>
      <trkpt lat="33.52206" lon="-5.11152"></trkpt>
      <trkpt lat="33.52278" lon="-5.11228"></trkpt>
      <trkpt lat="33.51931" lon="-5.11598"></trkpt>
      <trkpt lat="33.51505" lon="-5.11895"></trkpt>
      <trkpt lat="33.51315" lon="-5.11527"></trkpt>
      <trkpt lat="33.51219" lon="-5.11453"></trkpt>
      <trkpt lat="33.50906" lon="-5.11322"></trkpt>
      <trkpt lat="33.50781" lon="-5.11110"></trkpt>
      <trkpt lat="33.50720" lon="-5.11049"></trkpt>
      <trkpt lat="33.50644" lon="-5.11034"></trkpt>
      <trkpt lat="33.50446" lon="-5.11142"></trkpt>
      <trkpt lat="33.50290" lon="-5.11148"></trkpt>
      <trkpt lat="33.50156" lon="-5.11262"></trkpt>
      <trkpt lat="33.50005" lon="-5.11614"></trkpt>
      <trkpt lat="33.49786" lon="-5.11791"></trkpt>
      <trkpt lat="33.49665" lon="-5.12134"></trkpt>
      <trkpt lat="33.49548" lon="-5.12241"></trkpt>
      <trkpt lat="33.48972" lon="-5.12969"></trkpt>
      <trkpt lat="33.48765" lon="-5.13023"></trkpt>
      <trkpt lat="33.48456" lon="-5.13255"></trkpt>
      <trkpt lat="33.48207" lon="-5.13335"></trkpt>
      <trkpt lat="33.48072" lon="-5.13502"></trkpt>
      <trkpt lat="33.48014" lon="-5.13506"></trkpt>
      <trkpt lat="33.47952" lon="-5.13567"></trkpt>
      <trkpt lat="33.47855" lon="-5.13743"></trkpt>
      <trkpt lat="33.47754" lon="-5.13830"></trkpt>
      <trkpt lat="33.47666" lon="-5.13869"></trkpt>
      <trkpt lat="33.47632" lon="-5.13955"></trkpt>
      <trkpt lat="33.47637" lon="-5.14068"></trkpt>
      <trkpt lat="33.47527" lon="-5.14040"></trkpt>
      <trkpt lat="33.47494" lon="-5.14080"></trkpt>
      <trkpt lat="33.47407" lon="-5.14105"></trkpt>
      <trkpt lat="33.47390" lon="-5.14174"></trkpt>
      <trkpt lat="33.47318" lon="-5.14220"></trkpt>
      <trkpt lat="33.47271" lon="-5.14301"></trkpt>
      <trkpt lat="33.47139" lon="-5.14355"></trkpt>
      <trkpt lat="33.47070" lon="-5.14457"></trkpt>
      <trkpt lat="33.46857" lon="-5.14642"></trkpt>
      <trkpt lat="33.46809" lon="-5.14734"></trkpt>
      <trkpt lat="33.46743" lon="-5.14797"></trkpt>
      <trkpt lat="33.46719" lon="-5.14898"></trkpt>
      <trkpt lat="33.46591" lon="-5.15121"></trkpt>
      <trkpt lat="33.46598" lon="-5.15221"></trkpt>
      <trkpt lat="33.46557" lon="-5.15376"></trkpt>
      <trkpt lat="33.46544" lon="-5.15553"></trkpt>
      <trkpt lat="33.46616" lon="-5.16109"></trkpt>
      <trkpt lat="33.46584" lon="-5.16202"></trkpt>
      <trkpt lat="33.46528" lon="-5.16275"></trkpt>
      <trkpt lat="33.46455" lon="-5.16196"></trkpt>
      <trkpt lat="33.46387" lon="-5.16197"></trkpt>
      <trkpt lat="33.46094" lon="-5.16402"></trkpt>
      <trkpt lat="33.45989" lon="-5.16520"></trkpt>
      <trkpt lat="33.45844" lon="-5.16566"></trkpt>
      <trkpt lat="33.45671" lon="-5.16683"></trkpt>
      <trkpt lat="33.45503" lon="-5.16750"></trkpt>
      <trkpt lat="33.45005" lon="-5.17034"></trkpt>
      <trkpt lat="33.44943" lon="-5.17100"></trkpt>
      <trkpt lat="33.44715" lon="-5.17958"></trkpt>
      <trkpt lat="33.44618" lon="-5.18187"></trkpt>
      <trkpt lat="33.44625" lon="-5.18647"></trkpt>
      <trkpt lat="33.44406" lon="-5.19385"></trkpt>
      <trkpt lat="33.44141" lon="-5.19896"></trkpt>
      <trkpt lat="33.44081" lon="-5.20135"></trkpt>
      <trkpt lat="33.43898" lon="-5.20531"></trkpt>
      <trkpt lat="33.43809" lon="-5.20580"></trkpt>
      <trkpt lat="33.43562" lon="-5.20580"></trkpt>
      <trkpt lat="33.43488" lon="-5.20495"></trkpt>
      <trkpt lat="33.43183" lon="-5.20283"></trkpt>
      <trkpt lat="33.43074" lon="-5.20265"></trkpt>
      <trkpt lat="33.42927" lon="-5.20301"></trkpt>
      <trkpt lat="33.42873" lon="-5.20289"></trkpt>
      <trkpt lat="33.42832" lon="-5.20224"></trkpt>
      <trkpt lat="33.42787" lon="-5.19921"></trkpt>
      <trkpt lat="33.42758" lon="-5.19885"></trkpt>
      <trkpt lat="33.42748" lon="-5.20212"></trkpt>
      <trkpt lat="33.42721" lon="-5.20316"></trkpt>
      <trkpt lat="33.42625" lon="-5.20476"></trkpt>
      <trkpt lat="33.42553" lon="-5.20532"></trkpt>
      <trkpt lat="33.42459" lon="-5.20737"></trkpt>
      <trkpt lat="33.42155" lon="-5.20906"></trkpt>
      <trkpt lat="33.42018" lon="-5.21036"></trkpt>
      <trkpt lat="33.41797" lon="-5.20761"></trkpt>
      <trkpt lat="33.41703" lon="-5.20761"></trkpt>
      <trkpt lat="33.41543" lon="-5.20805"></trkpt>
      <trkpt lat="33.41543" lon="-5.20840"></trkpt>
      <trkpt lat="33.41603" lon="-5.20868"></trkpt>
      <trkpt lat="33.41602" lon="-5.20994"></trkpt>
      <trkpt lat="33.41434" lon="-5.21196"></trkpt>
      <trkpt lat="33.41398" lon="-5.21307"></trkpt>
      <trkpt lat="33.41310" lon="-5.21364"></trkpt>
      <trkpt lat="33.41236" lon="-5.21491"></trkpt>
      <trkpt lat="33.41186" lon="-5.21644"></trkpt>
      <trkpt lat="33.41190" lon="-5.21825"></trkpt>
      <trkpt lat="33.41078" lon="-5.21999"></trkpt>
      <trkpt lat="33.41067" lon="-5.22079"></trkpt>
      <trkpt lat="33.41094" lon="-5.22153"></trkpt>
      <trkpt lat="33.41073" lon="-5.22217"></trkpt>
      <trkpt lat="33.40912" lon="-5.22315"></trkpt>
      <trkpt lat="33.40876" lon="-5.22418"></trkpt>
      <trkpt lat="33.40879" lon="-5.22487"></trkpt>
      <trkpt lat="33.40825" lon="-5.22573"></trkpt>
      <trkpt lat="33.40837" lon="-5.22693"></trkpt>
      <trkpt lat="33.40818" lon="-5.22760"></trkpt>
      <trkpt lat="33.40792" lon="-5.22809"></trkpt>
      <trkpt lat="33.40605" lon="-5.22975"></trkpt>
      <trkpt lat="33.40548" lon="-5.23090"></trkpt>
      <trkpt lat="33.40545" lon="-5.23144"></trkpt>
      <trkpt lat="33.40649" lon="-5.23224"></trkpt>
      <trkpt lat="33.40649" lon="-5.23425"></trkpt>
      <trkpt lat="33.40674" lon="-5.23369"></trkpt>
      <trkpt lat="33.40794" lon="-5.23329"></trkpt>
      <trkpt lat="33.40674" lon="-5.23369"></trkpt>
      <trkpt lat="33.40646" lon="-5.23423"></trkpt>
      <trkpt lat="33.40649" lon="-5.23224"></trkpt>
      <trkpt lat="33.40545" lon="-5.23144"></trkpt>
      <trkpt lat="33.40548" lon="-5.23090"></trkpt>
      <trkpt lat="33.40605" lon="-5.22975"></trkpt>
      <trkpt lat="33.40792" lon="-5.22809"></trkpt>
      <trkpt lat="33.40818" lon="-5.22760"></trkpt>
      <trkpt lat="33.40837" lon="-5.22693"></trkpt>
      <trkpt lat="33.40825" lon="-5.22573"></trkpt>
      <trkpt lat="33.40879" lon="-5.22487"></trkpt>
      <trkpt lat="33.40876" lon="-5.22418"></trkpt>
      <trkpt lat="33.40912" lon="-5.22315"></trkpt>
      <trkpt lat="33.41073" lon="-5.22217"></trkpt>
      <trkpt lat="33.41094" lon="-5.22153"></trkpt>
      <trkpt lat="33.41067" lon="-5.22079"></trkpt>
      <trkpt lat="33.41078" lon="-5.21999"></trkpt>
      <trkpt lat="33.41190" lon="-5.21825"></trkpt>
      <trkpt lat="33.41186" lon="-5.21644"></trkpt>
      <trkpt lat="33.41236" lon="-5.21491"></trkpt>
      <trkpt lat="33.41310" lon="-5.21364"></trkpt>
      <trkpt lat="33.41398" lon="-5.21307"></trkpt>
      <trkpt lat="33.41434" lon="-5.21196"></trkpt>
      <trkpt lat="33.41602" lon="-5.20994"></trkpt>
      <trkpt lat="33.41603" lon="-5.20868"></trkpt>
      <trkpt lat="33.41543" lon="-5.20840"></trkpt>
      <trkpt lat="33.41540" lon="-5.20810"></trkpt>
      <trkpt lat="33.41703" lon="-5.20761"></trkpt>
      <trkpt lat="33.41797" lon="-5.20761"></trkpt>
      <trkpt lat="33.42018" lon="-5.21036"></trkpt>
      <trkpt lat="33.42155" lon="-5.20906"></trkpt>
      <trkpt lat="33.42459" lon="-5.20737"></trkpt>
      <trkpt lat="33.42553" lon="-5.20532"></trkpt>
      <trkpt lat="33.42625" lon="-5.20476"></trkpt>
      <trkpt lat="33.42721" lon="-5.20316"></trkpt>
      <trkpt lat="33.42751" lon="-5.20169"></trkpt>
      <trkpt lat="33.42761" lon="-5.19958"></trkpt>
      <trkpt lat="33.42744" lon="-5.19876"></trkpt>
      <trkpt lat="33.42785" lon="-5.19914"></trkpt>
      <trkpt lat="33.42799" lon="-5.20088"></trkpt>
      <trkpt lat="33.42862" lon="-5.20282"></trkpt>
      <trkpt lat="33.42927" lon="-5.20301"></trkpt>
      <trkpt lat="33.43114" lon="-5.20267"></trkpt>
      <trkpt lat="33.43223" lon="-5.20308"></trkpt>
      <trkpt lat="33.43530" lon="-5.20528"></trkpt>
      <trkpt lat="33.43750" lon="-5.20863"></trkpt>
      <trkpt lat="33.43861" lon="-5.21192"></trkpt>
      <trkpt lat="33.43870" lon="-5.21375"></trkpt>
      <trkpt lat="33.43841" lon="-5.21573"></trkpt>
      <trkpt lat="33.43704" lon="-5.21921"></trkpt>
      <trkpt lat="33.43758" lon="-5.22117"></trkpt>
      <trkpt lat="33.43746" lon="-5.22264"></trkpt>
      <trkpt lat="33.43621" lon="-5.22370"></trkpt>
      <trkpt lat="33.43506" lon="-5.22324"></trkpt>
      <trkpt lat="33.43475" lon="-5.22332"></trkpt>
      <trkpt lat="33.43332" lon="-5.22212"></trkpt>
      <trkpt lat="33.43403" lon="-5.22152"></trkpt>
      <trkpt lat="33.43420" lon="-5.22084"></trkpt>
      <trkpt lat="33.43364" lon="-5.22055"></trkpt>
      <trkpt lat="33.43377" lon="-5.21977"></trkpt>
      <trkpt lat="33.43480" lon="-5.21994"></trkpt>
      <trkpt lat="33.43589" lon="-5.21698"></trkpt>
      <trkpt lat="33.43711" lon="-5.21618"></trkpt>
      <trkpt lat="33.43864" lon="-5.21270"></trkpt>
      <trkpt lat="33.43859" lon="-5.21183"></trkpt>
      <trkpt lat="33.43744" lon="-5.20850"></trkpt>
      <trkpt lat="33.43508" lon="-5.20511"></trkpt>
      <trkpt lat="33.43223" lon="-5.20308"></trkpt>
      <trkpt lat="33.43114" lon="-5.20267"></trkpt>
      <trkpt lat="33.42927" lon="-5.20301"></trkpt>
      <trkpt lat="33.42862" lon="-5.20282"></trkpt>
      <trkpt lat="33.42799" lon="-5.20088"></trkpt>
      <trkpt lat="33.42784" lon="-5.19910"></trkpt>
      <trkpt lat="33.42690" lon="-5.19835"></trkpt>
      <trkpt lat="33.42571" lon="-5.19670"></trkpt>
      <trkpt lat="33.42552" lon="-5.19472"></trkpt>
      <trkpt lat="33.42613" lon="-5.19220"></trkpt>
      <trkpt lat="33.42701" lon="-5.19170"></trkpt>
      <trkpt lat="33.42772" lon="-5.19077"></trkpt>
      <trkpt lat="33.42888" lon="-5.18990"></trkpt>
      <trkpt lat="33.43374" lon="-5.18692"></trkpt>
      <trkpt lat="33.43505" lon="-5.18549"></trkpt>
      <trkpt lat="33.43431" lon="-5.18105"></trkpt>
      <trkpt lat="33.43161" lon="-5.17520"></trkpt>
      <trkpt lat="33.43014" lon="-5.17446"></trkpt>
      <trkpt lat="33.42861" lon="-5.17417"></trkpt>
      <trkpt lat="33.42778" lon="-5.17459"></trkpt>
      <trkpt lat="33.42682" lon="-5.17590"></trkpt>
      <trkpt lat="33.42583" lon="-5.17832"></trkpt>
      <trkpt lat="33.42476" lon="-5.17899"></trkpt>
      <trkpt lat="33.42374" lon="-5.17904"></trkpt>
      <trkpt lat="33.42269" lon="-5.17864"></trkpt>
      <trkpt lat="33.42169" lon="-5.17870"></trkpt>
      <trkpt lat="33.42057" lon="-5.17807"></trkpt>
      <trkpt lat="33.41987" lon="-5.17813"></trkpt>
      <trkpt lat="33.41515" lon="-5.17964"></trkpt>
      <trkpt lat="33.40765" lon="-5.18518"></trkpt>
      <trkpt lat="33.40702" lon="-5.18523"></trkpt>
      <trkpt lat="33.40518" lon="-5.18428"></trkpt>
      <trkpt lat="33.40122" lon="-5.17959"></trkpt>
      <trkpt lat="33.39975" lon="-5.17547"></trkpt>
      <trkpt lat="33.39762" lon="-5.17305"></trkpt>
      <trkpt lat="33.39521" lon="-5.16922"></trkpt>
      <trkpt lat="33.39327" lon="-5.16753"></trkpt>
      <trkpt lat="33.38741" lon="-5.16467"></trkpt>
      <trkpt lat="33.38300" lon="-5.16301"></trkpt>
      <trkpt lat="33.36475" lon="-5.15006"></trkpt>
      <trkpt lat="33.36368" lon="-5.14977"></trkpt>
      <trkpt lat="33.35958" lon="-5.15000"></trkpt>
      <trkpt lat="33.35851" lon="-5.14983"></trkpt>
      <trkpt lat="33.35774" lon="-5.14911"></trkpt>
      <trkpt lat="33.35458" lon="-5.14456"></trkpt>
      <trkpt lat="33.35388" lon="-5.14401"></trkpt>
      <trkpt lat="33.33477" lon="-5.13325"></trkpt>
      <trkpt lat="33.32837" lon="-5.13139"></trkpt>
      <trkpt lat="33.32631" lon="-5.12962"></trkpt>
      <trkpt lat="33.32306" lon="-5.12741"></trkpt>
      <trkpt lat="33.31629" lon="-5.11847"></trkpt>
      <trkpt lat="33.31519" lon="-5.11752"></trkpt>
      <trkpt lat="33.31158" lon="-5.11531"></trkpt>
      <trkpt lat="33.30607" lon="-5.10838"></trkpt>
      <trkpt lat="33.30322" lon="-5.10335"></trkpt>
      <trkpt lat="33.30213" lon="-5.09963"></trkpt>
      <trkpt lat="33.30145" lon="-5.09816"></trkpt>
      <trkpt lat="33.29957" lon="-5.09560"></trkpt>
      <trkpt lat="33.29565" lon="-5.08797"></trkpt>
      <trkpt lat="33.29168" lon="-5.08093"></trkpt>
      <trkpt lat="33.28994" lon="-5.07841"></trkpt>
      <trkpt lat="33.28838" lon="-5.07738"></trkpt>
      <trkpt lat="33.28072" lon="-5.07535"></trkpt>
      <trkpt lat="33.27638" lon="-5.07444"></trkpt>
      <trkpt lat="33.26868" lon="-5.07336"></trkpt>
      <trkpt lat="33.25916" lon="-5.07244"></trkpt>
      <trkpt lat="33.25642" lon="-5.07096"></trkpt>
      <trkpt lat="33.25562" lon="-5.07078"></trkpt>
      <trkpt lat="33.24222" lon="-5.07176"></trkpt>
      <trkpt lat="33.24128" lon="-5.07120"></trkpt>
      <trkpt lat="33.24075" lon="-5.07048"></trkpt>
      <trkpt lat="33.23912" lon="-5.06466"></trkpt>
      <trkpt lat="33.23718" lon="-5.05996"></trkpt>
      <trkpt lat="33.23602" lon="-5.05880"></trkpt>
      <trkpt lat="33.23355" lon="-5.05823"></trkpt>
      <trkpt lat="33.23178" lon="-5.05830"></trkpt>
      <trkpt lat="33.22977" lon="-5.05987"></trkpt>
      <trkpt lat="33.22884" lon="-5.06013"></trkpt>
      <trkpt lat="33.21133" lon="-5.05974"></trkpt>
      <trkpt lat="33.20890" lon="-5.06091"></trkpt>
      <trkpt lat="33.20101" lon="-5.06364"></trkpt>
      <trkpt lat="33.19870" lon="-5.06400"></trkpt>
      <trkpt lat="33.19425" lon="-5.06335"></trkpt>
      <trkpt lat="33.19211" lon="-5.06225"></trkpt>
      <trkpt lat="33.19123" lon="-5.06208"></trkpt>
      <trkpt lat="33.18821" lon="-5.06178"></trkpt>
      <trkpt lat="33.18609" lon="-5.06219"></trkpt>
      <trkpt lat="33.18440" lon="-5.06201"></trkpt>
      <trkpt lat="33.17956" lon="-5.06054"></trkpt>
      <trkpt lat="33.17709" lon="-5.06165"></trkpt>
      <trkpt lat="33.17319" lon="-5.06189"></trkpt>
      <trkpt lat="33.16464" lon="-5.06657"></trkpt>
      <trkpt lat="33.16013" lon="-5.06584"></trkpt>
      <trkpt lat="33.15522" lon="-5.06811"></trkpt>
      <trkpt lat="33.15429" lon="-5.06813"></trkpt>
      <trkpt lat="33.15344" lon="-5.06766"></trkpt>
      <trkpt lat="33.15279" lon="-5.06668"></trkpt>
      <trkpt lat="33.15213" lon="-5.06325"></trkpt>
      <trkpt lat="33.15062" lon="-5.06048"></trkpt>
      <trkpt lat="33.15011" lon="-5.05893"></trkpt>
      <trkpt lat="33.14965" lon="-5.05627"></trkpt>
      <trkpt lat="33.14858" lon="-5.05535"></trkpt>
      <trkpt lat="33.14415" lon="-5.05391"></trkpt>
      <trkpt lat="33.14308" lon="-5.05290"></trkpt>
      <trkpt lat="33.13833" lon="-5.04718"></trkpt>
      <trkpt lat="33.13265" lon="-5.03737"></trkpt>
      <trkpt lat="33.13095" lon="-5.03517"></trkpt>
      <trkpt lat="33.12824" lon="-5.03450"></trkpt>
      <trkpt lat="33.12161" lon="-5.03015"></trkpt>
      <trkpt lat="33.12091" lon="-5.02999"></trkpt>
      <trkpt lat="33.11707" lon="-5.03033"></trkpt>
      <trkpt lat="33.11628" lon="-5.03007"></trkpt>
      <trkpt lat="33.11427" lon="-5.02882"></trkpt>
      <trkpt lat="33.11310" lon="-5.02748"></trkpt>
      <trkpt lat="33.10899" lon="-5.02633"></trkpt>
      <trkpt lat="33.10625" lon="-5.02432"></trkpt>
      <trkpt lat="33.10471" lon="-5.02409"></trkpt>
      <trkpt lat="33.10209" lon="-5.02497"></trkpt>
      <trkpt lat="33.10111" lon="-5.02493"></trkpt>
      <trkpt lat="33.09941" lon="-5.02445"></trkpt>
      <trkpt lat="33.09776" lon="-5.02348"></trkpt>
      <trkpt lat="33.09647" lon="-5.02316"></trkpt>
      <trkpt lat="33.09240" lon="-5.02095"></trkpt>
      <trkpt lat="33.09143" lon="-5.02023"></trkpt>
      <trkpt lat="33.09036" lon="-5.01898"></trkpt>
      <trkpt lat="33.08975" lon="-5.01870"></trkpt>
      <trkpt lat="33.08752" lon="-5.01811"></trkpt>
      <trkpt lat="33.08125" lon="-5.01753"></trkpt>
      <trkpt lat="33.08044" lon="-5.01764"></trkpt>
      <trkpt lat="33.07822" lon="-5.01944"></trkpt>
      <trkpt lat="33.07652" lon="-5.01983"></trkpt>
      <trkpt lat="33.07462" lon="-5.02104"></trkpt>
      <trkpt lat="33.07303" lon="-5.02264"></trkpt>
      <trkpt lat="33.07191" lon="-5.02454"></trkpt>
      <trkpt lat="33.07086" lon="-5.02544"></trkpt>
      <trkpt lat="33.06810" lon="-5.02889"></trkpt>
      <trkpt lat="33.06646" lon="-5.03033"></trkpt>
      <trkpt lat="33.06550" lon="-5.03177"></trkpt>
      <trkpt lat="33.06157" lon="-5.03451"></trkpt>
      <trkpt lat="33.06013" lon="-5.03679"></trkpt>
      <trkpt lat="33.05826" lon="-5.03791"></trkpt>
      <trkpt lat="33.04907" lon="-5.04513"></trkpt>
      <trkpt lat="33.04676" lon="-5.04772"></trkpt>
      <trkpt lat="33.04594" lon="-5.05031"></trkpt>
      <trkpt lat="33.04316" lon="-5.05468"></trkpt>
      <trkpt lat="33.04093" lon="-5.05875"></trkpt>
      <trkpt lat="33.03726" lon="-5.06123"></trkpt>
      <trkpt lat="33.03310" lon="-5.06521"></trkpt>
      <trkpt lat="33.03162" lon="-5.06846"></trkpt>
      <trkpt lat="33.02939" lon="-5.07118"></trkpt>
      <trkpt lat="33.02860" lon="-5.07179"></trkpt>
      <trkpt lat="33.02723" lon="-5.07182"></trkpt>
      <trkpt lat="33.02545" lon="-5.07245"></trkpt>
      <trkpt lat="33.02113" lon="-5.07253"></trkpt>
      <trkpt lat="33.01937" lon="-5.07320"></trkpt>
      <trkpt lat="33.01835" lon="-5.07295"></trkpt>
      <trkpt lat="33.01764" lon="-5.07245"></trkpt>
      <trkpt lat="33.01503" lon="-5.07185"></trkpt>
      <trkpt lat="33.01335" lon="-5.07218"></trkpt>
      <trkpt lat="33.00969" lon="-5.07214"></trkpt>
      <trkpt lat="33.00609" lon="-5.07290"></trkpt>
      <trkpt lat="33.00369" lon="-5.07296"></trkpt>
      <trkpt lat="33.00089" lon="-5.07383"></trkpt>
      <trkpt lat="32.99981" lon="-5.07462"></trkpt>
      <trkpt lat="32.99899" lon="-5.07365"></trkpt>
      <trkpt lat="32.99765" lon="-5.07361"></trkpt>
      <trkpt lat="32.99669" lon="-5.07315"></trkpt>
      <trkpt lat="32.99544" lon="-5.07301"></trkpt>
      <trkpt lat="32.99447" lon="-5.07143"></trkpt>
      <trkpt lat="32.99327" lon="-5.07050"></trkpt>
      <trkpt lat="32.99214" lon="-5.07031"></trkpt>
      <trkpt lat="32.98763" lon="-5.07120"></trkpt>
      <trkpt lat="32.98709" lon="-5.07107"></trkpt>
      <trkpt lat="32.98537" lon="-5.06841"></trkpt>
      <trkpt lat="32.98384" lon="-5.06724"></trkpt>
      <trkpt lat="32.98237" lon="-5.06682"></trkpt>
      <trkpt lat="32.98157" lon="-5.06565"></trkpt>
      <trkpt lat="32.97998" lon="-5.06577"></trkpt>
      <trkpt lat="32.97947" lon="-5.06557"></trkpt>
      <trkpt lat="32.97846" lon="-5.06420"></trkpt>
      <trkpt lat="32.97731" lon="-5.06346"></trkpt>
      <trkpt lat="32.97660" lon="-5.06181"></trkpt>
      <trkpt lat="32.97590" lon="-5.06085"></trkpt>
      <trkpt lat="32.97430" lon="-5.05992"></trkpt>
      <trkpt lat="32.97411" lon="-5.05864"></trkpt>
      <trkpt lat="32.97287" lon="-5.05766"></trkpt>
      <trkpt lat="32.97251" lon="-5.05704"></trkpt>
      <trkpt lat="32.97032" lon="-5.05757"></trkpt>
      <trkpt lat="32.96928" lon="-5.05821"></trkpt>
      <trkpt lat="32.96510" lon="-5.05654"></trkpt>
      <trkpt lat="32.96223" lon="-5.05581"></trkpt>
      <trkpt lat="32.95876" lon="-5.05335"></trkpt>
      <trkpt lat="32.95775" lon="-5.05297"></trkpt>
      <trkpt lat="32.95636" lon="-5.05298"></trkpt>
      <trkpt lat="32.95418" lon="-5.05366"></trkpt>
      <trkpt lat="32.94540" lon="-5.05941"></trkpt>
      <trkpt lat="32.94013" lon="-5.06083"></trkpt>
      <trkpt lat="32.93960" lon="-5.06036"></trkpt>
      <trkpt lat="32.93864" lon="-5.05786"></trkpt>
      <trkpt lat="32.93709" lon="-5.05725"></trkpt>
      <trkpt lat="32.93355" lon="-5.05477"></trkpt>
      <trkpt lat="32.93223" lon="-5.05446"></trkpt>
      <trkpt lat="32.93156" lon="-5.05405"></trkpt>
      <trkpt lat="32.92993" lon="-5.05110"></trkpt>
      <trkpt lat="32.90960" lon="-5.03184"></trkpt>
      <trkpt lat="32.90238" lon="-5.02480"></trkpt>
      <trkpt lat="32.90193" lon="-5.02410"></trkpt>
      <trkpt lat="32.88672" lon="-4.97438"></trkpt>
      <trkpt lat="32.88514" lon="-4.95984"></trkpt>
      <trkpt lat="32.88468" lon="-4.95886"></trkpt>
      <trkpt lat="32.88339" lon="-4.95749"></trkpt>
      <trkpt lat="32.88134" lon="-4.95275"></trkpt>
      <trkpt lat="32.87751" lon="-4.94690"></trkpt>
      <trkpt lat="32.87636" lon="-4.94582"></trkpt>
      <trkpt lat="32.87561" lon="-4.94540"></trkpt>
      <trkpt lat="32.87108" lon="-4.94403"></trkpt>
      <trkpt lat="32.86845" lon="-4.94394"></trkpt>
      <trkpt lat="32.85903" lon="-4.94576"></trkpt>
      <trkpt lat="32.85238" lon="-4.94787"></trkpt>
      <trkpt lat="32.84975" lon="-4.94841"></trkpt>
      <trkpt lat="32.84858" lon="-4.94912"></trkpt>
      <trkpt lat="32.84670" lon="-4.95112"></trkpt>
      <trkpt lat="32.84344" lon="-4.95255"></trkpt>
      <trkpt lat="32.83365" lon="-4.96058"></trkpt>
      <trkpt lat="32.83279" lon="-4.96085"></trkpt>
      <trkpt lat="32.82364" lon="-4.96139"></trkpt>
      <trkpt lat="32.82114" lon="-4.95988"></trkpt>
      <trkpt lat="32.82033" lon="-4.95967"></trkpt>
      <trkpt lat="32.81835" lon="-4.95968"></trkpt>
      <trkpt lat="32.81649" lon="-4.95852"></trkpt>
      <trkpt lat="32.80175" lon="-4.94583"></trkpt>
      <trkpt lat="32.79469" lon="-4.94251"></trkpt>
      <trkpt lat="32.79376" lon="-4.94152"></trkpt>
      <trkpt lat="32.79143" lon="-4.93768"></trkpt>
      <trkpt lat="32.79055" lon="-4.93689"></trkpt>
      <trkpt lat="32.75682" lon="-4.92623"></trkpt>
      <trkpt lat="32.75591" lon="-4.92535"></trkpt>
      <trkpt lat="32.74771" lon="-4.91375"></trkpt>
      <trkpt lat="32.74645" lon="-4.91318"></trkpt>
      <trkpt lat="32.74385" lon="-4.91297"></trkpt>
      <trkpt lat="32.73623" lon="-4.90975"></trkpt>
      <trkpt lat="32.73489" lon="-4.90864"></trkpt>
      <trkpt lat="32.72101" lon="-4.88739"></trkpt>
      <trkpt lat="32.72040" lon="-4.88661"></trkpt>
      <trkpt lat="32.71809" lon="-4.88472"></trkpt>
      <trkpt lat="32.71032" lon="-4.87291"></trkpt>
      <trkpt lat="32.70961" lon="-4.87139"></trkpt>
      <trkpt lat="32.70485" lon="-4.85098"></trkpt>
      <trkpt lat="32.70403" lon="-4.84966"></trkpt>
      <trkpt lat="32.69852" lon="-4.84397"></trkpt>
      <trkpt lat="32.69781" lon="-4.84253"></trkpt>
      <trkpt lat="32.69745" lon="-4.82350"></trkpt>
      <trkpt lat="32.69874" lon="-4.81332"></trkpt>
      <trkpt lat="32.69928" lon="-4.81204"></trkpt>
      <trkpt lat="32.70460" lon="-4.80490"></trkpt>
      <trkpt lat="32.70653" lon="-4.79656"></trkpt>
      <trkpt lat="32.70578" lon="-4.77973"></trkpt>
      <trkpt lat="32.70534" lon="-4.77840"></trkpt>
      <trkpt lat="32.70238" lon="-4.77336"></trkpt>
      <trkpt lat="32.70069" lon="-4.76468"></trkpt>
      <trkpt lat="32.70065" lon="-4.76287"></trkpt>
      <trkpt lat="32.70107" lon="-4.76098"></trkpt>
      <trkpt lat="32.70093" lon="-4.75959"></trkpt>
      <trkpt lat="32.70020" lon="-4.75846"></trkpt>
      <trkpt lat="32.70009" lon="-4.75773"></trkpt>
      <trkpt lat="32.69848" lon="-4.75455"></trkpt>
      <trkpt lat="32.69724" lon="-4.75362"></trkpt>
      <trkpt lat="32.69478" lon="-4.75307"></trkpt>
      <trkpt lat="32.69305" lon="-4.75189"></trkpt>
      <trkpt lat="32.68624" lon="-4.74403"></trkpt>
      <trkpt lat="32.68341" lon="-4.74307"></trkpt>
      <trkpt lat="32.68235" lon="-4.74325"></trkpt>
      <trkpt lat="32.68082" lon="-4.74311"></trkpt>
      <trkpt lat="32.68028" lon="-4.74333"></trkpt>
      <trkpt lat="32.68017" lon="-4.74373"></trkpt>
      <trkpt lat="32.68036" lon="-4.74405"></trkpt>
    </trkseg>
  </trk>
</gpx>
