<?xml version="1.0" encoding="UTF-8"?>
<gpx version="1.1" creator="Marokko Motorreis 2026"
     xmlns="http://www.topografix.com/GPX/1/1"
     xmlns:xsi="http://www.w3.org/2001/XMLSchema-instance"
     xsi:schemaLocation="http://www.topografix.com/GPX/1/1 http://www.topografix.com/GPX/1/1/gpx.xsd">
  <metadata><name>Dag 4 (15 okt) Midelt - Ziz-vallei - Merzouga</name><desc>268 km, ca. 4u44 rijden. N13 door de Ziz-vallei de Sahara in. Voor zonsondergang bij Erg Chebbi. Tanken!</desc></metadata>
  <wpt lat="32.680360" lon="-4.744051"><name>Midelt</name><sym>Flag, Blue</sym></wpt>
  <wpt lat="32.257888" lon="-4.506003"><name>Rich - Tunnel du Legionnaire (N13)</name><sym>Flag, Blue</sym></wpt>
  <wpt lat="31.931489" lon="-4.424293"><name>Errachidia</name><sym>Flag, Blue</sym></wpt>
  <wpt lat="31.688389" lon="-4.179387"><name>Aoufous - Ziz-vallei (N13)</name><sym>Flag, Blue</sym></wpt>
  <wpt lat="31.437037" lon="-4.238055"><name>Erfoud</name><sym>Flag, Blue</sym></wpt>
  <wpt lat="31.099075" lon="-4.013307"><name>Merzouga - Erg Chebbi</name><sym>Flag, Blue</sym></wpt>
  <trk>
    <name>Dag 4 (15 okt) Midelt - Ziz-vallei - Merzouga</name>
    <desc>268 km, ca. 4u44 rijden. N13 door de Ziz-vallei de Sahara in. Voor zonsondergang bij Erg Chebbi. Tanken!</desc>
    <trkseg>
      <trkpt lat="32.68036" lon="-4.74405"></trkpt>
      <trkpt lat="32.68018" lon="-4.74355"></trkpt>
      <trkpt lat="32.68051" lon="-4.74254"></trkpt>
      <trkpt lat="32.67926" lon="-4.74001"></trkpt>
      <trkpt lat="32.67918" lon="-4.73902"></trkpt>
      <trkpt lat="32.67970" lon="-4.73567"></trkpt>
      <trkpt lat="32.67944" lon="-4.73409"></trkpt>
      <trkpt lat="32.67868" lon="-4.73235"></trkpt>
      <trkpt lat="32.67861" lon="-4.73145"></trkpt>
      <trkpt lat="32.68029" lon="-4.72466"></trkpt>
      <trkpt lat="32.68102" lon="-4.71990"></trkpt>
      <trkpt lat="32.68117" lon="-4.71587"></trkpt>
      <trkpt lat="32.68315" lon="-4.70747"></trkpt>
      <trkpt lat="32.68303" lon="-4.70258"></trkpt>
      <trkpt lat="32.68282" lon="-4.70206"></trkpt>
      <trkpt lat="32.68339" lon="-4.69224"></trkpt>
      <trkpt lat="32.68071" lon="-4.68055"></trkpt>
      <trkpt lat="32.67918" lon="-4.67129"></trkpt>
      <trkpt lat="32.67924" lon="-4.65733"></trkpt>
      <trkpt lat="32.67900" lon="-4.65430"></trkpt>
      <trkpt lat="32.67795" lon="-4.64960"></trkpt>
      <trkpt lat="32.67702" lon="-4.64705"></trkpt>
      <trkpt lat="32.65955" lon="-4.60928"></trkpt>
      <trkpt lat="32.65703" lon="-4.60151"></trkpt>
      <trkpt lat="32.65655" lon="-4.59869"></trkpt>
      <trkpt lat="32.65668" lon="-4.58941"></trkpt>
      <trkpt lat="32.65709" lon="-4.58827"></trkpt>
      <trkpt lat="32.65921" lon="-4.58529"></trkpt>
      <trkpt lat="32.65949" lon="-4.58395"></trkpt>
      <trkpt lat="32.65541" lon="-4.57211"></trkpt>
      <trkpt lat="32.65400" lon="-4.56935"></trkpt>
      <trkpt lat="32.65237" lon="-4.56735"></trkpt>
      <trkpt lat="32.63394" lon="-4.54999"></trkpt>
      <trkpt lat="32.63011" lon="-4.54768"></trkpt>
      <trkpt lat="32.62700" lon="-4.54527"></trkpt>
      <trkpt lat="32.62665" lon="-4.54418"></trkpt>
      <trkpt lat="32.62703" lon="-4.54212"></trkpt>
      <trkpt lat="32.62684" lon="-4.54011"></trkpt>
      <trkpt lat="32.62659" lon="-4.53960"></trkpt>
      <trkpt lat="32.62545" lon="-4.53894"></trkpt>
      <trkpt lat="32.62524" lon="-4.53808"></trkpt>
      <trkpt lat="32.62568" lon="-4.53750"></trkpt>
      <trkpt lat="32.62664" lon="-4.53708"></trkpt>
      <trkpt lat="32.62777" lon="-4.53704"></trkpt>
      <trkpt lat="32.62826" lon="-4.53671"></trkpt>
      <trkpt lat="32.62994" lon="-4.53357"></trkpt>
      <trkpt lat="32.62997" lon="-4.53298"></trkpt>
      <trkpt lat="32.62963" lon="-4.53251"></trkpt>
      <trkpt lat="32.62792" lon="-4.53257"></trkpt>
      <trkpt lat="32.62695" lon="-4.53360"></trkpt>
      <trkpt lat="32.62550" lon="-4.53396"></trkpt>
      <trkpt lat="32.62442" lon="-4.53377"></trkpt>
      <trkpt lat="32.62310" lon="-4.53232"></trkpt>
      <trkpt lat="32.62162" lon="-4.53247"></trkpt>
      <trkpt lat="32.62089" lon="-4.53305"></trkpt>
      <trkpt lat="32.62037" lon="-4.53317"></trkpt>
      <trkpt lat="32.61881" lon="-4.53182"></trkpt>
      <trkpt lat="32.61697" lon="-4.53092"></trkpt>
      <trkpt lat="32.61518" lon="-4.53047"></trkpt>
      <trkpt lat="32.61107" lon="-4.52890"></trkpt>
      <trkpt lat="32.60976" lon="-4.52913"></trkpt>
      <trkpt lat="32.60914" lon="-4.52895"></trkpt>
      <trkpt lat="32.60866" lon="-4.52834"></trkpt>
      <trkpt lat="32.60847" lon="-4.52713"></trkpt>
      <trkpt lat="32.60805" lon="-4.52674"></trkpt>
      <trkpt lat="32.60748" lon="-4.52690"></trkpt>
      <trkpt lat="32.60612" lon="-4.52826"></trkpt>
      <trkpt lat="32.60567" lon="-4.52828"></trkpt>
      <trkpt lat="32.60408" lon="-4.52754"></trkpt>
      <trkpt lat="32.60238" lon="-4.53002"></trkpt>
      <trkpt lat="32.60077" lon="-4.53066"></trkpt>
      <trkpt lat="32.59862" lon="-4.53034"></trkpt>
      <trkpt lat="32.59579" lon="-4.52848"></trkpt>
      <trkpt lat="32.59376" lon="-4.52414"></trkpt>
      <trkpt lat="32.59319" lon="-4.52235"></trkpt>
      <trkpt lat="32.59259" lon="-4.51879"></trkpt>
      <trkpt lat="32.59277" lon="-4.51090"></trkpt>
      <trkpt lat="32.59338" lon="-4.50597"></trkpt>
      <trkpt lat="32.59316" lon="-4.50444"></trkpt>
      <trkpt lat="32.59262" lon="-4.50313"></trkpt>
      <trkpt lat="32.58621" lon="-4.49513"></trkpt>
      <trkpt lat="32.57503" lon="-4.48789"></trkpt>
      <trkpt lat="32.57347" lon="-4.48761"></trkpt>
      <trkpt lat="32.56952" lon="-4.48799"></trkpt>
      <trkpt lat="32.56503" lon="-4.48905"></trkpt>
      <trkpt lat="32.54660" lon="-4.48768"></trkpt>
      <trkpt lat="32.53998" lon="-4.48615"></trkpt>
      <trkpt lat="32.53559" lon="-4.48457"></trkpt>
      <trkpt lat="32.53104" lon="-4.48346"></trkpt>
      <trkpt lat="32.52543" lon="-4.48252"></trkpt>
      <trkpt lat="32.52068" lon="-4.48201"></trkpt>
      <trkpt lat="32.51187" lon="-4.48311"></trkpt>
      <trkpt lat="32.50367" lon="-4.48362"></trkpt>
      <trkpt lat="32.48153" lon="-4.49065"></trkpt>
      <trkpt lat="32.47871" lon="-4.49128"></trkpt>
      <trkpt lat="32.47575" lon="-4.49237"></trkpt>
      <trkpt lat="32.46928" lon="-4.49705"></trkpt>
      <trkpt lat="32.46361" lon="-4.49855"></trkpt>
      <trkpt lat="32.46104" lon="-4.50057"></trkpt>
      <trkpt lat="32.46001" lon="-4.50081"></trkpt>
      <trkpt lat="32.45933" lon="-4.50057"></trkpt>
      <trkpt lat="32.45746" lon="-4.49869"></trkpt>
      <trkpt lat="32.45696" lon="-4.49846"></trkpt>
      <trkpt lat="32.45616" lon="-4.49847"></trkpt>
      <trkpt lat="32.45391" lon="-4.49922"></trkpt>
      <trkpt lat="32.45263" lon="-4.49853"></trkpt>
      <trkpt lat="32.45227" lon="-4.49771"></trkpt>
      <trkpt lat="32.45305" lon="-4.49568"></trkpt>
      <trkpt lat="32.45276" lon="-4.49393"></trkpt>
      <trkpt lat="32.45147" lon="-4.49256"></trkpt>
      <trkpt lat="32.45121" lon="-4.49094"></trkpt>
      <trkpt lat="32.45031" lon="-4.48912"></trkpt>
      <trkpt lat="32.44844" lon="-4.48731"></trkpt>
      <trkpt lat="32.44686" lon="-4.48662"></trkpt>
      <trkpt lat="32.44340" lon="-4.48752"></trkpt>
      <trkpt lat="32.44255" lon="-4.48733"></trkpt>
      <trkpt lat="32.44026" lon="-4.48453"></trkpt>
      <trkpt lat="32.43502" lon="-4.48145"></trkpt>
      <trkpt lat="32.43407" lon="-4.48050"></trkpt>
      <trkpt lat="32.43352" lon="-4.47942"></trkpt>
      <trkpt lat="32.43340" lon="-4.47849"></trkpt>
      <trkpt lat="32.43390" lon="-4.47600"></trkpt>
      <trkpt lat="32.43311" lon="-4.47409"></trkpt>
      <trkpt lat="32.43165" lon="-4.47344"></trkpt>
      <trkpt lat="32.43002" lon="-4.47366"></trkpt>
      <trkpt lat="32.42052" lon="-4.48037"></trkpt>
      <trkpt lat="32.40155" lon="-4.49625"></trkpt>
      <trkpt lat="32.39660" lon="-4.49993"></trkpt>
      <trkpt lat="32.39407" lon="-4.50295"></trkpt>
      <trkpt lat="32.39258" lon="-4.50344"></trkpt>
      <trkpt lat="32.38703" lon="-4.50264"></trkpt>
      <trkpt lat="32.38541" lon="-4.50321"></trkpt>
      <trkpt lat="32.34223" lon="-4.54254"></trkpt>
      <trkpt lat="32.33775" lon="-4.54625"></trkpt>
      <trkpt lat="32.33183" lon="-4.55189"></trkpt>
      <trkpt lat="32.33078" lon="-4.55241"></trkpt>
      <trkpt lat="32.32960" lon="-4.55234"></trkpt>
      <trkpt lat="32.32791" lon="-4.55147"></trkpt>
      <trkpt lat="32.32623" lon="-4.54938"></trkpt>
      <trkpt lat="32.32563" lon="-4.54933"></trkpt>
      <trkpt lat="32.32445" lon="-4.54979"></trkpt>
      <trkpt lat="32.32359" lon="-4.54941"></trkpt>
      <trkpt lat="32.32135" lon="-4.54944"></trkpt>
      <trkpt lat="32.31894" lon="-4.54780"></trkpt>
      <trkpt lat="32.31094" lon="-4.54468"></trkpt>
      <trkpt lat="32.30601" lon="-4.54137"></trkpt>
      <trkpt lat="32.30080" lon="-4.53186"></trkpt>
      <trkpt lat="32.28321" lon="-4.50483"></trkpt>
      <trkpt lat="32.27898" lon="-4.49615"></trkpt>
      <trkpt lat="32.27459" lon="-4.48600"></trkpt>
      <trkpt lat="32.27424" lon="-4.48603"></trkpt>
      <trkpt lat="32.26174" lon="-4.49445"></trkpt>
      <trkpt lat="32.26034" lon="-4.49672"></trkpt>
      <trkpt lat="32.25910" lon="-4.50582"></trkpt>
      <trkpt lat="32.25789" lon="-4.50582"></trkpt>
      <trkpt lat="32.25782" lon="-4.50689"></trkpt>
      <trkpt lat="32.25853" lon="-4.50714"></trkpt>
      <trkpt lat="32.25878" lon="-4.50589"></trkpt>
      <trkpt lat="32.25904" lon="-4.50566"></trkpt>
      <trkpt lat="32.26034" lon="-4.49672"></trkpt>
      <trkpt lat="32.26174" lon="-4.49445"></trkpt>
      <trkpt lat="32.27424" lon="-4.48603"></trkpt>
      <trkpt lat="32.27447" lon="-4.48567"></trkpt>
      <trkpt lat="32.27416" lon="-4.48438"></trkpt>
      <trkpt lat="32.27368" lon="-4.47388"></trkpt>
      <trkpt lat="32.27141" lon="-4.47012"></trkpt>
      <trkpt lat="32.27040" lon="-4.46773"></trkpt>
      <trkpt lat="32.26454" lon="-4.45785"></trkpt>
      <trkpt lat="32.26315" lon="-4.45441"></trkpt>
      <trkpt lat="32.26281" lon="-4.45282"></trkpt>
      <trkpt lat="32.26239" lon="-4.44809"></trkpt>
      <trkpt lat="32.26246" lon="-4.44594"></trkpt>
      <trkpt lat="32.26306" lon="-4.44264"></trkpt>
      <trkpt lat="32.26620" lon="-4.43051"></trkpt>
      <trkpt lat="32.26641" lon="-4.41430"></trkpt>
      <trkpt lat="32.26592" lon="-4.41303"></trkpt>
      <trkpt lat="32.26506" lon="-4.41238"></trkpt>
      <trkpt lat="32.26414" lon="-4.41232"></trkpt>
      <trkpt lat="32.26195" lon="-4.41326"></trkpt>
      <trkpt lat="32.26081" lon="-4.41337"></trkpt>
      <trkpt lat="32.25959" lon="-4.41265"></trkpt>
      <trkpt lat="32.25883" lon="-4.41139"></trkpt>
      <trkpt lat="32.25867" lon="-4.40997"></trkpt>
      <trkpt lat="32.25890" lon="-4.40706"></trkpt>
      <trkpt lat="32.26108" lon="-4.39532"></trkpt>
      <trkpt lat="32.26042" lon="-4.39350"></trkpt>
      <trkpt lat="32.25817" lon="-4.39156"></trkpt>
      <trkpt lat="32.25667" lon="-4.38882"></trkpt>
      <trkpt lat="32.25558" lon="-4.38755"></trkpt>
      <trkpt lat="32.25413" lon="-4.38676"></trkpt>
      <trkpt lat="32.25264" lon="-4.38698"></trkpt>
      <trkpt lat="32.25053" lon="-4.38852"></trkpt>
      <trkpt lat="32.24734" lon="-4.39148"></trkpt>
      <trkpt lat="32.24542" lon="-4.39279"></trkpt>
      <trkpt lat="32.23450" lon="-4.39883"></trkpt>
      <trkpt lat="32.23292" lon="-4.39930"></trkpt>
      <trkpt lat="32.23105" lon="-4.39928"></trkpt>
      <trkpt lat="32.22940" lon="-4.39865"></trkpt>
      <trkpt lat="32.20900" lon="-4.38723"></trkpt>
      <trkpt lat="32.19606" lon="-4.37701"></trkpt>
      <trkpt lat="32.18925" lon="-4.36953"></trkpt>
      <trkpt lat="32.18480" lon="-4.36611"></trkpt>
      <trkpt lat="32.18236" lon="-4.36346"></trkpt>
      <trkpt lat="32.18111" lon="-4.36275"></trkpt>
      <trkpt lat="32.18035" lon="-4.36262"></trkpt>
      <trkpt lat="32.17902" lon="-4.36282"></trkpt>
      <trkpt lat="32.17751" lon="-4.36258"></trkpt>
      <trkpt lat="32.17679" lon="-4.36279"></trkpt>
      <trkpt lat="32.17570" lon="-4.36375"></trkpt>
      <trkpt lat="32.17519" lon="-4.36496"></trkpt>
      <trkpt lat="32.17500" lon="-4.36635"></trkpt>
      <trkpt lat="32.17451" lon="-4.36707"></trkpt>
      <trkpt lat="32.17407" lon="-4.36918"></trkpt>
      <trkpt lat="32.17374" lon="-4.36912"></trkpt>
      <trkpt lat="32.17340" lon="-4.36825"></trkpt>
      <trkpt lat="32.17288" lon="-4.36784"></trkpt>
      <trkpt lat="32.17127" lon="-4.36788"></trkpt>
      <trkpt lat="32.17029" lon="-4.36859"></trkpt>
      <trkpt lat="32.16971" lon="-4.36986"></trkpt>
      <trkpt lat="32.16850" lon="-4.37086"></trkpt>
      <trkpt lat="32.16782" lon="-4.37052"></trkpt>
      <trkpt lat="32.16695" lon="-4.36916"></trkpt>
      <trkpt lat="32.16492" lon="-4.36692"></trkpt>
      <trkpt lat="32.16175" lon="-4.36405"></trkpt>
      <trkpt lat="32.15979" lon="-4.36316"></trkpt>
      <trkpt lat="32.15791" lon="-4.36334"></trkpt>
      <trkpt lat="32.15629" lon="-4.36433"></trkpt>
      <trkpt lat="32.15508" lon="-4.36594"></trkpt>
      <trkpt lat="32.15454" lon="-4.36775"></trkpt>
      <trkpt lat="32.15440" lon="-4.37184"></trkpt>
      <trkpt lat="32.15405" lon="-4.37376"></trkpt>
      <trkpt lat="32.15336" lon="-4.37477"></trkpt>
      <trkpt lat="32.15225" lon="-4.37512"></trkpt>
      <trkpt lat="32.15014" lon="-4.37444"></trkpt>
      <trkpt lat="32.14817" lon="-4.37217"></trkpt>
      <trkpt lat="32.14751" lon="-4.37087"></trkpt>
      <trkpt lat="32.14677" lon="-4.36764"></trkpt>
      <trkpt lat="32.14595" lon="-4.36648"></trkpt>
      <trkpt lat="32.14413" lon="-4.36515"></trkpt>
      <trkpt lat="32.14041" lon="-4.36349"></trkpt>
      <trkpt lat="32.13637" lon="-4.36355"></trkpt>
      <trkpt lat="32.13176" lon="-4.36537"></trkpt>
      <trkpt lat="32.12824" lon="-4.36594"></trkpt>
      <trkpt lat="32.12723" lon="-4.36568"></trkpt>
      <trkpt lat="32.12522" lon="-4.36430"></trkpt>
      <trkpt lat="32.12217" lon="-4.36433"></trkpt>
      <trkpt lat="32.11862" lon="-4.36276"></trkpt>
      <trkpt lat="32.11723" lon="-4.36261"></trkpt>
      <trkpt lat="32.11503" lon="-4.36350"></trkpt>
      <trkpt lat="32.11077" lon="-4.36474"></trkpt>
      <trkpt lat="32.10789" lon="-4.36449"></trkpt>
      <trkpt lat="32.10448" lon="-4.36531"></trkpt>
      <trkpt lat="32.09998" lon="-4.36561"></trkpt>
      <trkpt lat="32.09856" lon="-4.36629"></trkpt>
      <trkpt lat="32.09739" lon="-4.36746"></trkpt>
      <trkpt lat="32.09483" lon="-4.37144"></trkpt>
      <trkpt lat="32.09417" lon="-4.37385"></trkpt>
      <trkpt lat="32.09360" lon="-4.37770"></trkpt>
      <trkpt lat="32.09212" lon="-4.37972"></trkpt>
      <trkpt lat="32.09152" lon="-4.38100"></trkpt>
      <trkpt lat="32.09089" lon="-4.38113"></trkpt>
      <trkpt lat="32.08686" lon="-4.38032"></trkpt>
      <trkpt lat="32.08507" lon="-4.38065"></trkpt>
      <trkpt lat="32.08234" lon="-4.38206"></trkpt>
      <trkpt lat="32.08066" lon="-4.38724"></trkpt>
      <trkpt lat="32.07989" lon="-4.38825"></trkpt>
      <trkpt lat="32.07900" lon="-4.38855"></trkpt>
      <trkpt lat="32.07649" lon="-4.38865"></trkpt>
      <trkpt lat="32.07297" lon="-4.38831"></trkpt>
      <trkpt lat="32.07089" lon="-4.38984"></trkpt>
      <trkpt lat="32.06947" lon="-4.39048"></trkpt>
      <trkpt lat="32.06870" lon="-4.39131"></trkpt>
      <trkpt lat="32.06674" lon="-4.39438"></trkpt>
      <trkpt lat="32.06615" lon="-4.39884"></trkpt>
      <trkpt lat="32.06535" lon="-4.40085"></trkpt>
      <trkpt lat="32.06267" lon="-4.40461"></trkpt>
      <trkpt lat="32.05819" lon="-4.40786"></trkpt>
      <trkpt lat="32.05600" lon="-4.40839"></trkpt>
      <trkpt lat="32.05368" lon="-4.41012"></trkpt>
      <trkpt lat="32.05317" lon="-4.41029"></trkpt>
      <trkpt lat="32.05272" lon="-4.41016"></trkpt>
      <trkpt lat="32.05218" lon="-4.40952"></trkpt>
      <trkpt lat="32.05164" lon="-4.40697"></trkpt>
      <trkpt lat="32.05004" lon="-4.40469"></trkpt>
      <trkpt lat="32.04953" lon="-4.40309"></trkpt>
      <trkpt lat="32.04839" lon="-4.40237"></trkpt>
      <trkpt lat="32.04780" lon="-4.40240"></trkpt>
      <trkpt lat="32.04716" lon="-4.40280"></trkpt>
      <trkpt lat="32.04662" lon="-4.40415"></trkpt>
      <trkpt lat="32.04714" lon="-4.40837"></trkpt>
      <trkpt lat="32.04702" lon="-4.40957"></trkpt>
      <trkpt lat="32.04597" lon="-4.41122"></trkpt>
      <trkpt lat="32.04318" lon="-4.41680"></trkpt>
      <trkpt lat="32.04081" lon="-4.41920"></trkpt>
      <trkpt lat="32.03987" lon="-4.42248"></trkpt>
      <trkpt lat="32.03929" lon="-4.42318"></trkpt>
      <trkpt lat="32.03696" lon="-4.42461"></trkpt>
      <trkpt lat="32.03474" lon="-4.42738"></trkpt>
      <trkpt lat="32.03252" lon="-4.42809"></trkpt>
      <trkpt lat="32.03134" lon="-4.42878"></trkpt>
      <trkpt lat="32.03026" lon="-4.42995"></trkpt>
      <trkpt lat="32.02947" lon="-4.43167"></trkpt>
      <trkpt lat="32.02744" lon="-4.44501"></trkpt>
      <trkpt lat="32.02739" lon="-4.44656"></trkpt>
      <trkpt lat="32.02815" lon="-4.44865"></trkpt>
      <trkpt lat="32.03107" lon="-4.45157"></trkpt>
      <trkpt lat="32.03149" lon="-4.45272"></trkpt>
      <trkpt lat="32.03153" lon="-4.45399"></trkpt>
      <trkpt lat="32.03116" lon="-4.45519"></trkpt>
      <trkpt lat="32.03048" lon="-4.45614"></trkpt>
      <trkpt lat="32.02657" lon="-4.45880"></trkpt>
      <trkpt lat="32.02557" lon="-4.46026"></trkpt>
      <trkpt lat="32.02505" lon="-4.46160"></trkpt>
      <trkpt lat="32.02487" lon="-4.46418"></trkpt>
      <trkpt lat="32.02591" lon="-4.46890"></trkpt>
      <trkpt lat="32.02625" lon="-4.47162"></trkpt>
      <trkpt lat="32.02585" lon="-4.47394"></trkpt>
      <trkpt lat="32.02481" lon="-4.47597"></trkpt>
      <trkpt lat="32.02301" lon="-4.47757"></trkpt>
      <trkpt lat="32.01425" lon="-4.48148"></trkpt>
      <trkpt lat="31.99089" lon="-4.49676"></trkpt>
      <trkpt lat="31.98826" lon="-4.49775"></trkpt>
      <trkpt lat="31.98616" lon="-4.49808"></trkpt>
      <trkpt lat="31.98349" lon="-4.49795"></trkpt>
      <trkpt lat="31.98143" lon="-4.49741"></trkpt>
      <trkpt lat="31.97908" lon="-4.49626"></trkpt>
      <trkpt lat="31.97523" lon="-4.49346"></trkpt>
      <trkpt lat="31.97472" lon="-4.49332"></trkpt>
      <trkpt lat="31.97428" lon="-4.49279"></trkpt>
      <trkpt lat="31.96161" lon="-4.48325"></trkpt>
      <trkpt lat="31.94111" lon="-4.46098"></trkpt>
      <trkpt lat="31.93697" lon="-4.45723"></trkpt>
      <trkpt lat="31.93032" lon="-4.45234"></trkpt>
      <trkpt lat="31.93064" lon="-4.44892"></trkpt>
      <trkpt lat="31.93041" lon="-4.44653"></trkpt>
      <trkpt lat="31.92990" lon="-4.44448"></trkpt>
      <trkpt lat="31.92510" lon="-4.44190"></trkpt>
      <trkpt lat="31.92400" lon="-4.43901"></trkpt>
      <trkpt lat="31.92335" lon="-4.43499"></trkpt>
      <trkpt lat="31.92288" lon="-4.43366"></trkpt>
      <trkpt lat="31.93108" lon="-4.42523"></trkpt>
      <trkpt lat="31.93063" lon="-4.42458"></trkpt>
      <trkpt lat="31.93122" lon="-4.42398"></trkpt>
      <trkpt lat="31.93161" lon="-4.42443"></trkpt>
      <trkpt lat="31.93122" lon="-4.42398"></trkpt>
      <trkpt lat="31.93213" lon="-4.42300"></trkpt>
      <trkpt lat="31.93265" lon="-4.42360"></trkpt>
      <trkpt lat="31.93353" lon="-4.42293"></trkpt>
      <trkpt lat="31.93645" lon="-4.42207"></trkpt>
      <trkpt lat="31.93962" lon="-4.41864"></trkpt>
      <trkpt lat="31.94163" lon="-4.41175"></trkpt>
      <trkpt lat="31.94173" lon="-4.40972"></trkpt>
      <trkpt lat="31.93993" lon="-4.40781"></trkpt>
      <trkpt lat="31.93692" lon="-4.40527"></trkpt>
      <trkpt lat="31.93380" lon="-4.40000"></trkpt>
      <trkpt lat="31.93165" lon="-4.39396"></trkpt>
      <trkpt lat="31.91077" lon="-4.36236"></trkpt>
      <trkpt lat="31.90269" lon="-4.34939"></trkpt>
      <trkpt lat="31.90070" lon="-4.34531"></trkpt>
      <trkpt lat="31.89850" lon="-4.33694"></trkpt>
      <trkpt lat="31.89614" lon="-4.33178"></trkpt>
      <trkpt lat="31.87487" lon="-4.30293"></trkpt>
      <trkpt lat="31.86473" lon="-4.28715"></trkpt>
      <trkpt lat="31.86318" lon="-4.28348"></trkpt>
      <trkpt lat="31.86087" lon="-4.27667"></trkpt>
      <trkpt lat="31.86059" lon="-4.27397"></trkpt>
      <trkpt lat="31.86094" lon="-4.26960"></trkpt>
      <trkpt lat="31.86018" lon="-4.26748"></trkpt>
      <trkpt lat="31.85912" lon="-4.26641"></trkpt>
      <trkpt lat="31.85200" lon="-4.26158"></trkpt>
      <trkpt lat="31.85122" lon="-4.26037"></trkpt>
      <trkpt lat="31.85035" lon="-4.25766"></trkpt>
      <trkpt lat="31.84748" lon="-4.25313"></trkpt>
      <trkpt lat="31.84431" lon="-4.24948"></trkpt>
      <trkpt lat="31.84190" lon="-4.24803"></trkpt>
      <trkpt lat="31.80071" lon="-4.23575"></trkpt>
      <trkpt lat="31.79919" lon="-4.23578"></trkpt>
      <trkpt lat="31.79084" lon="-4.23857"></trkpt>
      <trkpt lat="31.79009" lon="-4.23859"></trkpt>
      <trkpt lat="31.78949" lon="-4.23831"></trkpt>
      <trkpt lat="31.78888" lon="-4.23752"></trkpt>
      <trkpt lat="31.78537" lon="-4.22900"></trkpt>
      <trkpt lat="31.78274" lon="-4.22627"></trkpt>
      <trkpt lat="31.77872" lon="-4.22293"></trkpt>
      <trkpt lat="31.77389" lon="-4.22053"></trkpt>
      <trkpt lat="31.77290" lon="-4.21967"></trkpt>
      <trkpt lat="31.76972" lon="-4.21421"></trkpt>
      <trkpt lat="31.76788" lon="-4.21278"></trkpt>
      <trkpt lat="31.76720" lon="-4.21196"></trkpt>
      <trkpt lat="31.76332" lon="-4.20211"></trkpt>
      <trkpt lat="31.76107" lon="-4.19955"></trkpt>
      <trkpt lat="31.75881" lon="-4.19772"></trkpt>
      <trkpt lat="31.75550" lon="-4.19643"></trkpt>
      <trkpt lat="31.75105" lon="-4.19643"></trkpt>
      <trkpt lat="31.74934" lon="-4.19596"></trkpt>
      <trkpt lat="31.74791" lon="-4.19508"></trkpt>
      <trkpt lat="31.74708" lon="-4.19534"></trkpt>
      <trkpt lat="31.74543" lon="-4.19703"></trkpt>
      <trkpt lat="31.74432" lon="-4.19782"></trkpt>
      <trkpt lat="31.74122" lon="-4.19863"></trkpt>
      <trkpt lat="31.74006" lon="-4.19859"></trkpt>
      <trkpt lat="31.73761" lon="-4.19802"></trkpt>
      <trkpt lat="31.73527" lon="-4.19822"></trkpt>
      <trkpt lat="31.73253" lon="-4.19775"></trkpt>
      <trkpt lat="31.73044" lon="-4.19767"></trkpt>
      <trkpt lat="31.72830" lon="-4.19670"></trkpt>
      <trkpt lat="31.72799" lon="-4.19513"></trkpt>
      <trkpt lat="31.72712" lon="-4.19324"></trkpt>
      <trkpt lat="31.72699" lon="-4.19220"></trkpt>
      <trkpt lat="31.72583" lon="-4.19044"></trkpt>
      <trkpt lat="31.72493" lon="-4.18969"></trkpt>
      <trkpt lat="31.72408" lon="-4.18788"></trkpt>
      <trkpt lat="31.71965" lon="-4.18454"></trkpt>
      <trkpt lat="31.71670" lon="-4.18296"></trkpt>
      <trkpt lat="31.71534" lon="-4.18185"></trkpt>
      <trkpt lat="31.71466" lon="-4.18193"></trkpt>
      <trkpt lat="31.71396" lon="-4.18281"></trkpt>
      <trkpt lat="31.71174" lon="-4.18412"></trkpt>
      <trkpt lat="31.71014" lon="-4.18563"></trkpt>
      <trkpt lat="31.70904" lon="-4.18624"></trkpt>
      <trkpt lat="31.70673" lon="-4.18861"></trkpt>
      <trkpt lat="31.70598" lon="-4.18888"></trkpt>
      <trkpt lat="31.70229" lon="-4.18891"></trkpt>
      <trkpt lat="31.70141" lon="-4.18865"></trkpt>
      <trkpt lat="31.70046" lon="-4.18794"></trkpt>
      <trkpt lat="31.69981" lon="-4.18698"></trkpt>
      <trkpt lat="31.69897" lon="-4.18641"></trkpt>
      <trkpt lat="31.69859" lon="-4.18556"></trkpt>
      <trkpt lat="31.69723" lon="-4.18387"></trkpt>
      <trkpt lat="31.69359" lon="-4.18232"></trkpt>
      <trkpt lat="31.69163" lon="-4.18189"></trkpt>
      <trkpt lat="31.68984" lon="-4.18101"></trkpt>
      <trkpt lat="31.68823" lon="-4.17957"></trkpt>
      <trkpt lat="31.68885" lon="-4.17896"></trkpt>
      <trkpt lat="31.68836" lon="-4.17825"></trkpt>
      <trkpt lat="31.68748" lon="-4.17908"></trkpt>
      <trkpt lat="31.68645" lon="-4.17857"></trkpt>
      <trkpt lat="31.68442" lon="-4.17817"></trkpt>
      <trkpt lat="31.68337" lon="-4.17884"></trkpt>
      <trkpt lat="31.68236" lon="-4.18088"></trkpt>
      <trkpt lat="31.68134" lon="-4.18178"></trkpt>
      <trkpt lat="31.67932" lon="-4.18440"></trkpt>
      <trkpt lat="31.67557" lon="-4.18805"></trkpt>
      <trkpt lat="31.67081" lon="-4.19046"></trkpt>
      <trkpt lat="31.66791" lon="-4.19100"></trkpt>
      <trkpt lat="31.66698" lon="-4.19094"></trkpt>
      <trkpt lat="31.66378" lon="-4.18996"></trkpt>
      <trkpt lat="31.66056" lon="-4.18835"></trkpt>
      <trkpt lat="31.65730" lon="-4.18711"></trkpt>
      <trkpt lat="31.65478" lon="-4.18659"></trkpt>
      <trkpt lat="31.65373" lon="-4.18663"></trkpt>
      <trkpt lat="31.65060" lon="-4.18821"></trkpt>
      <trkpt lat="31.64580" lon="-4.19213"></trkpt>
      <trkpt lat="31.64466" lon="-4.19335"></trkpt>
      <trkpt lat="31.64222" lon="-4.19467"></trkpt>
      <trkpt lat="31.63987" lon="-4.19662"></trkpt>
      <trkpt lat="31.62617" lon="-4.20309"></trkpt>
      <trkpt lat="31.61504" lon="-4.20647"></trkpt>
      <trkpt lat="31.60301" lon="-4.20643"></trkpt>
      <trkpt lat="31.60176" lon="-4.20613"></trkpt>
      <trkpt lat="31.59460" lon="-4.20299"></trkpt>
      <trkpt lat="31.58216" lon="-4.19654"></trkpt>
      <trkpt lat="31.56324" lon="-4.18573"></trkpt>
      <trkpt lat="31.56005" lon="-4.18426"></trkpt>
      <trkpt lat="31.55916" lon="-4.18413"></trkpt>
      <trkpt lat="31.54832" lon="-4.18467"></trkpt>
      <trkpt lat="31.54490" lon="-4.18507"></trkpt>
      <trkpt lat="31.54013" lon="-4.18617"></trkpt>
      <trkpt lat="31.53716" lon="-4.18536"></trkpt>
      <trkpt lat="31.52910" lon="-4.18480"></trkpt>
      <trkpt lat="31.52786" lon="-4.18525"></trkpt>
      <trkpt lat="31.52053" lon="-4.19003"></trkpt>
      <trkpt lat="31.50724" lon="-4.20194"></trkpt>
      <trkpt lat="31.50554" lon="-4.20238"></trkpt>
      <trkpt lat="31.49958" lon="-4.20176"></trkpt>
      <trkpt lat="31.49526" lon="-4.20377"></trkpt>
      <trkpt lat="31.49032" lon="-4.20899"></trkpt>
      <trkpt lat="31.48371" lon="-4.21649"></trkpt>
      <trkpt lat="31.48191" lon="-4.21681"></trkpt>
      <trkpt lat="31.47303" lon="-4.21638"></trkpt>
      <trkpt lat="31.46942" lon="-4.21742"></trkpt>
      <trkpt lat="31.46799" lon="-4.21631"></trkpt>
      <trkpt lat="31.46608" lon="-4.21717"></trkpt>
      <trkpt lat="31.46430" lon="-4.21659"></trkpt>
      <trkpt lat="31.46356" lon="-4.21675"></trkpt>
      <trkpt lat="31.46130" lon="-4.21865"></trkpt>
      <trkpt lat="31.45877" lon="-4.22136"></trkpt>
      <trkpt lat="31.45711" lon="-4.22222"></trkpt>
      <trkpt lat="31.45268" lon="-4.22565"></trkpt>
      <trkpt lat="31.44958" lon="-4.22639"></trkpt>
      <trkpt lat="31.44628" lon="-4.22775"></trkpt>
      <trkpt lat="31.44252" lon="-4.23006"></trkpt>
      <trkpt lat="31.43472" lon="-4.23375"></trkpt>
      <trkpt lat="31.43625" lon="-4.23707"></trkpt>
      <trkpt lat="31.43690" lon="-4.23780"></trkpt>
      <trkpt lat="31.43653" lon="-4.23818"></trkpt>
      <trkpt lat="31.43670" lon="-4.23836"></trkpt>
      <trkpt lat="31.43714" lon="-4.23796"></trkpt>
      <trkpt lat="31.43625" lon="-4.23707"></trkpt>
      <trkpt lat="31.43472" lon="-4.23375"></trkpt>
      <trkpt lat="31.43547" lon="-4.23338"></trkpt>
      <trkpt lat="31.43123" lon="-4.22502"></trkpt>
      <trkpt lat="31.43077" lon="-4.22218"></trkpt>
      <trkpt lat="31.42897" lon="-4.21825"></trkpt>
      <trkpt lat="31.41882" lon="-4.20798"></trkpt>
      <trkpt lat="31.38977" lon="-4.18313"></trkpt>
      <trkpt lat="31.38335" lon="-4.17418"></trkpt>
      <trkpt lat="31.38274" lon="-4.17386"></trkpt>
      <trkpt lat="31.37998" lon="-4.17377"></trkpt>
      <trkpt lat="31.37874" lon="-4.17313"></trkpt>
      <trkpt lat="31.37208" lon="-4.16636"></trkpt>
      <trkpt lat="31.37122" lon="-4.16472"></trkpt>
      <trkpt lat="31.36991" lon="-4.15447"></trkpt>
      <trkpt lat="31.36900" lon="-4.15056"></trkpt>
      <trkpt lat="31.36379" lon="-4.14531"></trkpt>
      <trkpt lat="31.35591" lon="-4.13579"></trkpt>
      <trkpt lat="31.35464" lon="-4.13507"></trkpt>
      <trkpt lat="31.34696" lon="-4.13534"></trkpt>
      <trkpt lat="31.34504" lon="-4.13480"></trkpt>
      <trkpt lat="31.32683" lon="-4.11839"></trkpt>
      <trkpt lat="31.32384" lon="-4.11460"></trkpt>
      <trkpt lat="31.32322" lon="-4.11246"></trkpt>
      <trkpt lat="31.32267" lon="-4.11143"></trkpt>
      <trkpt lat="31.32015" lon="-4.10906"></trkpt>
      <trkpt lat="31.31616" lon="-4.10447"></trkpt>
      <trkpt lat="31.31120" lon="-4.09302"></trkpt>
      <trkpt lat="31.31063" lon="-4.09231"></trkpt>
      <trkpt lat="31.30722" lon="-4.09058"></trkpt>
      <trkpt lat="31.30141" lon="-4.08969"></trkpt>
      <trkpt lat="31.29935" lon="-4.09077"></trkpt>
      <trkpt lat="31.29495" lon="-4.09680"></trkpt>
      <trkpt lat="31.29427" lon="-4.09711"></trkpt>
      <trkpt lat="31.29219" lon="-4.09624"></trkpt>
      <trkpt lat="31.28860" lon="-4.09379"></trkpt>
      <trkpt lat="31.28732" lon="-4.09221"></trkpt>
      <trkpt lat="31.28603" lon="-4.08734"></trkpt>
      <trkpt lat="31.28228" lon="-4.08115"></trkpt>
      <trkpt lat="31.27904" lon="-4.07502"></trkpt>
      <trkpt lat="31.27519" lon="-4.06996"></trkpt>
      <trkpt lat="31.26803" lon="-4.05942"></trkpt>
      <trkpt lat="31.26403" lon="-4.05505"></trkpt>
      <trkpt lat="31.25989" lon="-4.04976"></trkpt>
      <trkpt lat="31.25763" lon="-4.04589"></trkpt>
      <trkpt lat="31.25514" lon="-4.04412"></trkpt>
      <trkpt lat="31.25333" lon="-4.04038"></trkpt>
      <trkpt lat="31.25138" lon="-4.03847"></trkpt>
      <trkpt lat="31.25013" lon="-4.03822"></trkpt>
      <trkpt lat="31.24601" lon="-4.03920"></trkpt>
      <trkpt lat="31.24370" lon="-4.03894"></trkpt>
      <trkpt lat="31.24166" lon="-4.03787"></trkpt>
      <trkpt lat="31.23249" lon="-4.03436"></trkpt>
      <trkpt lat="31.22484" lon="-4.03011"></trkpt>
      <trkpt lat="31.22184" lon="-4.02938"></trkpt>
      <trkpt lat="31.21926" lon="-4.02837"></trkpt>
      <trkpt lat="31.21743" lon="-4.02841"></trkpt>
      <trkpt lat="31.21036" lon="-4.03362"></trkpt>
      <trkpt lat="31.20940" lon="-4.03456"></trkpt>
      <trkpt lat="31.20447" lon="-4.04240"></trkpt>
      <trkpt lat="31.20296" lon="-4.04402"></trkpt>
      <trkpt lat="31.20163" lon="-4.04498"></trkpt>
      <trkpt lat="31.19029" lon="-4.05091"></trkpt>
      <trkpt lat="31.18376" lon="-4.05280"></trkpt>
      <trkpt lat="31.17932" lon="-4.05486"></trkpt>
      <trkpt lat="31.17831" lon="-4.05490"></trkpt>
      <trkpt lat="31.17605" lon="-4.05418"></trkpt>
      <trkpt lat="31.17404" lon="-4.05215"></trkpt>
      <trkpt lat="31.17217" lon="-4.05082"></trkpt>
      <trkpt lat="31.17102" lon="-4.04918"></trkpt>
      <trkpt lat="31.17002" lon="-4.04824"></trkpt>
      <trkpt lat="31.16610" lon="-4.04623"></trkpt>
      <trkpt lat="31.16317" lon="-4.04425"></trkpt>
      <trkpt lat="31.15961" lon="-4.04271"></trkpt>
      <trkpt lat="31.15369" lon="-4.03907"></trkpt>
      <trkpt lat="31.14993" lon="-4.03773"></trkpt>
      <trkpt lat="31.14755" lon="-4.03732"></trkpt>
      <trkpt lat="31.14609" lon="-4.03662"></trkpt>
      <trkpt lat="31.14068" lon="-4.03305"></trkpt>
      <trkpt lat="31.13947" lon="-4.03314"></trkpt>
      <trkpt lat="31.14019" lon="-4.02564"></trkpt>
      <trkpt lat="31.13984" lon="-4.02476"></trkpt>
      <trkpt lat="31.13941" lon="-4.02461"></trkpt>
      <trkpt lat="31.13939" lon="-4.02414"></trkpt>
      <trkpt lat="31.13360" lon="-4.02161"></trkpt>
      <trkpt lat="31.12976" lon="-4.01951"></trkpt>
      <trkpt lat="31.12865" lon="-4.01909"></trkpt>
      <trkpt lat="31.12643" lon="-4.01873"></trkpt>
      <trkpt lat="31.12300" lon="-4.01724"></trkpt>
      <trkpt lat="31.12168" lon="-4.01705"></trkpt>
      <trkpt lat="31.11657" lon="-4.01766"></trkpt>
      <trkpt lat="31.11296" lon="-4.01726"></trkpt>
      <trkpt lat="31.10646" lon="-4.01538"></trkpt>
      <trkpt lat="31.10467" lon="-4.01570"></trkpt>
      <trkpt lat="31.10299" lon="-4.01568"></trkpt>
      <trkpt lat="31.10264" lon="-4.01410"></trkpt>
      <trkpt lat="31.10214" lon="-4.01340"></trkpt>
      <trkpt lat="31.09979" lon="-4.01300"></trkpt>
      <trkpt lat="31.09907" lon="-4.01331"></trkpt>
    </trkseg>
  </trk>
</gpx>
