<?xml version="1.0" encoding="UTF-8"?>
<gpx version="1.1" creator="Marokko Motorreis 2026"
     xmlns="http://www.topografix.com/GPX/1/1"
     xmlns:xsi="http://www.w3.org/2001/XMLSchema-instance"
     xsi:schemaLocation="http://www.topografix.com/GPX/1/1 http://www.topografix.com/GPX/1/1/gpx.xsd">
  <metadata><name>Dag 5 (16 okt) Merzouga - Todra-kloof - Dades</name><desc>285 km, ca. 5u29 rijden. Soek van Rissani, Todra-kloof, overnachten in de Dades-kloof.</desc></metadata>
  <wpt lat="31.099075" lon="-4.013307"><name>Merzouga</name><sym>Flag, Blue</sym></wpt>
  <wpt lat="31.280895" lon="-4.260142"><name>Rissani - soek</name><sym>Flag, Blue</sym></wpt>
  <wpt lat="31.514466" lon="-5.532696"><name>Tinghir</name><sym>Flag, Blue</sym></wpt>
  <wpt lat="31.587182" lon="-5.591811"><name>Todra-kloof</name><sym>Flag, Blue</sym></wpt>
  <wpt lat="31.514466" lon="-5.532696"><name>Tinghir (terug)</name><sym>Flag, Blue</sym></wpt>
  <wpt lat="31.372713" lon="-5.986583"><name>Boumalne Dades</name><sym>Flag, Blue</sym></wpt>
  <trk>
    <name>Dag 5 (16 okt) Merzouga - Todra-kloof - Dades</name>
    <desc>285 km, ca. 5u29 rijden. Soek van Rissani, Todra-kloof, overnachten in de Dades-kloof.</desc>
    <trkseg>
      <trkpt lat="31.09907" lon="-4.01331"></trkpt>
      <trkpt lat="31.09826" lon="-4.01352"></trkpt>
      <trkpt lat="31.09882" lon="-4.01616"></trkpt>
      <trkpt lat="31.10008" lon="-4.01767"></trkpt>
      <trkpt lat="31.10232" lon="-4.01939"></trkpt>
      <trkpt lat="31.10815" lon="-4.02213"></trkpt>
      <trkpt lat="31.10934" lon="-4.02310"></trkpt>
      <trkpt lat="31.11264" lon="-4.02745"></trkpt>
      <trkpt lat="31.11742" lon="-4.03479"></trkpt>
      <trkpt lat="31.12384" lon="-4.04255"></trkpt>
      <trkpt lat="31.13107" lon="-4.04874"></trkpt>
      <trkpt lat="31.14839" lon="-4.05844"></trkpt>
      <trkpt lat="31.16511" lon="-4.07322"></trkpt>
      <trkpt lat="31.17194" lon="-4.08152"></trkpt>
      <trkpt lat="31.17987" lon="-4.08676"></trkpt>
      <trkpt lat="31.18577" lon="-4.09164"></trkpt>
      <trkpt lat="31.20111" lon="-4.10273"></trkpt>
      <trkpt lat="31.21686" lon="-4.11989"></trkpt>
      <trkpt lat="31.23642" lon="-4.13051"></trkpt>
      <trkpt lat="31.24084" lon="-4.13215"></trkpt>
      <trkpt lat="31.25037" lon="-4.13681"></trkpt>
      <trkpt lat="31.25176" lon="-4.13781"></trkpt>
      <trkpt lat="31.26208" lon="-4.14926"></trkpt>
      <trkpt lat="31.26696" lon="-4.16132"></trkpt>
      <trkpt lat="31.26779" lon="-4.16261"></trkpt>
      <trkpt lat="31.28432" lon="-4.17514"></trkpt>
      <trkpt lat="31.28892" lon="-4.17914"></trkpt>
      <trkpt lat="31.29351" lon="-4.18429"></trkpt>
      <trkpt lat="31.29404" lon="-4.18532"></trkpt>
      <trkpt lat="31.29417" lon="-4.18616"></trkpt>
      <trkpt lat="31.29360" lon="-4.21553"></trkpt>
      <trkpt lat="31.29272" lon="-4.21985"></trkpt>
      <trkpt lat="31.29248" lon="-4.22415"></trkpt>
      <trkpt lat="31.29114" lon="-4.22674"></trkpt>
      <trkpt lat="31.29019" lon="-4.22708"></trkpt>
      <trkpt lat="31.28946" lon="-4.22969"></trkpt>
      <trkpt lat="31.28873" lon="-4.23102"></trkpt>
      <trkpt lat="31.28807" lon="-4.23373"></trkpt>
      <trkpt lat="31.28810" lon="-4.23419"></trkpt>
      <trkpt lat="31.28889" lon="-4.23500"></trkpt>
      <trkpt lat="31.28811" lon="-4.24128"></trkpt>
      <trkpt lat="31.28832" lon="-4.24237"></trkpt>
      <trkpt lat="31.29330" lon="-4.24451"></trkpt>
      <trkpt lat="31.29424" lon="-4.24541"></trkpt>
      <trkpt lat="31.29246" lon="-4.24920"></trkpt>
      <trkpt lat="31.28781" lon="-4.25716"></trkpt>
      <trkpt lat="31.28670" lon="-4.26163"></trkpt>
      <trkpt lat="31.28529" lon="-4.26161"></trkpt>
      <trkpt lat="31.28426" lon="-4.26109"></trkpt>
      <trkpt lat="31.28401" lon="-4.26138"></trkpt>
      <trkpt lat="31.28299" lon="-4.25997"></trkpt>
      <trkpt lat="31.28200" lon="-4.26171"></trkpt>
      <trkpt lat="31.28068" lon="-4.26079"></trkpt>
      <trkpt lat="31.28090" lon="-4.26014"></trkpt>
      <trkpt lat="31.28047" lon="-4.26134"></trkpt>
      <trkpt lat="31.28022" lon="-4.26129"></trkpt>
      <trkpt lat="31.27971" lon="-4.26230"></trkpt>
      <trkpt lat="31.27950" lon="-4.26505"></trkpt>
      <trkpt lat="31.28051" lon="-4.26555"></trkpt>
      <trkpt lat="31.28015" lon="-4.26761"></trkpt>
      <trkpt lat="31.27995" lon="-4.26759"></trkpt>
      <trkpt lat="31.27949" lon="-4.26898"></trkpt>
      <trkpt lat="31.27972" lon="-4.27431"></trkpt>
      <trkpt lat="31.27995" lon="-4.27440"></trkpt>
      <trkpt lat="31.27849" lon="-4.27731"></trkpt>
      <trkpt lat="31.27814" lon="-4.27947"></trkpt>
      <trkpt lat="31.27775" lon="-4.28515"></trkpt>
      <trkpt lat="31.27848" lon="-4.28638"></trkpt>
      <trkpt lat="31.28473" lon="-4.28873"></trkpt>
      <trkpt lat="31.28958" lon="-4.29129"></trkpt>
      <trkpt lat="31.29097" lon="-4.29160"></trkpt>
      <trkpt lat="31.29506" lon="-4.29086"></trkpt>
      <trkpt lat="31.30130" lon="-4.28735"></trkpt>
      <trkpt lat="31.30748" lon="-4.28542"></trkpt>
      <trkpt lat="31.31220" lon="-4.28624"></trkpt>
      <trkpt lat="31.31498" lon="-4.28722"></trkpt>
      <trkpt lat="31.31999" lon="-4.28838"></trkpt>
      <trkpt lat="31.32649" lon="-4.28835"></trkpt>
      <trkpt lat="31.33112" lon="-4.28932"></trkpt>
      <trkpt lat="31.33363" lon="-4.28798"></trkpt>
      <trkpt lat="31.34075" lon="-4.28753"></trkpt>
      <trkpt lat="31.34541" lon="-4.28966"></trkpt>
      <trkpt lat="31.35198" lon="-4.29025"></trkpt>
      <trkpt lat="31.35496" lon="-4.28881"></trkpt>
      <trkpt lat="31.35620" lon="-4.28794"></trkpt>
      <trkpt lat="31.36264" lon="-4.28632"></trkpt>
      <trkpt lat="31.36374" lon="-4.28581"></trkpt>
      <trkpt lat="31.37473" lon="-4.27674"></trkpt>
      <trkpt lat="31.40966" lon="-4.24992"></trkpt>
      <trkpt lat="31.42200" lon="-4.24111"></trkpt>
      <trkpt lat="31.42987" lon="-4.23631"></trkpt>
      <trkpt lat="31.42818" lon="-4.25172"></trkpt>
      <trkpt lat="31.41822" lon="-4.27643"></trkpt>
      <trkpt lat="31.41713" lon="-4.27975"></trkpt>
      <trkpt lat="31.41703" lon="-4.28402"></trkpt>
      <trkpt lat="31.41807" lon="-4.28557"></trkpt>
      <trkpt lat="31.41869" lon="-4.28759"></trkpt>
      <trkpt lat="31.42107" lon="-4.29174"></trkpt>
      <trkpt lat="31.43535" lon="-4.30814"></trkpt>
      <trkpt lat="31.43658" lon="-4.30987"></trkpt>
      <trkpt lat="31.43958" lon="-4.31621"></trkpt>
      <trkpt lat="31.44538" lon="-4.33469"></trkpt>
      <trkpt lat="31.44643" lon="-4.33707"></trkpt>
      <trkpt lat="31.44843" lon="-4.34087"></trkpt>
      <trkpt lat="31.47716" lon="-4.38959"></trkpt>
      <trkpt lat="31.48028" lon="-4.39327"></trkpt>
      <trkpt lat="31.48024" lon="-4.39497"></trkpt>
      <trkpt lat="31.48045" lon="-4.39584"></trkpt>
      <trkpt lat="31.48174" lon="-4.39736"></trkpt>
      <trkpt lat="31.48420" lon="-4.39940"></trkpt>
      <trkpt lat="31.48543" lon="-4.39995"></trkpt>
      <trkpt lat="31.48963" lon="-4.40034"></trkpt>
      <trkpt lat="31.49268" lon="-4.40258"></trkpt>
      <trkpt lat="31.49341" lon="-4.40469"></trkpt>
      <trkpt lat="31.49372" lon="-4.40718"></trkpt>
      <trkpt lat="31.49410" lon="-4.40761"></trkpt>
      <trkpt lat="31.49523" lon="-4.40802"></trkpt>
      <trkpt lat="31.49706" lon="-4.41116"></trkpt>
      <trkpt lat="31.49732" lon="-4.41395"></trkpt>
      <trkpt lat="31.49885" lon="-4.41682"></trkpt>
      <trkpt lat="31.50020" lon="-4.41804"></trkpt>
      <trkpt lat="31.50406" lon="-4.42292"></trkpt>
      <trkpt lat="31.51245" lon="-4.43676"></trkpt>
      <trkpt lat="31.51625" lon="-4.44055"></trkpt>
      <trkpt lat="31.52194" lon="-4.44776"></trkpt>
      <trkpt lat="31.52226" lon="-4.45010"></trkpt>
      <trkpt lat="31.52503" lon="-4.46193"></trkpt>
      <trkpt lat="31.52581" lon="-4.46398"></trkpt>
      <trkpt lat="31.52717" lon="-4.46590"></trkpt>
      <trkpt lat="31.53036" lon="-4.47729"></trkpt>
      <trkpt lat="31.53038" lon="-4.47828"></trkpt>
      <trkpt lat="31.52910" lon="-4.48546"></trkpt>
      <trkpt lat="31.52933" lon="-4.48806"></trkpt>
      <trkpt lat="31.53030" lon="-4.49113"></trkpt>
      <trkpt lat="31.53053" lon="-4.49405"></trkpt>
      <trkpt lat="31.52944" lon="-4.51189"></trkpt>
      <trkpt lat="31.51598" lon="-4.56789"></trkpt>
      <trkpt lat="31.51413" lon="-4.59851"></trkpt>
      <trkpt lat="31.51425" lon="-4.60049"></trkpt>
      <trkpt lat="31.52504" lon="-4.62379"></trkpt>
      <trkpt lat="31.52879" lon="-4.63694"></trkpt>
      <trkpt lat="31.53450" lon="-4.64371"></trkpt>
      <trkpt lat="31.54371" lon="-4.66327"></trkpt>
      <trkpt lat="31.55229" lon="-4.70626"></trkpt>
      <trkpt lat="31.55318" lon="-4.70709"></trkpt>
      <trkpt lat="31.55702" lon="-4.70910"></trkpt>
      <trkpt lat="31.55939" lon="-4.71167"></trkpt>
      <trkpt lat="31.56103" lon="-4.71176"></trkpt>
      <trkpt lat="31.56297" lon="-4.71147"></trkpt>
      <trkpt lat="31.56371" lon="-4.71201"></trkpt>
      <trkpt lat="31.56770" lon="-4.72527"></trkpt>
      <trkpt lat="31.58730" lon="-4.75871"></trkpt>
      <trkpt lat="31.58812" lon="-4.76114"></trkpt>
      <trkpt lat="31.58951" lon="-4.76931"></trkpt>
      <trkpt lat="31.58952" lon="-4.77112"></trkpt>
      <trkpt lat="31.58903" lon="-4.77276"></trkpt>
      <trkpt lat="31.57391" lon="-4.80126"></trkpt>
      <trkpt lat="31.55977" lon="-4.82860"></trkpt>
      <trkpt lat="31.55453" lon="-4.84213"></trkpt>
      <trkpt lat="31.55041" lon="-4.84785"></trkpt>
      <trkpt lat="31.54869" lon="-4.85106"></trkpt>
      <trkpt lat="31.54789" lon="-4.85164"></trkpt>
      <trkpt lat="31.54557" lon="-4.85266"></trkpt>
      <trkpt lat="31.54478" lon="-4.85394"></trkpt>
      <trkpt lat="31.54388" lon="-4.86012"></trkpt>
      <trkpt lat="31.54603" lon="-4.86465"></trkpt>
      <trkpt lat="31.54587" lon="-4.87277"></trkpt>
      <trkpt lat="31.54812" lon="-4.88381"></trkpt>
      <trkpt lat="31.55081" lon="-4.90159"></trkpt>
      <trkpt lat="31.55107" lon="-4.90245"></trkpt>
      <trkpt lat="31.55324" lon="-4.90544"></trkpt>
      <trkpt lat="31.55479" lon="-4.91149"></trkpt>
      <trkpt lat="31.55486" lon="-4.91268"></trkpt>
      <trkpt lat="31.54078" lon="-4.94241"></trkpt>
      <trkpt lat="31.53089" lon="-4.96211"></trkpt>
      <trkpt lat="31.51576" lon="-4.98332"></trkpt>
      <trkpt lat="31.51087" lon="-4.98885"></trkpt>
      <trkpt lat="31.50673" lon="-5.00193"></trkpt>
      <trkpt lat="31.50665" lon="-5.00345"></trkpt>
      <trkpt lat="31.50746" lon="-5.00534"></trkpt>
      <trkpt lat="31.51666" lon="-5.01405"></trkpt>
      <trkpt lat="31.51040" lon="-5.02900"></trkpt>
      <trkpt lat="31.50552" lon="-5.04506"></trkpt>
      <trkpt lat="31.50357" lon="-5.05387"></trkpt>
      <trkpt lat="31.50057" lon="-5.06208"></trkpt>
      <trkpt lat="31.50036" lon="-5.06384"></trkpt>
      <trkpt lat="31.50041" lon="-5.06766"></trkpt>
      <trkpt lat="31.49911" lon="-5.07376"></trkpt>
      <trkpt lat="31.49879" lon="-5.07734"></trkpt>
      <trkpt lat="31.49892" lon="-5.08353"></trkpt>
      <trkpt lat="31.49872" lon="-5.08559"></trkpt>
      <trkpt lat="31.49288" lon="-5.10188"></trkpt>
      <trkpt lat="31.49214" lon="-5.10882"></trkpt>
      <trkpt lat="31.48952" lon="-5.11580"></trkpt>
      <trkpt lat="31.48436" lon="-5.13785"></trkpt>
      <trkpt lat="31.48240" lon="-5.14440"></trkpt>
      <trkpt lat="31.48153" lon="-5.14618"></trkpt>
      <trkpt lat="31.46505" lon="-5.17391"></trkpt>
      <trkpt lat="31.46395" lon="-5.17697"></trkpt>
      <trkpt lat="31.46133" lon="-5.19982"></trkpt>
      <trkpt lat="31.46157" lon="-5.21469"></trkpt>
      <trkpt lat="31.46140" lon="-5.21737"></trkpt>
      <trkpt lat="31.46084" lon="-5.22000"></trkpt>
      <trkpt lat="31.45439" lon="-5.23749"></trkpt>
      <trkpt lat="31.45371" lon="-5.24026"></trkpt>
      <trkpt lat="31.45326" lon="-5.25349"></trkpt>
      <trkpt lat="31.45283" lon="-5.25533"></trkpt>
      <trkpt lat="31.45101" lon="-5.26004"></trkpt>
      <trkpt lat="31.45052" lon="-5.26203"></trkpt>
      <trkpt lat="31.45032" lon="-5.26404"></trkpt>
      <trkpt lat="31.45036" lon="-5.27356"></trkpt>
      <trkpt lat="31.44988" lon="-5.28012"></trkpt>
      <trkpt lat="31.44925" lon="-5.28473"></trkpt>
      <trkpt lat="31.44629" lon="-5.30058"></trkpt>
      <trkpt lat="31.44470" lon="-5.32499"></trkpt>
      <trkpt lat="31.44637" lon="-5.33628"></trkpt>
      <trkpt lat="31.44688" lon="-5.33823"></trkpt>
      <trkpt lat="31.44804" lon="-5.34062"></trkpt>
      <trkpt lat="31.45212" lon="-5.34664"></trkpt>
      <trkpt lat="31.45263" lon="-5.34779"></trkpt>
      <trkpt lat="31.45509" lon="-5.35978"></trkpt>
      <trkpt lat="31.45532" lon="-5.36525"></trkpt>
      <trkpt lat="31.45615" lon="-5.36829"></trkpt>
      <trkpt lat="31.46713" lon="-5.39270"></trkpt>
      <trkpt lat="31.47378" lon="-5.40935"></trkpt>
      <trkpt lat="31.48402" lon="-5.42745"></trkpt>
      <trkpt lat="31.49464" lon="-5.44900"></trkpt>
      <trkpt lat="31.49564" lon="-5.45233"></trkpt>
      <trkpt lat="31.49647" lon="-5.45983"></trkpt>
      <trkpt lat="31.49817" lon="-5.46665"></trkpt>
      <trkpt lat="31.50918" lon="-5.49204"></trkpt>
      <trkpt lat="31.50996" lon="-5.49352"></trkpt>
      <trkpt lat="31.52119" lon="-5.50933"></trkpt>
      <trkpt lat="31.53047" lon="-5.51800"></trkpt>
      <trkpt lat="31.53129" lon="-5.51945"></trkpt>
      <trkpt lat="31.53248" lon="-5.52484"></trkpt>
      <trkpt lat="31.53199" lon="-5.52886"></trkpt>
      <trkpt lat="31.53143" lon="-5.52973"></trkpt>
      <trkpt lat="31.53082" lon="-5.53000"></trkpt>
      <trkpt lat="31.53054" lon="-5.52990"></trkpt>
      <trkpt lat="31.52962" lon="-5.52872"></trkpt>
      <trkpt lat="31.52583" lon="-5.53009"></trkpt>
      <trkpt lat="31.52484" lon="-5.52920"></trkpt>
      <trkpt lat="31.52345" lon="-5.52920"></trkpt>
      <trkpt lat="31.52190" lon="-5.53081"></trkpt>
      <trkpt lat="31.52057" lon="-5.53341"></trkpt>
      <trkpt lat="31.51894" lon="-5.53472"></trkpt>
      <trkpt lat="31.51443" lon="-5.53378"></trkpt>
      <trkpt lat="31.51448" lon="-5.53279"></trkpt>
      <trkpt lat="31.51424" lon="-5.53242"></trkpt>
      <trkpt lat="31.51399" lon="-5.53297"></trkpt>
      <trkpt lat="31.51403" lon="-5.53385"></trkpt>
      <trkpt lat="31.51503" lon="-5.53382"></trkpt>
      <trkpt lat="31.51663" lon="-5.53438"></trkpt>
      <trkpt lat="31.51894" lon="-5.53472"></trkpt>
      <trkpt lat="31.52041" lon="-5.53337"></trkpt>
      <trkpt lat="31.52190" lon="-5.53081"></trkpt>
      <trkpt lat="31.52333" lon="-5.52926"></trkpt>
      <trkpt lat="31.52484" lon="-5.52920"></trkpt>
      <trkpt lat="31.52588" lon="-5.52993"></trkpt>
      <trkpt lat="31.52626" lon="-5.53099"></trkpt>
      <trkpt lat="31.52626" lon="-5.53193"></trkpt>
      <trkpt lat="31.52500" lon="-5.53523"></trkpt>
      <trkpt lat="31.52574" lon="-5.53760"></trkpt>
      <trkpt lat="31.52574" lon="-5.53928"></trkpt>
      <trkpt lat="31.52757" lon="-5.54477"></trkpt>
      <trkpt lat="31.53005" lon="-5.54689"></trkpt>
      <trkpt lat="31.53049" lon="-5.54756"></trkpt>
      <trkpt lat="31.53068" lon="-5.54844"></trkpt>
      <trkpt lat="31.53050" lon="-5.55075"></trkpt>
      <trkpt lat="31.53214" lon="-5.55534"></trkpt>
      <trkpt lat="31.53285" lon="-5.55667"></trkpt>
      <trkpt lat="31.53568" lon="-5.56014"></trkpt>
      <trkpt lat="31.53629" lon="-5.56048"></trkpt>
      <trkpt lat="31.53764" lon="-5.56069"></trkpt>
      <trkpt lat="31.54081" lon="-5.56335"></trkpt>
      <trkpt lat="31.54084" lon="-5.56382"></trkpt>
      <trkpt lat="31.54026" lon="-5.56527"></trkpt>
      <trkpt lat="31.53999" lon="-5.56820"></trkpt>
      <trkpt lat="31.53965" lon="-5.56854"></trkpt>
      <trkpt lat="31.53883" lon="-5.56853"></trkpt>
      <trkpt lat="31.53875" lon="-5.56932"></trkpt>
      <trkpt lat="31.53917" lon="-5.56954"></trkpt>
      <trkpt lat="31.54061" lon="-5.56915"></trkpt>
      <trkpt lat="31.54110" lon="-5.56736"></trkpt>
      <trkpt lat="31.54173" lon="-5.56650"></trkpt>
      <trkpt lat="31.54227" lon="-5.56646"></trkpt>
      <trkpt lat="31.54299" lon="-5.56747"></trkpt>
      <trkpt lat="31.54353" lon="-5.56903"></trkpt>
      <trkpt lat="31.54531" lon="-5.57136"></trkpt>
      <trkpt lat="31.54613" lon="-5.57604"></trkpt>
      <trkpt lat="31.54819" lon="-5.58069"></trkpt>
      <trkpt lat="31.54786" lon="-5.58154"></trkpt>
      <trkpt lat="31.54753" lon="-5.58179"></trkpt>
      <trkpt lat="31.54504" lon="-5.58169"></trkpt>
      <trkpt lat="31.54446" lon="-5.58198"></trkpt>
      <trkpt lat="31.54401" lon="-5.58262"></trkpt>
      <trkpt lat="31.54400" lon="-5.58371"></trkpt>
      <trkpt lat="31.54441" lon="-5.58445"></trkpt>
      <trkpt lat="31.54665" lon="-5.58584"></trkpt>
      <trkpt lat="31.54699" lon="-5.58631"></trkpt>
      <trkpt lat="31.54692" lon="-5.58697"></trkpt>
      <trkpt lat="31.54623" lon="-5.58808"></trkpt>
      <trkpt lat="31.54637" lon="-5.58867"></trkpt>
      <trkpt lat="31.54808" lon="-5.58918"></trkpt>
      <trkpt lat="31.54867" lon="-5.58909"></trkpt>
      <trkpt lat="31.54992" lon="-5.58816"></trkpt>
      <trkpt lat="31.55084" lon="-5.58622"></trkpt>
      <trkpt lat="31.55106" lon="-5.58523"></trkpt>
      <trkpt lat="31.55413" lon="-5.58552"></trkpt>
      <trkpt lat="31.55547" lon="-5.58506"></trkpt>
      <trkpt lat="31.55623" lon="-5.58387"></trkpt>
      <trkpt lat="31.55645" lon="-5.58100"></trkpt>
      <trkpt lat="31.55682" lon="-5.58057"></trkpt>
      <trkpt lat="31.55920" lon="-5.57973"></trkpt>
      <trkpt lat="31.56078" lon="-5.58109"></trkpt>
      <trkpt lat="31.56290" lon="-5.58131"></trkpt>
      <trkpt lat="31.56561" lon="-5.58031"></trkpt>
      <trkpt lat="31.56727" lon="-5.57825"></trkpt>
      <trkpt lat="31.56815" lon="-5.57810"></trkpt>
      <trkpt lat="31.56924" lon="-5.57894"></trkpt>
      <trkpt lat="31.57138" lon="-5.58349"></trkpt>
      <trkpt lat="31.57215" lon="-5.58423"></trkpt>
      <trkpt lat="31.57269" lon="-5.58430"></trkpt>
      <trkpt lat="31.57569" lon="-5.58347"></trkpt>
      <trkpt lat="31.57715" lon="-5.58255"></trkpt>
      <trkpt lat="31.57776" lon="-5.58269"></trkpt>
      <trkpt lat="31.57816" lon="-5.58351"></trkpt>
      <trkpt lat="31.57925" lon="-5.58940"></trkpt>
      <trkpt lat="31.58055" lon="-5.59036"></trkpt>
      <trkpt lat="31.58395" lon="-5.59156"></trkpt>
      <trkpt lat="31.58455" lon="-5.59143"></trkpt>
      <trkpt lat="31.58524" lon="-5.59063"></trkpt>
      <trkpt lat="31.58650" lon="-5.59117"></trkpt>
      <trkpt lat="31.58839" lon="-5.59313"></trkpt>
      <trkpt lat="31.58850" lon="-5.59593"></trkpt>
      <trkpt lat="31.58928" lon="-5.59658"></trkpt>
      <trkpt lat="31.58902" lon="-5.59678"></trkpt>
      <trkpt lat="31.58928" lon="-5.59658"></trkpt>
      <trkpt lat="31.58850" lon="-5.59593"></trkpt>
      <trkpt lat="31.58839" lon="-5.59313"></trkpt>
      <trkpt lat="31.58650" lon="-5.59117"></trkpt>
      <trkpt lat="31.58524" lon="-5.59063"></trkpt>
      <trkpt lat="31.58455" lon="-5.59143"></trkpt>
      <trkpt lat="31.58395" lon="-5.59156"></trkpt>
      <trkpt lat="31.58055" lon="-5.59036"></trkpt>
      <trkpt lat="31.57925" lon="-5.58940"></trkpt>
      <trkpt lat="31.57816" lon="-5.58351"></trkpt>
      <trkpt lat="31.57776" lon="-5.58269"></trkpt>
      <trkpt lat="31.57715" lon="-5.58255"></trkpt>
      <trkpt lat="31.57569" lon="-5.58347"></trkpt>
      <trkpt lat="31.57269" lon="-5.58430"></trkpt>
      <trkpt lat="31.57215" lon="-5.58423"></trkpt>
      <trkpt lat="31.57138" lon="-5.58349"></trkpt>
      <trkpt lat="31.56924" lon="-5.57894"></trkpt>
      <trkpt lat="31.56815" lon="-5.57810"></trkpt>
      <trkpt lat="31.56727" lon="-5.57825"></trkpt>
      <trkpt lat="31.56561" lon="-5.58031"></trkpt>
      <trkpt lat="31.56290" lon="-5.58131"></trkpt>
      <trkpt lat="31.56078" lon="-5.58109"></trkpt>
      <trkpt lat="31.55920" lon="-5.57973"></trkpt>
      <trkpt lat="31.55682" lon="-5.58057"></trkpt>
      <trkpt lat="31.55645" lon="-5.58100"></trkpt>
      <trkpt lat="31.55623" lon="-5.58387"></trkpt>
      <trkpt lat="31.55547" lon="-5.58506"></trkpt>
      <trkpt lat="31.55413" lon="-5.58552"></trkpt>
      <trkpt lat="31.55106" lon="-5.58523"></trkpt>
      <trkpt lat="31.55084" lon="-5.58622"></trkpt>
      <trkpt lat="31.54992" lon="-5.58816"></trkpt>
      <trkpt lat="31.54867" lon="-5.58909"></trkpt>
      <trkpt lat="31.54808" lon="-5.58918"></trkpt>
      <trkpt lat="31.54637" lon="-5.58867"></trkpt>
      <trkpt lat="31.54623" lon="-5.58808"></trkpt>
      <trkpt lat="31.54692" lon="-5.58697"></trkpt>
      <trkpt lat="31.54699" lon="-5.58631"></trkpt>
      <trkpt lat="31.54665" lon="-5.58584"></trkpt>
      <trkpt lat="31.54441" lon="-5.58445"></trkpt>
      <trkpt lat="31.54400" lon="-5.58371"></trkpt>
      <trkpt lat="31.54401" lon="-5.58262"></trkpt>
      <trkpt lat="31.54446" lon="-5.58198"></trkpt>
      <trkpt lat="31.54504" lon="-5.58169"></trkpt>
      <trkpt lat="31.54753" lon="-5.58179"></trkpt>
      <trkpt lat="31.54786" lon="-5.58154"></trkpt>
      <trkpt lat="31.54819" lon="-5.58069"></trkpt>
      <trkpt lat="31.54613" lon="-5.57604"></trkpt>
      <trkpt lat="31.54531" lon="-5.57136"></trkpt>
      <trkpt lat="31.54353" lon="-5.56903"></trkpt>
      <trkpt lat="31.54299" lon="-5.56747"></trkpt>
      <trkpt lat="31.54227" lon="-5.56646"></trkpt>
      <trkpt lat="31.54173" lon="-5.56650"></trkpt>
      <trkpt lat="31.54110" lon="-5.56736"></trkpt>
      <trkpt lat="31.54061" lon="-5.56915"></trkpt>
      <trkpt lat="31.53917" lon="-5.56954"></trkpt>
      <trkpt lat="31.53875" lon="-5.56932"></trkpt>
      <trkpt lat="31.53883" lon="-5.56853"></trkpt>
      <trkpt lat="31.53965" lon="-5.56854"></trkpt>
      <trkpt lat="31.53999" lon="-5.56820"></trkpt>
      <trkpt lat="31.54026" lon="-5.56527"></trkpt>
      <trkpt lat="31.54085" lon="-5.56348"></trkpt>
      <trkpt lat="31.53764" lon="-5.56069"></trkpt>
      <trkpt lat="31.53629" lon="-5.56048"></trkpt>
      <trkpt lat="31.53568" lon="-5.56014"></trkpt>
      <trkpt lat="31.53285" lon="-5.55667"></trkpt>
      <trkpt lat="31.53214" lon="-5.55534"></trkpt>
      <trkpt lat="31.53050" lon="-5.55075"></trkpt>
      <trkpt lat="31.53068" lon="-5.54844"></trkpt>
      <trkpt lat="31.53049" lon="-5.54756"></trkpt>
      <trkpt lat="31.53005" lon="-5.54689"></trkpt>
      <trkpt lat="31.52757" lon="-5.54477"></trkpt>
      <trkpt lat="31.52574" lon="-5.53928"></trkpt>
      <trkpt lat="31.52574" lon="-5.53760"></trkpt>
      <trkpt lat="31.52500" lon="-5.53523"></trkpt>
      <trkpt lat="31.52622" lon="-5.53213"></trkpt>
      <trkpt lat="31.52630" lon="-5.53126"></trkpt>
      <trkpt lat="31.52600" lon="-5.53023"></trkpt>
      <trkpt lat="31.52484" lon="-5.52920"></trkpt>
      <trkpt lat="31.52322" lon="-5.52936"></trkpt>
      <trkpt lat="31.52190" lon="-5.53081"></trkpt>
      <trkpt lat="31.52057" lon="-5.53341"></trkpt>
      <trkpt lat="31.51894" lon="-5.53472"></trkpt>
      <trkpt lat="31.51443" lon="-5.53378"></trkpt>
      <trkpt lat="31.51448" lon="-5.53279"></trkpt>
      <trkpt lat="31.51424" lon="-5.53242"></trkpt>
      <trkpt lat="31.51399" lon="-5.53297"></trkpt>
      <trkpt lat="31.51403" lon="-5.53385"></trkpt>
      <trkpt lat="31.51277" lon="-5.53408"></trkpt>
      <trkpt lat="31.51250" lon="-5.53522"></trkpt>
      <trkpt lat="31.51269" lon="-5.53582"></trkpt>
      <trkpt lat="31.51191" lon="-5.53666"></trkpt>
      <trkpt lat="31.51156" lon="-5.53820"></trkpt>
      <trkpt lat="31.51087" lon="-5.53863"></trkpt>
      <trkpt lat="31.50894" lon="-5.53877"></trkpt>
      <trkpt lat="31.50592" lon="-5.53946"></trkpt>
      <trkpt lat="31.50408" lon="-5.54012"></trkpt>
      <trkpt lat="31.49293" lon="-5.54751"></trkpt>
      <trkpt lat="31.48850" lon="-5.55253"></trkpt>
      <trkpt lat="31.47854" lon="-5.56539"></trkpt>
      <trkpt lat="31.47789" lon="-5.56575"></trkpt>
      <trkpt lat="31.47171" lon="-5.57352"></trkpt>
      <trkpt lat="31.46471" lon="-5.58576"></trkpt>
      <trkpt lat="31.46250" lon="-5.59282"></trkpt>
      <trkpt lat="31.45395" lon="-5.60866"></trkpt>
      <trkpt lat="31.43949" lon="-5.64096"></trkpt>
      <trkpt lat="31.43907" lon="-5.64326"></trkpt>
      <trkpt lat="31.43942" lon="-5.64873"></trkpt>
      <trkpt lat="31.43898" lon="-5.65044"></trkpt>
      <trkpt lat="31.43825" lon="-5.65150"></trkpt>
      <trkpt lat="31.43575" lon="-5.65382"></trkpt>
      <trkpt lat="31.43432" lon="-5.65573"></trkpt>
      <trkpt lat="31.43221" lon="-5.66002"></trkpt>
      <trkpt lat="31.42869" lon="-5.66976"></trkpt>
      <trkpt lat="31.41868" lon="-5.68789"></trkpt>
      <trkpt lat="31.41197" lon="-5.70678"></trkpt>
      <trkpt lat="31.40399" lon="-5.71960"></trkpt>
      <trkpt lat="31.40265" lon="-5.72580"></trkpt>
      <trkpt lat="31.40224" lon="-5.72681"></trkpt>
      <trkpt lat="31.40007" lon="-5.73030"></trkpt>
      <trkpt lat="31.39734" lon="-5.73378"></trkpt>
      <trkpt lat="31.39684" lon="-5.73648"></trkpt>
      <trkpt lat="31.39512" lon="-5.74034"></trkpt>
      <trkpt lat="31.39037" lon="-5.74463"></trkpt>
      <trkpt lat="31.38970" lon="-5.74566"></trkpt>
      <trkpt lat="31.38799" lon="-5.75362"></trkpt>
      <trkpt lat="31.38279" lon="-5.76578"></trkpt>
      <trkpt lat="31.37998" lon="-5.76976"></trkpt>
      <trkpt lat="31.37310" lon="-5.77794"></trkpt>
      <trkpt lat="31.37154" lon="-5.78097"></trkpt>
      <trkpt lat="31.37119" lon="-5.78376"></trkpt>
      <trkpt lat="31.36980" lon="-5.78951"></trkpt>
      <trkpt lat="31.37189" lon="-5.79643"></trkpt>
      <trkpt lat="31.37269" lon="-5.79746"></trkpt>
      <trkpt lat="31.37518" lon="-5.79812"></trkpt>
      <trkpt lat="31.37756" lon="-5.79912"></trkpt>
      <trkpt lat="31.37884" lon="-5.79995"></trkpt>
      <trkpt lat="31.38215" lon="-5.80303"></trkpt>
      <trkpt lat="31.38268" lon="-5.80401"></trkpt>
      <trkpt lat="31.38286" lon="-5.80513"></trkpt>
      <trkpt lat="31.38251" lon="-5.80654"></trkpt>
      <trkpt lat="31.37718" lon="-5.81532"></trkpt>
      <trkpt lat="31.37654" lon="-5.81671"></trkpt>
      <trkpt lat="31.37537" lon="-5.82474"></trkpt>
      <trkpt lat="31.37422" lon="-5.83006"></trkpt>
      <trkpt lat="31.37362" lon="-5.83189"></trkpt>
      <trkpt lat="31.37227" lon="-5.83425"></trkpt>
      <trkpt lat="31.37184" lon="-5.83549"></trkpt>
      <trkpt lat="31.36915" lon="-5.84589"></trkpt>
      <trkpt lat="31.36798" lon="-5.85301"></trkpt>
      <trkpt lat="31.36816" lon="-5.85565"></trkpt>
      <trkpt lat="31.37548" lon="-5.88384"></trkpt>
      <trkpt lat="31.37552" lon="-5.88521"></trkpt>
      <trkpt lat="31.36473" lon="-5.90818"></trkpt>
      <trkpt lat="31.36401" lon="-5.91103"></trkpt>
      <trkpt lat="31.36775" lon="-5.98316"></trkpt>
      <trkpt lat="31.36657" lon="-5.98643"></trkpt>
      <trkpt lat="31.36708" lon="-5.98684"></trkpt>
      <trkpt lat="31.36861" lon="-5.98670"></trkpt>
      <trkpt lat="31.37024" lon="-5.98575"></trkpt>
      <trkpt lat="31.37126" lon="-5.98563"></trkpt>
      <trkpt lat="31.37186" lon="-5.98576"></trkpt>
      <trkpt lat="31.37271" lon="-5.98658"></trkpt>
    </trkseg>
  </trk>
</gpx>
