<?xml version="1.0" encoding="UTF-8"?>
<gpx version="1.1" creator="Marokko Motorreis 2026"
     xmlns="http://www.topografix.com/GPX/1/1"
     xmlns:xsi="http://www.w3.org/2001/XMLSchema-instance"
     xsi:schemaLocation="http://www.topografix.com/GPX/1/1 http://www.topografix.com/GPX/1/1/gpx.xsd">
  <metadata><name>Dag 10 (21 okt) Midelt - Missour - Guercif - Nador + ferry</name><desc>435 km, ca. 6u55 rijden. N15/N2. Vroeg weg 07:30. Tanken in Guercif. Min. 3u voor vertrek bij de terminal.</desc></metadata>
  <wpt lat="32.680360" lon="-4.744051"><name>Midelt</name><sym>Flag, Blue</sym></wpt>
  <wpt lat="33.047297" lon="-3.989184"><name>Missour - koffie</name><sym>Flag, Blue</sym></wpt>
  <wpt lat="34.227190" lon="-3.353116"><name>Guercif - lunch + tank</name><sym>Flag, Blue</sym></wpt>
  <wpt lat="34.412841" lon="-2.894402"><name>Taourirt</name><sym>Flag, Blue</sym></wpt>
  <wpt lat="35.064506" lon="-2.928615"><name>Selouane</name><sym>Flag, Blue</sym></wpt>
  <wpt lat="35.268173" lon="-2.933074"><name>Haven Nador (Beni Ansar) - FERRY</name><sym>Flag, Blue</sym></wpt>
  <trk>
    <name>Dag 10 (21 okt) Midelt - Missour - Guercif - Nador + ferry</name>
    <desc>435 km, ca. 6u55 rijden. N15/N2. Vroeg weg 07:30. Tanken in Guercif. Min. 3u voor vertrek bij de terminal.</desc>
    <trkseg>
      <trkpt lat="32.68036" lon="-4.74405"></trkpt>
      <trkpt lat="32.68018" lon="-4.74355"></trkpt>
      <trkpt lat="32.68051" lon="-4.74254"></trkpt>
      <trkpt lat="32.67926" lon="-4.74001"></trkpt>
      <trkpt lat="32.67918" lon="-4.73902"></trkpt>
      <trkpt lat="32.67970" lon="-4.73567"></trkpt>
      <trkpt lat="32.67944" lon="-4.73409"></trkpt>
      <trkpt lat="32.67868" lon="-4.73235"></trkpt>
      <trkpt lat="32.67861" lon="-4.73145"></trkpt>
      <trkpt lat="32.68029" lon="-4.72466"></trkpt>
      <trkpt lat="32.68102" lon="-4.71990"></trkpt>
      <trkpt lat="32.68117" lon="-4.71587"></trkpt>
      <trkpt lat="32.68315" lon="-4.70747"></trkpt>
      <trkpt lat="32.68303" lon="-4.70258"></trkpt>
      <trkpt lat="32.68282" lon="-4.70206"></trkpt>
      <trkpt lat="32.68339" lon="-4.69224"></trkpt>
      <trkpt lat="32.68071" lon="-4.68055"></trkpt>
      <trkpt lat="32.67918" lon="-4.67129"></trkpt>
      <trkpt lat="32.67924" lon="-4.65733"></trkpt>
      <trkpt lat="32.67862" lon="-4.65216"></trkpt>
      <trkpt lat="32.67702" lon="-4.64705"></trkpt>
      <trkpt lat="32.66810" lon="-4.62783"></trkpt>
      <trkpt lat="32.67579" lon="-4.61116"></trkpt>
      <trkpt lat="32.67898" lon="-4.59698"></trkpt>
      <trkpt lat="32.68006" lon="-4.59334"></trkpt>
      <trkpt lat="32.68593" lon="-4.58047"></trkpt>
      <trkpt lat="32.69256" lon="-4.56426"></trkpt>
      <trkpt lat="32.69358" lon="-4.56034"></trkpt>
      <trkpt lat="32.69747" lon="-4.53781"></trkpt>
      <trkpt lat="32.70543" lon="-4.51745"></trkpt>
      <trkpt lat="32.70835" lon="-4.51087"></trkpt>
      <trkpt lat="32.71003" lon="-4.50801"></trkpt>
      <trkpt lat="32.71179" lon="-4.50582"></trkpt>
      <trkpt lat="32.71796" lon="-4.50036"></trkpt>
      <trkpt lat="32.72454" lon="-4.49231"></trkpt>
      <trkpt lat="32.73110" lon="-4.48178"></trkpt>
      <trkpt lat="32.73247" lon="-4.48009"></trkpt>
      <trkpt lat="32.74927" lon="-4.46835"></trkpt>
      <trkpt lat="32.75852" lon="-4.45886"></trkpt>
      <trkpt lat="32.76546" lon="-4.45253"></trkpt>
      <trkpt lat="32.77225" lon="-4.44530"></trkpt>
      <trkpt lat="32.78639" lon="-4.43634"></trkpt>
      <trkpt lat="32.79537" lon="-4.42768"></trkpt>
      <trkpt lat="32.81560" lon="-4.40946"></trkpt>
      <trkpt lat="32.81688" lon="-4.40775"></trkpt>
      <trkpt lat="32.81778" lon="-4.40541"></trkpt>
      <trkpt lat="32.81799" lon="-4.40329"></trkpt>
      <trkpt lat="32.81769" lon="-4.40101"></trkpt>
      <trkpt lat="32.81655" lon="-4.39692"></trkpt>
      <trkpt lat="32.81273" lon="-4.38954"></trkpt>
      <trkpt lat="32.80560" lon="-4.37451"></trkpt>
      <trkpt lat="32.80536" lon="-4.37291"></trkpt>
      <trkpt lat="32.80544" lon="-4.36952"></trkpt>
      <trkpt lat="32.80569" lon="-4.36839"></trkpt>
      <trkpt lat="32.80622" lon="-4.36749"></trkpt>
      <trkpt lat="32.80698" lon="-4.36686"></trkpt>
      <trkpt lat="32.80971" lon="-4.36623"></trkpt>
      <trkpt lat="32.81100" lon="-4.36524"></trkpt>
      <trkpt lat="32.81589" lon="-4.35963"></trkpt>
      <trkpt lat="32.81967" lon="-4.35302"></trkpt>
      <trkpt lat="32.82417" lon="-4.34945"></trkpt>
      <trkpt lat="32.82472" lon="-4.34879"></trkpt>
      <trkpt lat="32.82511" lon="-4.34779"></trkpt>
      <trkpt lat="32.82622" lon="-4.34185"></trkpt>
      <trkpt lat="32.82918" lon="-4.33873"></trkpt>
      <trkpt lat="32.83072" lon="-4.33486"></trkpt>
      <trkpt lat="32.83214" lon="-4.33322"></trkpt>
      <trkpt lat="32.83412" lon="-4.32912"></trkpt>
      <trkpt lat="32.83645" lon="-4.32611"></trkpt>
      <trkpt lat="32.83668" lon="-4.32420"></trkpt>
      <trkpt lat="32.83580" lon="-4.32228"></trkpt>
      <trkpt lat="32.83575" lon="-4.32137"></trkpt>
      <trkpt lat="32.83921" lon="-4.31531"></trkpt>
      <trkpt lat="32.84006" lon="-4.31071"></trkpt>
      <trkpt lat="32.85266" lon="-4.28932"></trkpt>
      <trkpt lat="32.85393" lon="-4.28811"></trkpt>
      <trkpt lat="32.85542" lon="-4.28340"></trkpt>
      <trkpt lat="32.85712" lon="-4.28106"></trkpt>
      <trkpt lat="32.85934" lon="-4.27594"></trkpt>
      <trkpt lat="32.86189" lon="-4.27332"></trkpt>
      <trkpt lat="32.86615" lon="-4.26655"></trkpt>
      <trkpt lat="32.86792" lon="-4.26135"></trkpt>
      <trkpt lat="32.87018" lon="-4.25834"></trkpt>
      <trkpt lat="32.87328" lon="-4.25335"></trkpt>
      <trkpt lat="32.87614" lon="-4.24538"></trkpt>
      <trkpt lat="32.87582" lon="-4.24090"></trkpt>
      <trkpt lat="32.87619" lon="-4.23958"></trkpt>
      <trkpt lat="32.87690" lon="-4.23908"></trkpt>
      <trkpt lat="32.87750" lon="-4.23906"></trkpt>
      <trkpt lat="32.88043" lon="-4.24051"></trkpt>
      <trkpt lat="32.88311" lon="-4.24090"></trkpt>
      <trkpt lat="32.88489" lon="-4.24238"></trkpt>
      <trkpt lat="32.88769" lon="-4.24269"></trkpt>
      <trkpt lat="32.88887" lon="-4.24253"></trkpt>
      <trkpt lat="32.89243" lon="-4.24071"></trkpt>
      <trkpt lat="32.89582" lon="-4.23714"></trkpt>
      <trkpt lat="32.89703" lon="-4.23411"></trkpt>
      <trkpt lat="32.89996" lon="-4.23111"></trkpt>
      <trkpt lat="32.91229" lon="-4.22600"></trkpt>
      <trkpt lat="32.91684" lon="-4.22264"></trkpt>
      <trkpt lat="32.92467" lon="-4.21945"></trkpt>
      <trkpt lat="32.93581" lon="-4.21233"></trkpt>
      <trkpt lat="32.94450" lon="-4.20086"></trkpt>
      <trkpt lat="32.95247" lon="-4.19310"></trkpt>
      <trkpt lat="32.95660" lon="-4.18711"></trkpt>
      <trkpt lat="32.95743" lon="-4.18569"></trkpt>
      <trkpt lat="32.95917" lon="-4.18141"></trkpt>
      <trkpt lat="32.96209" lon="-4.17307"></trkpt>
      <trkpt lat="32.96278" lon="-4.17042"></trkpt>
      <trkpt lat="32.96496" lon="-4.16797"></trkpt>
      <trkpt lat="32.96613" lon="-4.16502"></trkpt>
      <trkpt lat="32.97001" lon="-4.16092"></trkpt>
      <trkpt lat="32.97313" lon="-4.15418"></trkpt>
      <trkpt lat="32.97635" lon="-4.15066"></trkpt>
      <trkpt lat="32.98153" lon="-4.14420"></trkpt>
      <trkpt lat="32.98447" lon="-4.14305"></trkpt>
      <trkpt lat="32.98691" lon="-4.14281"></trkpt>
      <trkpt lat="32.98802" lon="-4.14203"></trkpt>
      <trkpt lat="32.98944" lon="-4.13990"></trkpt>
      <trkpt lat="32.99092" lon="-4.13651"></trkpt>
      <trkpt lat="32.99858" lon="-4.12692"></trkpt>
      <trkpt lat="33.00415" lon="-4.11505"></trkpt>
      <trkpt lat="33.00861" lon="-4.10722"></trkpt>
      <trkpt lat="33.01327" lon="-4.10267"></trkpt>
      <trkpt lat="33.02585" lon="-4.08438"></trkpt>
      <trkpt lat="33.03381" lon="-4.07707"></trkpt>
      <trkpt lat="33.03422" lon="-4.07590"></trkpt>
      <trkpt lat="33.03616" lon="-4.06640"></trkpt>
      <trkpt lat="33.03684" lon="-4.06128"></trkpt>
      <trkpt lat="33.03608" lon="-4.05600"></trkpt>
      <trkpt lat="33.03614" lon="-4.05493"></trkpt>
      <trkpt lat="33.03661" lon="-4.05402"></trkpt>
      <trkpt lat="33.03717" lon="-4.05360"></trkpt>
      <trkpt lat="33.04057" lon="-4.05291"></trkpt>
      <trkpt lat="33.04118" lon="-4.05213"></trkpt>
      <trkpt lat="33.04135" lon="-4.05148"></trkpt>
      <trkpt lat="33.04046" lon="-4.04626"></trkpt>
      <trkpt lat="33.04167" lon="-4.04129"></trkpt>
      <trkpt lat="33.04205" lon="-4.03778"></trkpt>
      <trkpt lat="33.04135" lon="-4.03273"></trkpt>
      <trkpt lat="33.04223" lon="-4.02616"></trkpt>
      <trkpt lat="33.04165" lon="-4.02043"></trkpt>
      <trkpt lat="33.04250" lon="-4.01567"></trkpt>
      <trkpt lat="33.04232" lon="-4.01285"></trkpt>
      <trkpt lat="33.04249" lon="-4.01088"></trkpt>
      <trkpt lat="33.04202" lon="-4.00635"></trkpt>
      <trkpt lat="33.04234" lon="-4.00476"></trkpt>
      <trkpt lat="33.04224" lon="-4.00425"></trkpt>
      <trkpt lat="33.04261" lon="-4.00387"></trkpt>
      <trkpt lat="33.04323" lon="-4.00160"></trkpt>
      <trkpt lat="33.04430" lon="-3.99622"></trkpt>
      <trkpt lat="33.04755" lon="-3.98851"></trkpt>
      <trkpt lat="33.04753" lon="-3.98764"></trkpt>
      <trkpt lat="33.04682" lon="-3.98597"></trkpt>
      <trkpt lat="33.04700" lon="-3.98521"></trkpt>
      <trkpt lat="33.04900" lon="-3.98475"></trkpt>
      <trkpt lat="33.05020" lon="-3.98566"></trkpt>
      <trkpt lat="33.05165" lon="-3.98569"></trkpt>
      <trkpt lat="33.05498" lon="-3.98848"></trkpt>
      <trkpt lat="33.05665" lon="-3.99078"></trkpt>
      <trkpt lat="33.05735" lon="-3.99077"></trkpt>
      <trkpt lat="33.06268" lon="-3.98930"></trkpt>
      <trkpt lat="33.06966" lon="-3.98388"></trkpt>
      <trkpt lat="33.07415" lon="-3.98188"></trkpt>
      <trkpt lat="33.07790" lon="-3.97936"></trkpt>
      <trkpt lat="33.08264" lon="-3.97252"></trkpt>
      <trkpt lat="33.08553" lon="-3.96886"></trkpt>
      <trkpt lat="33.08787" lon="-3.96705"></trkpt>
      <trkpt lat="33.08872" lon="-3.96666"></trkpt>
      <trkpt lat="33.09329" lon="-3.96590"></trkpt>
      <trkpt lat="33.10032" lon="-3.96388"></trkpt>
      <trkpt lat="33.10965" lon="-3.95660"></trkpt>
      <trkpt lat="33.11488" lon="-3.94974"></trkpt>
      <trkpt lat="33.11886" lon="-3.93979"></trkpt>
      <trkpt lat="33.12226" lon="-3.93681"></trkpt>
      <trkpt lat="33.12803" lon="-3.92874"></trkpt>
      <trkpt lat="33.13077" lon="-3.92243"></trkpt>
      <trkpt lat="33.13374" lon="-3.91668"></trkpt>
      <trkpt lat="33.13471" lon="-3.91531"></trkpt>
      <trkpt lat="33.15863" lon="-3.89406"></trkpt>
      <trkpt lat="33.16623" lon="-3.89043"></trkpt>
      <trkpt lat="33.18135" lon="-3.87904"></trkpt>
      <trkpt lat="33.18903" lon="-3.87616"></trkpt>
      <trkpt lat="33.19613" lon="-3.87018"></trkpt>
      <trkpt lat="33.21665" lon="-3.83667"></trkpt>
      <trkpt lat="33.21745" lon="-3.83584"></trkpt>
      <trkpt lat="33.23072" lon="-3.82649"></trkpt>
      <trkpt lat="33.24193" lon="-3.82765"></trkpt>
      <trkpt lat="33.24264" lon="-3.82757"></trkpt>
      <trkpt lat="33.24352" lon="-3.82708"></trkpt>
      <trkpt lat="33.32854" lon="-3.73832"></trkpt>
      <trkpt lat="33.33171" lon="-3.73486"></trkpt>
      <trkpt lat="33.33217" lon="-3.73336"></trkpt>
      <trkpt lat="33.33184" lon="-3.72803"></trkpt>
      <trkpt lat="33.33065" lon="-3.71998"></trkpt>
      <trkpt lat="33.33078" lon="-3.71655"></trkpt>
      <trkpt lat="33.32983" lon="-3.70540"></trkpt>
      <trkpt lat="33.33036" lon="-3.70314"></trkpt>
      <trkpt lat="33.33122" lon="-3.70215"></trkpt>
      <trkpt lat="33.33411" lon="-3.70205"></trkpt>
      <trkpt lat="33.33518" lon="-3.70130"></trkpt>
      <trkpt lat="33.33649" lon="-3.69386"></trkpt>
      <trkpt lat="33.33724" lon="-3.69155"></trkpt>
      <trkpt lat="33.35864" lon="-3.65725"></trkpt>
      <trkpt lat="33.35945" lon="-3.65639"></trkpt>
      <trkpt lat="33.37460" lon="-3.64811"></trkpt>
      <trkpt lat="33.38750" lon="-3.64837"></trkpt>
      <trkpt lat="33.38842" lon="-3.64868"></trkpt>
      <trkpt lat="33.39181" lon="-3.65080"></trkpt>
      <trkpt lat="33.39311" lon="-3.65103"></trkpt>
      <trkpt lat="33.39474" lon="-3.65079"></trkpt>
      <trkpt lat="33.43274" lon="-3.63188"></trkpt>
      <trkpt lat="33.47371" lon="-3.62013"></trkpt>
      <trkpt lat="33.48214" lon="-3.61556"></trkpt>
      <trkpt lat="33.49439" lon="-3.61509"></trkpt>
      <trkpt lat="33.49564" lon="-3.61405"></trkpt>
      <trkpt lat="33.49778" lon="-3.61053"></trkpt>
      <trkpt lat="33.49806" lon="-3.60938"></trkpt>
      <trkpt lat="33.49817" lon="-3.60606"></trkpt>
      <trkpt lat="33.49861" lon="-3.60483"></trkpt>
      <trkpt lat="33.49973" lon="-3.60320"></trkpt>
      <trkpt lat="33.50091" lon="-3.60247"></trkpt>
      <trkpt lat="33.50456" lon="-3.60163"></trkpt>
      <trkpt lat="33.50888" lon="-3.60183"></trkpt>
      <trkpt lat="33.52239" lon="-3.60076"></trkpt>
      <trkpt lat="33.53054" lon="-3.60132"></trkpt>
      <trkpt lat="33.53837" lon="-3.59809"></trkpt>
      <trkpt lat="33.55337" lon="-3.59310"></trkpt>
      <trkpt lat="33.55426" lon="-3.59243"></trkpt>
      <trkpt lat="33.56195" lon="-3.58195"></trkpt>
      <trkpt lat="33.56684" lon="-3.57760"></trkpt>
      <trkpt lat="33.57002" lon="-3.57121"></trkpt>
      <trkpt lat="33.57124" lon="-3.56985"></trkpt>
      <trkpt lat="33.57401" lon="-3.56886"></trkpt>
      <trkpt lat="33.57506" lon="-3.56907"></trkpt>
      <trkpt lat="33.57681" lon="-3.57006"></trkpt>
      <trkpt lat="33.57825" lon="-3.56996"></trkpt>
      <trkpt lat="33.59488" lon="-3.56128"></trkpt>
      <trkpt lat="33.59897" lon="-3.56045"></trkpt>
      <trkpt lat="33.60607" lon="-3.55705"></trkpt>
      <trkpt lat="33.60862" lon="-3.55548"></trkpt>
      <trkpt lat="33.61826" lon="-3.54669"></trkpt>
      <trkpt lat="33.61946" lon="-3.54600"></trkpt>
      <trkpt lat="33.63815" lon="-3.54318"></trkpt>
      <trkpt lat="33.64436" lon="-3.54103"></trkpt>
      <trkpt lat="33.65689" lon="-3.53929"></trkpt>
      <trkpt lat="33.66400" lon="-3.53938"></trkpt>
      <trkpt lat="33.67709" lon="-3.53669"></trkpt>
      <trkpt lat="33.67903" lon="-3.53553"></trkpt>
      <trkpt lat="33.68466" lon="-3.52920"></trkpt>
      <trkpt lat="33.68596" lon="-3.52854"></trkpt>
      <trkpt lat="33.70161" lon="-3.52790"></trkpt>
      <trkpt lat="33.70902" lon="-3.52897"></trkpt>
      <trkpt lat="33.71030" lon="-3.52865"></trkpt>
      <trkpt lat="33.71693" lon="-3.52512"></trkpt>
      <trkpt lat="33.72960" lon="-3.51281"></trkpt>
      <trkpt lat="33.73070" lon="-3.51228"></trkpt>
      <trkpt lat="33.73751" lon="-3.51052"></trkpt>
      <trkpt lat="33.73858" lon="-3.50996"></trkpt>
      <trkpt lat="33.74710" lon="-3.49915"></trkpt>
      <trkpt lat="33.74803" lon="-3.49869"></trkpt>
      <trkpt lat="33.75565" lon="-3.49641"></trkpt>
      <trkpt lat="33.77650" lon="-3.47951"></trkpt>
      <trkpt lat="33.78881" lon="-3.47256"></trkpt>
      <trkpt lat="33.78972" lon="-3.47184"></trkpt>
      <trkpt lat="33.79162" lon="-3.46945"></trkpt>
      <trkpt lat="33.79279" lon="-3.46909"></trkpt>
      <trkpt lat="33.79395" lon="-3.46939"></trkpt>
      <trkpt lat="33.79576" lon="-3.47211"></trkpt>
      <trkpt lat="33.79661" lon="-3.47248"></trkpt>
      <trkpt lat="33.79742" lon="-3.47228"></trkpt>
      <trkpt lat="33.81408" lon="-3.45443"></trkpt>
      <trkpt lat="33.82695" lon="-3.44755"></trkpt>
      <trkpt lat="33.84348" lon="-3.44287"></trkpt>
      <trkpt lat="33.84486" lon="-3.44220"></trkpt>
      <trkpt lat="33.84993" lon="-3.43621"></trkpt>
      <trkpt lat="33.85932" lon="-3.42121"></trkpt>
      <trkpt lat="33.86182" lon="-3.41799"></trkpt>
      <trkpt lat="33.86775" lon="-3.41484"></trkpt>
      <trkpt lat="33.86895" lon="-3.41350"></trkpt>
      <trkpt lat="33.87199" lon="-3.41365"></trkpt>
      <trkpt lat="33.87494" lon="-3.41288"></trkpt>
      <trkpt lat="33.87656" lon="-3.41065"></trkpt>
      <trkpt lat="33.90051" lon="-3.39391"></trkpt>
      <trkpt lat="33.91110" lon="-3.38522"></trkpt>
      <trkpt lat="33.91266" lon="-3.38373"></trkpt>
      <trkpt lat="33.97095" lon="-3.31457"></trkpt>
      <trkpt lat="33.98122" lon="-3.30376"></trkpt>
      <trkpt lat="33.98223" lon="-3.30137"></trkpt>
      <trkpt lat="33.98225" lon="-3.29639"></trkpt>
      <trkpt lat="33.98295" lon="-3.29404"></trkpt>
      <trkpt lat="33.99903" lon="-3.27217"></trkpt>
      <trkpt lat="34.00040" lon="-3.27090"></trkpt>
      <trkpt lat="34.00236" lon="-3.26975"></trkpt>
      <trkpt lat="34.00742" lon="-3.26869"></trkpt>
      <trkpt lat="34.00932" lon="-3.26773"></trkpt>
      <trkpt lat="34.03621" lon="-3.24038"></trkpt>
      <trkpt lat="34.03964" lon="-3.23754"></trkpt>
      <trkpt lat="34.04199" lon="-3.23611"></trkpt>
      <trkpt lat="34.04645" lon="-3.23421"></trkpt>
      <trkpt lat="34.05120" lon="-3.23327"></trkpt>
      <trkpt lat="34.13275" lon="-3.22840"></trkpt>
      <trkpt lat="34.13435" lon="-3.22845"></trkpt>
      <trkpt lat="34.13739" lon="-3.22903"></trkpt>
      <trkpt lat="34.14410" lon="-3.22857"></trkpt>
      <trkpt lat="34.15702" lon="-3.22884"></trkpt>
      <trkpt lat="34.16017" lon="-3.22957"></trkpt>
      <trkpt lat="34.17079" lon="-3.23075"></trkpt>
      <trkpt lat="34.17200" lon="-3.23109"></trkpt>
      <trkpt lat="34.17371" lon="-3.23200"></trkpt>
      <trkpt lat="34.17790" lon="-3.23576"></trkpt>
      <trkpt lat="34.18410" lon="-3.24440"></trkpt>
      <trkpt lat="34.18736" lon="-3.24795"></trkpt>
      <trkpt lat="34.18997" lon="-3.25004"></trkpt>
      <trkpt lat="34.19240" lon="-3.25157"></trkpt>
      <trkpt lat="34.19733" lon="-3.25363"></trkpt>
      <trkpt lat="34.20110" lon="-3.25560"></trkpt>
      <trkpt lat="34.20422" lon="-3.25775"></trkpt>
      <trkpt lat="34.20770" lon="-3.26110"></trkpt>
      <trkpt lat="34.21050" lon="-3.26479"></trkpt>
      <trkpt lat="34.21388" lon="-3.27125"></trkpt>
      <trkpt lat="34.21595" lon="-3.27456"></trkpt>
      <trkpt lat="34.23788" lon="-3.30589"></trkpt>
      <trkpt lat="34.23859" lon="-3.30684"></trkpt>
      <trkpt lat="34.23907" lon="-3.30699"></trkpt>
      <trkpt lat="34.23870" lon="-3.31235"></trkpt>
      <trkpt lat="34.23906" lon="-3.31348"></trkpt>
      <trkpt lat="34.24076" lon="-3.31589"></trkpt>
      <trkpt lat="34.24153" lon="-3.31755"></trkpt>
      <trkpt lat="34.24184" lon="-3.31903"></trkpt>
      <trkpt lat="34.24184" lon="-3.32255"></trkpt>
      <trkpt lat="34.24130" lon="-3.32372"></trkpt>
      <trkpt lat="34.23939" lon="-3.32574"></trkpt>
      <trkpt lat="34.23128" lon="-3.34060"></trkpt>
      <trkpt lat="34.22652" lon="-3.34986"></trkpt>
      <trkpt lat="34.22642" lon="-3.35164"></trkpt>
      <trkpt lat="34.22590" lon="-3.35383"></trkpt>
      <trkpt lat="34.22499" lon="-3.35541"></trkpt>
      <trkpt lat="34.22559" lon="-3.35602"></trkpt>
      <trkpt lat="34.22700" lon="-3.35379"></trkpt>
      <trkpt lat="34.22739" lon="-3.35267"></trkpt>
      <trkpt lat="34.22666" lon="-3.35187"></trkpt>
      <trkpt lat="34.22612" lon="-3.35165"></trkpt>
      <trkpt lat="34.22652" lon="-3.34986"></trkpt>
      <trkpt lat="34.23098" lon="-3.34094"></trkpt>
      <trkpt lat="34.23939" lon="-3.32574"></trkpt>
      <trkpt lat="34.24130" lon="-3.32372"></trkpt>
      <trkpt lat="34.24184" lon="-3.32255"></trkpt>
      <trkpt lat="34.24184" lon="-3.31903"></trkpt>
      <trkpt lat="34.24153" lon="-3.31755"></trkpt>
      <trkpt lat="34.24076" lon="-3.31589"></trkpt>
      <trkpt lat="34.23906" lon="-3.31348"></trkpt>
      <trkpt lat="34.23874" lon="-3.31259"></trkpt>
      <trkpt lat="34.23882" lon="-3.30705"></trkpt>
      <trkpt lat="34.23997" lon="-3.29273"></trkpt>
      <trkpt lat="34.24501" lon="-3.26844"></trkpt>
      <trkpt lat="34.24602" lon="-3.26668"></trkpt>
      <trkpt lat="34.25252" lon="-3.26025"></trkpt>
      <trkpt lat="34.25653" lon="-3.25474"></trkpt>
      <trkpt lat="34.25967" lon="-3.24988"></trkpt>
      <trkpt lat="34.26029" lon="-3.24790"></trkpt>
      <trkpt lat="34.26238" lon="-3.23476"></trkpt>
      <trkpt lat="34.27569" lon="-3.19348"></trkpt>
      <trkpt lat="34.27689" lon="-3.19070"></trkpt>
      <trkpt lat="34.28469" lon="-3.17537"></trkpt>
      <trkpt lat="34.28554" lon="-3.17306"></trkpt>
      <trkpt lat="34.29023" lon="-3.14976"></trkpt>
      <trkpt lat="34.29109" lon="-3.14826"></trkpt>
      <trkpt lat="34.29257" lon="-3.14698"></trkpt>
      <trkpt lat="34.29638" lon="-3.14615"></trkpt>
      <trkpt lat="34.29728" lon="-3.14571"></trkpt>
      <trkpt lat="34.29850" lon="-3.14436"></trkpt>
      <trkpt lat="34.29954" lon="-3.14258"></trkpt>
      <trkpt lat="34.29980" lon="-3.14144"></trkpt>
      <trkpt lat="34.29977" lon="-3.13716"></trkpt>
      <trkpt lat="34.30047" lon="-3.13024"></trkpt>
      <trkpt lat="34.30092" lon="-3.11482"></trkpt>
      <trkpt lat="34.30182" lon="-3.11152"></trkpt>
      <trkpt lat="34.31565" lon="-3.08964"></trkpt>
      <trkpt lat="34.32609" lon="-3.07047"></trkpt>
      <trkpt lat="34.32738" lon="-3.06921"></trkpt>
      <trkpt lat="34.33002" lon="-3.06853"></trkpt>
      <trkpt lat="34.33130" lon="-3.06756"></trkpt>
      <trkpt lat="34.33366" lon="-3.06404"></trkpt>
      <trkpt lat="34.33606" lon="-3.05761"></trkpt>
      <trkpt lat="34.33835" lon="-3.05410"></trkpt>
      <trkpt lat="34.33969" lon="-3.05279"></trkpt>
      <trkpt lat="34.34463" lon="-3.04901"></trkpt>
      <trkpt lat="34.34775" lon="-3.04530"></trkpt>
      <trkpt lat="34.35167" lon="-3.04201"></trkpt>
      <trkpt lat="34.35554" lon="-3.04111"></trkpt>
      <trkpt lat="34.35965" lon="-3.04110"></trkpt>
      <trkpt lat="34.36053" lon="-3.04087"></trkpt>
      <trkpt lat="34.36970" lon="-3.03363"></trkpt>
      <trkpt lat="34.37254" lon="-3.02918"></trkpt>
      <trkpt lat="34.37573" lon="-3.02684"></trkpt>
      <trkpt lat="34.37830" lon="-3.02196"></trkpt>
      <trkpt lat="34.38283" lon="-3.01815"></trkpt>
      <trkpt lat="34.40573" lon="-2.98218"></trkpt>
      <trkpt lat="34.40608" lon="-2.98065"></trkpt>
      <trkpt lat="34.40609" lon="-2.97924"></trkpt>
      <trkpt lat="34.40487" lon="-2.97467"></trkpt>
      <trkpt lat="34.40465" lon="-2.97288"></trkpt>
      <trkpt lat="34.40590" lon="-2.96161"></trkpt>
      <trkpt lat="34.40691" lon="-2.95711"></trkpt>
      <trkpt lat="34.41069" lon="-2.94373"></trkpt>
      <trkpt lat="34.41053" lon="-2.94175"></trkpt>
      <trkpt lat="34.40900" lon="-2.93641"></trkpt>
      <trkpt lat="34.40977" lon="-2.93011"></trkpt>
      <trkpt lat="34.41005" lon="-2.92912"></trkpt>
      <trkpt lat="34.41202" lon="-2.92522"></trkpt>
      <trkpt lat="34.41224" lon="-2.92430"></trkpt>
      <trkpt lat="34.41355" lon="-2.92218"></trkpt>
      <trkpt lat="34.41593" lon="-2.91551"></trkpt>
      <trkpt lat="34.41849" lon="-2.91039"></trkpt>
      <trkpt lat="34.41822" lon="-2.90923"></trkpt>
      <trkpt lat="34.41805" lon="-2.90578"></trkpt>
      <trkpt lat="34.41503" lon="-2.89880"></trkpt>
      <trkpt lat="34.41348" lon="-2.89408"></trkpt>
      <trkpt lat="34.41335" lon="-2.89390"></trkpt>
      <trkpt lat="34.41241" lon="-2.89391"></trkpt>
      <trkpt lat="34.41260" lon="-2.89465"></trkpt>
      <trkpt lat="34.41341" lon="-2.89370"></trkpt>
      <trkpt lat="34.41362" lon="-2.89375"></trkpt>
      <trkpt lat="34.41369" lon="-2.89465"></trkpt>
      <trkpt lat="34.41482" lon="-2.89800"></trkpt>
      <trkpt lat="34.41819" lon="-2.90588"></trkpt>
      <trkpt lat="34.41830" lon="-2.90932"></trkpt>
      <trkpt lat="34.41873" lon="-2.91036"></trkpt>
      <trkpt lat="34.41734" lon="-2.91237"></trkpt>
      <trkpt lat="34.41622" lon="-2.91571"></trkpt>
      <trkpt lat="34.41583" lon="-2.91621"></trkpt>
      <trkpt lat="34.41355" lon="-2.92218"></trkpt>
      <trkpt lat="34.41266" lon="-2.92384"></trkpt>
      <trkpt lat="34.41256" lon="-2.92451"></trkpt>
      <trkpt lat="34.41216" lon="-2.92487"></trkpt>
      <trkpt lat="34.40986" lon="-2.92965"></trkpt>
      <trkpt lat="34.40900" lon="-2.93641"></trkpt>
      <trkpt lat="34.41053" lon="-2.94175"></trkpt>
      <trkpt lat="34.41072" lon="-2.94339"></trkpt>
      <trkpt lat="34.40829" lon="-2.95240"></trkpt>
      <trkpt lat="34.40858" lon="-2.95322"></trkpt>
      <trkpt lat="34.41842" lon="-2.96135"></trkpt>
      <trkpt lat="34.42165" lon="-2.96321"></trkpt>
      <trkpt lat="34.42333" lon="-2.96364"></trkpt>
      <trkpt lat="34.42789" lon="-2.96310"></trkpt>
      <trkpt lat="34.43174" lon="-2.96364"></trkpt>
      <trkpt lat="34.43294" lon="-2.96403"></trkpt>
      <trkpt lat="34.43631" lon="-2.96633"></trkpt>
      <trkpt lat="34.43744" lon="-2.96764"></trkpt>
      <trkpt lat="34.43808" lon="-2.96914"></trkpt>
      <trkpt lat="34.43942" lon="-2.97740"></trkpt>
      <trkpt lat="34.44049" lon="-2.97922"></trkpt>
      <trkpt lat="34.44197" lon="-2.98032"></trkpt>
      <trkpt lat="34.44708" lon="-2.98196"></trkpt>
      <trkpt lat="34.45215" lon="-2.98513"></trkpt>
      <trkpt lat="34.45413" lon="-2.98584"></trkpt>
      <trkpt lat="34.46541" lon="-2.98722"></trkpt>
      <trkpt lat="34.46608" lon="-2.98706"></trkpt>
      <trkpt lat="34.46723" lon="-2.98742"></trkpt>
      <trkpt lat="34.47089" lon="-2.98730"></trkpt>
      <trkpt lat="34.47314" lon="-2.98764"></trkpt>
      <trkpt lat="34.48733" lon="-2.99373"></trkpt>
      <trkpt lat="34.48913" lon="-2.99413"></trkpt>
      <trkpt lat="34.49449" lon="-2.99441"></trkpt>
      <trkpt lat="34.49686" lon="-2.99531"></trkpt>
      <trkpt lat="34.49837" lon="-2.99682"></trkpt>
      <trkpt lat="34.50939" lon="-3.01058"></trkpt>
      <trkpt lat="34.51016" lon="-3.01192"></trkpt>
      <trkpt lat="34.51090" lon="-3.01492"></trkpt>
      <trkpt lat="34.51200" lon="-3.01721"></trkpt>
      <trkpt lat="34.51323" lon="-3.01888"></trkpt>
      <trkpt lat="34.51520" lon="-3.02039"></trkpt>
      <trkpt lat="34.51955" lon="-3.02183"></trkpt>
      <trkpt lat="34.53693" lon="-3.03056"></trkpt>
      <trkpt lat="34.53878" lon="-3.03093"></trkpt>
      <trkpt lat="34.54022" lon="-3.03077"></trkpt>
      <trkpt lat="34.54113" lon="-3.03033"></trkpt>
      <trkpt lat="34.54225" lon="-3.02941"></trkpt>
      <trkpt lat="34.54299" lon="-3.02843"></trkpt>
      <trkpt lat="34.54384" lon="-3.02633"></trkpt>
      <trkpt lat="34.54450" lon="-3.02209"></trkpt>
      <trkpt lat="34.54568" lon="-3.01991"></trkpt>
      <trkpt lat="34.54647" lon="-3.01925"></trkpt>
      <trkpt lat="34.54767" lon="-3.01872"></trkpt>
      <trkpt lat="34.54930" lon="-3.01869"></trkpt>
      <trkpt lat="34.55063" lon="-3.01931"></trkpt>
      <trkpt lat="34.55257" lon="-3.02088"></trkpt>
      <trkpt lat="34.55323" lon="-3.02211"></trkpt>
      <trkpt lat="34.55426" lon="-3.02523"></trkpt>
      <trkpt lat="34.55573" lon="-3.02715"></trkpt>
      <trkpt lat="34.55896" lon="-3.02888"></trkpt>
      <trkpt lat="34.56334" lon="-3.03061"></trkpt>
      <trkpt lat="34.56602" lon="-3.03245"></trkpt>
      <trkpt lat="34.56840" lon="-3.03366"></trkpt>
      <trkpt lat="34.57030" lon="-3.03430"></trkpt>
      <trkpt lat="34.57161" lon="-3.03391"></trkpt>
      <trkpt lat="34.57603" lon="-3.03135"></trkpt>
      <trkpt lat="34.58297" lon="-3.03003"></trkpt>
      <trkpt lat="34.60379" lon="-3.02959"></trkpt>
      <trkpt lat="34.61131" lon="-3.02885"></trkpt>
      <trkpt lat="34.61408" lon="-3.02832"></trkpt>
      <trkpt lat="34.62401" lon="-3.02542"></trkpt>
      <trkpt lat="34.63412" lon="-3.02522"></trkpt>
      <trkpt lat="34.64047" lon="-3.02289"></trkpt>
      <trkpt lat="34.64143" lon="-3.02221"></trkpt>
      <trkpt lat="34.64196" lon="-3.02139"></trkpt>
      <trkpt lat="34.64301" lon="-3.01707"></trkpt>
      <trkpt lat="34.64449" lon="-3.01498"></trkpt>
      <trkpt lat="34.64788" lon="-3.01106"></trkpt>
      <trkpt lat="34.64952" lon="-3.00953"></trkpt>
      <trkpt lat="34.65350" lon="-3.00765"></trkpt>
      <trkpt lat="34.65499" lon="-3.00654"></trkpt>
      <trkpt lat="34.66095" lon="-2.99841"></trkpt>
      <trkpt lat="34.66860" lon="-2.99022"></trkpt>
      <trkpt lat="34.67451" lon="-2.98787"></trkpt>
      <trkpt lat="34.68195" lon="-2.98425"></trkpt>
      <trkpt lat="34.68567" lon="-2.98125"></trkpt>
      <trkpt lat="34.68663" lon="-2.98097"></trkpt>
      <trkpt lat="34.69335" lon="-2.98034"></trkpt>
      <trkpt lat="34.69741" lon="-2.97845"></trkpt>
      <trkpt lat="34.69897" lon="-2.97852"></trkpt>
      <trkpt lat="34.70164" lon="-2.97996"></trkpt>
      <trkpt lat="34.70263" lon="-2.98025"></trkpt>
      <trkpt lat="34.70823" lon="-2.98018"></trkpt>
      <trkpt lat="34.71258" lon="-2.98276"></trkpt>
      <trkpt lat="34.71731" lon="-2.98389"></trkpt>
      <trkpt lat="34.72456" lon="-2.98639"></trkpt>
      <trkpt lat="34.72919" lon="-2.98979"></trkpt>
      <trkpt lat="34.73230" lon="-2.99083"></trkpt>
      <trkpt lat="34.73316" lon="-2.99136"></trkpt>
      <trkpt lat="34.73813" lon="-2.99818"></trkpt>
      <trkpt lat="34.74023" lon="-2.99913"></trkpt>
      <trkpt lat="34.74106" lon="-2.99899"></trkpt>
      <trkpt lat="34.74242" lon="-2.99802"></trkpt>
      <trkpt lat="34.74311" lon="-2.99687"></trkpt>
      <trkpt lat="34.74392" lon="-2.99392"></trkpt>
      <trkpt lat="34.74501" lon="-2.99253"></trkpt>
      <trkpt lat="34.75171" lon="-2.98936"></trkpt>
      <trkpt lat="34.75706" lon="-2.98895"></trkpt>
      <trkpt lat="34.77074" lon="-2.98676"></trkpt>
      <trkpt lat="34.78488" lon="-2.98543"></trkpt>
      <trkpt lat="34.79504" lon="-2.98311"></trkpt>
      <trkpt lat="34.79760" lon="-2.98058"></trkpt>
      <trkpt lat="34.79843" lon="-2.97900"></trkpt>
      <trkpt lat="34.80953" lon="-2.93754"></trkpt>
      <trkpt lat="34.81067" lon="-2.93538"></trkpt>
      <trkpt lat="34.81367" lon="-2.93251"></trkpt>
      <trkpt lat="34.81438" lon="-2.93138"></trkpt>
      <trkpt lat="34.81697" lon="-2.92389"></trkpt>
      <trkpt lat="34.81799" lon="-2.91872"></trkpt>
      <trkpt lat="34.81968" lon="-2.91377"></trkpt>
      <trkpt lat="34.82053" lon="-2.91176"></trkpt>
      <trkpt lat="34.82229" lon="-2.90926"></trkpt>
      <trkpt lat="34.82304" lon="-2.90773"></trkpt>
      <trkpt lat="34.82798" lon="-2.89328"></trkpt>
      <trkpt lat="34.82962" lon="-2.88620"></trkpt>
      <trkpt lat="34.83334" lon="-2.87961"></trkpt>
      <trkpt lat="34.83640" lon="-2.87774"></trkpt>
      <trkpt lat="34.83875" lon="-2.87726"></trkpt>
      <trkpt lat="34.84078" lon="-2.87744"></trkpt>
      <trkpt lat="34.84531" lon="-2.87858"></trkpt>
      <trkpt lat="34.84855" lon="-2.88022"></trkpt>
      <trkpt lat="34.85092" lon="-2.88029"></trkpt>
      <trkpt lat="34.85527" lon="-2.87906"></trkpt>
      <trkpt lat="34.85745" lon="-2.87921"></trkpt>
      <trkpt lat="34.86040" lon="-2.88053"></trkpt>
      <trkpt lat="34.86208" lon="-2.88060"></trkpt>
      <trkpt lat="34.86337" lon="-2.87986"></trkpt>
      <trkpt lat="34.86432" lon="-2.87881"></trkpt>
      <trkpt lat="34.86586" lon="-2.87457"></trkpt>
      <trkpt lat="34.86666" lon="-2.87349"></trkpt>
      <trkpt lat="34.86995" lon="-2.87130"></trkpt>
      <trkpt lat="34.87690" lon="-2.86860"></trkpt>
      <trkpt lat="34.87967" lon="-2.86868"></trkpt>
      <trkpt lat="34.88228" lon="-2.86976"></trkpt>
      <trkpt lat="34.88345" lon="-2.86984"></trkpt>
      <trkpt lat="34.88857" lon="-2.86706"></trkpt>
      <trkpt lat="34.89068" lon="-2.86704"></trkpt>
      <trkpt lat="34.89273" lon="-2.86645"></trkpt>
      <trkpt lat="34.89351" lon="-2.86648"></trkpt>
      <trkpt lat="34.89792" lon="-2.86854"></trkpt>
      <trkpt lat="34.90503" lon="-2.87060"></trkpt>
      <trkpt lat="34.91167" lon="-2.87341"></trkpt>
      <trkpt lat="34.91801" lon="-2.87422"></trkpt>
      <trkpt lat="34.92434" lon="-2.87395"></trkpt>
      <trkpt lat="34.92616" lon="-2.87432"></trkpt>
      <trkpt lat="34.93075" lon="-2.87793"></trkpt>
      <trkpt lat="34.93462" lon="-2.87957"></trkpt>
      <trkpt lat="34.94593" lon="-2.88537"></trkpt>
      <trkpt lat="34.95271" lon="-2.89027"></trkpt>
      <trkpt lat="34.95864" lon="-2.89682"></trkpt>
      <trkpt lat="34.96131" lon="-2.90037"></trkpt>
      <trkpt lat="34.96883" lon="-2.90927"></trkpt>
      <trkpt lat="34.97197" lon="-2.91193"></trkpt>
      <trkpt lat="34.98224" lon="-2.91663"></trkpt>
      <trkpt lat="34.99039" lon="-2.92422"></trkpt>
      <trkpt lat="34.99199" lon="-2.92537"></trkpt>
      <trkpt lat="34.99354" lon="-2.92604"></trkpt>
      <trkpt lat="34.99676" lon="-2.92670"></trkpt>
      <trkpt lat="34.99813" lon="-2.92742"></trkpt>
      <trkpt lat="34.99950" lon="-2.92909"></trkpt>
      <trkpt lat="35.00501" lon="-2.93870"></trkpt>
      <trkpt lat="35.00660" lon="-2.94024"></trkpt>
      <trkpt lat="35.01021" lon="-2.94245"></trkpt>
      <trkpt lat="35.01247" lon="-2.94435"></trkpt>
      <trkpt lat="35.02259" lon="-2.94892"></trkpt>
      <trkpt lat="35.02623" lon="-2.95023"></trkpt>
      <trkpt lat="35.04341" lon="-2.95947"></trkpt>
      <trkpt lat="35.04551" lon="-2.96040"></trkpt>
      <trkpt lat="35.04583" lon="-2.96039"></trkpt>
      <trkpt lat="35.04656" lon="-2.95952"></trkpt>
      <trkpt lat="35.05252" lon="-2.95175"></trkpt>
      <trkpt lat="35.05643" lon="-2.94712"></trkpt>
      <trkpt lat="35.05715" lon="-2.94567"></trkpt>
      <trkpt lat="35.06148" lon="-2.93410"></trkpt>
      <trkpt lat="35.06229" lon="-2.93269"></trkpt>
      <trkpt lat="35.06434" lon="-2.93080"></trkpt>
      <trkpt lat="35.06701" lon="-2.92995"></trkpt>
      <trkpt lat="35.06682" lon="-2.92933"></trkpt>
      <trkpt lat="35.06569" lon="-2.92962"></trkpt>
      <trkpt lat="35.06506" lon="-2.92825"></trkpt>
      <trkpt lat="35.06399" lon="-2.92894"></trkpt>
      <trkpt lat="35.06438" lon="-2.93009"></trkpt>
      <trkpt lat="35.06682" lon="-2.92933"></trkpt>
      <trkpt lat="35.06745" lon="-2.92984"></trkpt>
      <trkpt lat="35.07370" lon="-2.92878"></trkpt>
      <trkpt lat="35.07556" lon="-2.92933"></trkpt>
      <trkpt lat="35.07733" lon="-2.93006"></trkpt>
      <trkpt lat="35.08341" lon="-2.93448"></trkpt>
      <trkpt lat="35.08465" lon="-2.93493"></trkpt>
      <trkpt lat="35.08646" lon="-2.93501"></trkpt>
      <trkpt lat="35.13086" lon="-2.92186"></trkpt>
      <trkpt lat="35.13337" lon="-2.92266"></trkpt>
      <trkpt lat="35.13725" lon="-2.92467"></trkpt>
      <trkpt lat="35.15244" lon="-2.92855"></trkpt>
      <trkpt lat="35.17333" lon="-2.92868"></trkpt>
      <trkpt lat="35.17604" lon="-2.92793"></trkpt>
      <trkpt lat="35.17922" lon="-2.92783"></trkpt>
      <trkpt lat="35.17999" lon="-2.92851"></trkpt>
      <trkpt lat="35.18574" lon="-2.92818"></trkpt>
      <trkpt lat="35.18771" lon="-2.92904"></trkpt>
      <trkpt lat="35.18913" lon="-2.93037"></trkpt>
      <trkpt lat="35.19018" lon="-2.93095"></trkpt>
      <trkpt lat="35.19487" lon="-2.93115"></trkpt>
      <trkpt lat="35.19573" lon="-2.93088"></trkpt>
      <trkpt lat="35.19635" lon="-2.93037"></trkpt>
      <trkpt lat="35.20139" lon="-2.92191"></trkpt>
      <trkpt lat="35.20247" lon="-2.92057"></trkpt>
      <trkpt lat="35.20801" lon="-2.91528"></trkpt>
      <trkpt lat="35.20930" lon="-2.91467"></trkpt>
      <trkpt lat="35.21113" lon="-2.91439"></trkpt>
      <trkpt lat="35.21281" lon="-2.91479"></trkpt>
      <trkpt lat="35.21395" lon="-2.91538"></trkpt>
      <trkpt lat="35.21789" lon="-2.91942"></trkpt>
      <trkpt lat="35.22089" lon="-2.92096"></trkpt>
      <trkpt lat="35.22198" lon="-2.92183"></trkpt>
      <trkpt lat="35.22435" lon="-2.92464"></trkpt>
      <trkpt lat="35.23002" lon="-2.92736"></trkpt>
      <trkpt lat="35.23400" lon="-2.93120"></trkpt>
      <trkpt lat="35.23560" lon="-2.93205"></trkpt>
      <trkpt lat="35.24078" lon="-2.93358"></trkpt>
      <trkpt lat="35.25777" lon="-2.92941"></trkpt>
      <trkpt lat="35.26068" lon="-2.92968"></trkpt>
      <trkpt lat="35.26810" lon="-2.93334"></trkpt>
      <trkpt lat="35.26817" lon="-2.93307"></trkpt>
    </trkseg>
  </trk>
</gpx>
