<?xml version="1.0" encoding="UTF-8"?>
<gpx version="1.1" creator="Marokko Motorreis 2026"
     xmlns="http://www.topografix.com/GPX/1/1"
     xmlns:xsi="http://www.w3.org/2001/XMLSchema-instance"
     xsi:schemaLocation="http://www.topografix.com/GPX/1/1 http://www.topografix.com/GPX/1/1/gpx.xsd">
  <metadata><name>Dag 7 (18 okt) Ait Benhaddou - Tizi n Tichka - Marrakech</name><desc>175 km, ca. 3u41 rijden. Hoogste pas van de reis (2260 m). Warm aankleden. Defensief rijden in Marrakech.</desc></metadata>
  <wpt lat="31.044800" lon="-7.130802"><name>Ait Benhaddou</name><sym>Flag, Blue</sym></wpt>
  <wpt lat="31.286985" lon="-7.235167"><name>Kasbah Telouet (optioneel)</name><sym>Flag, Blue</sym></wpt>
  <wpt lat="31.286101" lon="-7.381095"><name>Tizi n Tichka pas 2260 m</name><sym>Flag, Blue</sym></wpt>
  <wpt lat="31.355318" lon="-7.391246"><name>Taddert</name><sym>Flag, Blue</sym></wpt>
  <wpt lat="31.625941" lon="-7.989529"><name>Marrakech - medina</name><sym>Flag, Blue</sym></wpt>
  <trk>
    <name>Dag 7 (18 okt) Ait Benhaddou - Tizi n Tichka - Marrakech</name>
    <desc>175 km, ca. 3u41 rijden. Hoogste pas van de reis (2260 m). Warm aankleden. Defensief rijden in Marrakech.</desc>
    <trkseg>
      <trkpt lat="31.04480" lon="-7.13080"></trkpt>
      <trkpt lat="31.04397" lon="-7.13186"></trkpt>
      <trkpt lat="31.04587" lon="-7.13377"></trkpt>
      <trkpt lat="31.04771" lon="-7.13617"></trkpt>
      <trkpt lat="31.04877" lon="-7.13908"></trkpt>
      <trkpt lat="31.04944" lon="-7.14003"></trkpt>
      <trkpt lat="31.05125" lon="-7.14077"></trkpt>
      <trkpt lat="31.05569" lon="-7.14351"></trkpt>
      <trkpt lat="31.05797" lon="-7.14394"></trkpt>
      <trkpt lat="31.06002" lon="-7.14530"></trkpt>
      <trkpt lat="31.06148" lon="-7.14549"></trkpt>
      <trkpt lat="31.06596" lon="-7.14454"></trkpt>
      <trkpt lat="31.06690" lon="-7.14375"></trkpt>
      <trkpt lat="31.06766" lon="-7.14194"></trkpt>
      <trkpt lat="31.06911" lon="-7.14137"></trkpt>
      <trkpt lat="31.07296" lon="-7.14189"></trkpt>
      <trkpt lat="31.07478" lon="-7.14248"></trkpt>
      <trkpt lat="31.07867" lon="-7.14146"></trkpt>
      <trkpt lat="31.07949" lon="-7.14183"></trkpt>
      <trkpt lat="31.08081" lon="-7.14315"></trkpt>
      <trkpt lat="31.08205" lon="-7.14330"></trkpt>
      <trkpt lat="31.08614" lon="-7.14465"></trkpt>
      <trkpt lat="31.08700" lon="-7.14417"></trkpt>
      <trkpt lat="31.08929" lon="-7.14203"></trkpt>
      <trkpt lat="31.09069" lon="-7.14142"></trkpt>
      <trkpt lat="31.09263" lon="-7.14121"></trkpt>
      <trkpt lat="31.09361" lon="-7.14042"></trkpt>
      <trkpt lat="31.09504" lon="-7.14044"></trkpt>
      <trkpt lat="31.09561" lon="-7.13987"></trkpt>
      <trkpt lat="31.09606" lon="-7.14005"></trkpt>
      <trkpt lat="31.09609" lon="-7.13936"></trkpt>
      <trkpt lat="31.09711" lon="-7.13989"></trkpt>
      <trkpt lat="31.09857" lon="-7.13969"></trkpt>
      <trkpt lat="31.09908" lon="-7.13932"></trkpt>
      <trkpt lat="31.09962" lon="-7.13985"></trkpt>
      <trkpt lat="31.10014" lon="-7.14088"></trkpt>
      <trkpt lat="31.10170" lon="-7.14108"></trkpt>
      <trkpt lat="31.10298" lon="-7.14083"></trkpt>
      <trkpt lat="31.10476" lon="-7.14005"></trkpt>
      <trkpt lat="31.10698" lon="-7.13819"></trkpt>
      <trkpt lat="31.10905" lon="-7.13686"></trkpt>
      <trkpt lat="31.11106" lon="-7.13712"></trkpt>
      <trkpt lat="31.11185" lon="-7.13676"></trkpt>
      <trkpt lat="31.11307" lon="-7.13708"></trkpt>
      <trkpt lat="31.11358" lon="-7.13580"></trkpt>
      <trkpt lat="31.11599" lon="-7.13456"></trkpt>
      <trkpt lat="31.11688" lon="-7.13361"></trkpt>
      <trkpt lat="31.11843" lon="-7.13351"></trkpt>
      <trkpt lat="31.11985" lon="-7.13512"></trkpt>
      <trkpt lat="31.12406" lon="-7.13621"></trkpt>
      <trkpt lat="31.12439" lon="-7.13590"></trkpt>
      <trkpt lat="31.12487" lon="-7.13405"></trkpt>
      <trkpt lat="31.12525" lon="-7.13364"></trkpt>
      <trkpt lat="31.12607" lon="-7.13346"></trkpt>
      <trkpt lat="31.12703" lon="-7.13277"></trkpt>
      <trkpt lat="31.12801" lon="-7.13269"></trkpt>
      <trkpt lat="31.12883" lon="-7.13218"></trkpt>
      <trkpt lat="31.13178" lon="-7.13159"></trkpt>
      <trkpt lat="31.13293" lon="-7.13159"></trkpt>
      <trkpt lat="31.13356" lon="-7.13130"></trkpt>
      <trkpt lat="31.13427" lon="-7.13021"></trkpt>
      <trkpt lat="31.13429" lon="-7.12937"></trkpt>
      <trkpt lat="31.13470" lon="-7.12854"></trkpt>
      <trkpt lat="31.13499" lon="-7.12662"></trkpt>
      <trkpt lat="31.13599" lon="-7.12713"></trkpt>
      <trkpt lat="31.13829" lon="-7.13007"></trkpt>
      <trkpt lat="31.13898" lon="-7.13011"></trkpt>
      <trkpt lat="31.13969" lon="-7.13095"></trkpt>
      <trkpt lat="31.14037" lon="-7.13064"></trkpt>
      <trkpt lat="31.14103" lon="-7.13102"></trkpt>
      <trkpt lat="31.14160" lon="-7.13244"></trkpt>
      <trkpt lat="31.14139" lon="-7.13495"></trkpt>
      <trkpt lat="31.14157" lon="-7.13624"></trkpt>
      <trkpt lat="31.14111" lon="-7.13780"></trkpt>
      <trkpt lat="31.14137" lon="-7.13882"></trkpt>
      <trkpt lat="31.14248" lon="-7.14024"></trkpt>
      <trkpt lat="31.14373" lon="-7.14113"></trkpt>
      <trkpt lat="31.14510" lon="-7.14153"></trkpt>
      <trkpt lat="31.14674" lon="-7.14081"></trkpt>
      <trkpt lat="31.14762" lon="-7.13994"></trkpt>
      <trkpt lat="31.14781" lon="-7.13748"></trkpt>
      <trkpt lat="31.14863" lon="-7.13484"></trkpt>
      <trkpt lat="31.14809" lon="-7.13260"></trkpt>
      <trkpt lat="31.14846" lon="-7.13098"></trkpt>
      <trkpt lat="31.14873" lon="-7.13112"></trkpt>
      <trkpt lat="31.14894" lon="-7.13236"></trkpt>
      <trkpt lat="31.14936" lon="-7.13287"></trkpt>
      <trkpt lat="31.14934" lon="-7.13340"></trkpt>
      <trkpt lat="31.15001" lon="-7.13474"></trkpt>
      <trkpt lat="31.15093" lon="-7.13519"></trkpt>
      <trkpt lat="31.15458" lon="-7.13246"></trkpt>
      <trkpt lat="31.15570" lon="-7.13235"></trkpt>
      <trkpt lat="31.15774" lon="-7.13091"></trkpt>
      <trkpt lat="31.15891" lon="-7.12854"></trkpt>
      <trkpt lat="31.16049" lon="-7.12763"></trkpt>
      <trkpt lat="31.16201" lon="-7.12757"></trkpt>
      <trkpt lat="31.16318" lon="-7.12806"></trkpt>
      <trkpt lat="31.16466" lon="-7.12820"></trkpt>
      <trkpt lat="31.16666" lon="-7.12904"></trkpt>
      <trkpt lat="31.16824" lon="-7.12881"></trkpt>
      <trkpt lat="31.17168" lon="-7.12894"></trkpt>
      <trkpt lat="31.17371" lon="-7.12757"></trkpt>
      <trkpt lat="31.17451" lon="-7.12642"></trkpt>
      <trkpt lat="31.17552" lon="-7.12564"></trkpt>
      <trkpt lat="31.17572" lon="-7.12606"></trkpt>
      <trkpt lat="31.17440" lon="-7.12931"></trkpt>
      <trkpt lat="31.17418" lon="-7.13056"></trkpt>
      <trkpt lat="31.17618" lon="-7.12703"></trkpt>
      <trkpt lat="31.17637" lon="-7.12717"></trkpt>
      <trkpt lat="31.17571" lon="-7.12853"></trkpt>
      <trkpt lat="31.17581" lon="-7.12882"></trkpt>
      <trkpt lat="31.17714" lon="-7.12654"></trkpt>
      <trkpt lat="31.17768" lon="-7.12725"></trkpt>
      <trkpt lat="31.17726" lon="-7.12930"></trkpt>
      <trkpt lat="31.17824" lon="-7.13026"></trkpt>
      <trkpt lat="31.18029" lon="-7.13053"></trkpt>
      <trkpt lat="31.18157" lon="-7.13033"></trkpt>
      <trkpt lat="31.18227" lon="-7.13076"></trkpt>
      <trkpt lat="31.18305" lon="-7.13067"></trkpt>
      <trkpt lat="31.18428" lon="-7.13156"></trkpt>
      <trkpt lat="31.18477" lon="-7.13060"></trkpt>
      <trkpt lat="31.18555" lon="-7.13098"></trkpt>
      <trkpt lat="31.18701" lon="-7.13122"></trkpt>
      <trkpt lat="31.18751" lon="-7.13043"></trkpt>
      <trkpt lat="31.18864" lon="-7.12944"></trkpt>
      <trkpt lat="31.18896" lon="-7.13058"></trkpt>
      <trkpt lat="31.18982" lon="-7.13151"></trkpt>
      <trkpt lat="31.19204" lon="-7.13181"></trkpt>
      <trkpt lat="31.19302" lon="-7.13042"></trkpt>
      <trkpt lat="31.19404" lon="-7.13158"></trkpt>
      <trkpt lat="31.19472" lon="-7.13150"></trkpt>
      <trkpt lat="31.19575" lon="-7.13051"></trkpt>
      <trkpt lat="31.19603" lon="-7.13116"></trkpt>
      <trkpt lat="31.19636" lon="-7.13134"></trkpt>
      <trkpt lat="31.19816" lon="-7.13100"></trkpt>
      <trkpt lat="31.19878" lon="-7.13052"></trkpt>
      <trkpt lat="31.19983" lon="-7.13098"></trkpt>
      <trkpt lat="31.20109" lon="-7.13095"></trkpt>
      <trkpt lat="31.20161" lon="-7.13142"></trkpt>
      <trkpt lat="31.20262" lon="-7.13142"></trkpt>
      <trkpt lat="31.20316" lon="-7.13103"></trkpt>
      <trkpt lat="31.20442" lon="-7.13116"></trkpt>
      <trkpt lat="31.20551" lon="-7.13202"></trkpt>
      <trkpt lat="31.20647" lon="-7.13332"></trkpt>
      <trkpt lat="31.20672" lon="-7.13325"></trkpt>
      <trkpt lat="31.20697" lon="-7.13237"></trkpt>
      <trkpt lat="31.20753" lon="-7.13333"></trkpt>
      <trkpt lat="31.20871" lon="-7.13383"></trkpt>
      <trkpt lat="31.20951" lon="-7.13354"></trkpt>
      <trkpt lat="31.21119" lon="-7.12998"></trkpt>
      <trkpt lat="31.21153" lon="-7.13040"></trkpt>
      <trkpt lat="31.21178" lon="-7.13137"></trkpt>
      <trkpt lat="31.21172" lon="-7.13322"></trkpt>
      <trkpt lat="31.21296" lon="-7.13355"></trkpt>
      <trkpt lat="31.21471" lon="-7.13481"></trkpt>
      <trkpt lat="31.21546" lon="-7.13422"></trkpt>
      <trkpt lat="31.21621" lon="-7.13436"></trkpt>
      <trkpt lat="31.21593" lon="-7.13563"></trkpt>
      <trkpt lat="31.21614" lon="-7.13649"></trkpt>
      <trkpt lat="31.21723" lon="-7.13765"></trkpt>
      <trkpt lat="31.21811" lon="-7.13782"></trkpt>
      <trkpt lat="31.21848" lon="-7.13847"></trkpt>
      <trkpt lat="31.21857" lon="-7.13938"></trkpt>
      <trkpt lat="31.21927" lon="-7.13997"></trkpt>
      <trkpt lat="31.21950" lon="-7.14103"></trkpt>
      <trkpt lat="31.22131" lon="-7.14156"></trkpt>
      <trkpt lat="31.22166" lon="-7.14193"></trkpt>
      <trkpt lat="31.22181" lon="-7.14243"></trkpt>
      <trkpt lat="31.22150" lon="-7.14285"></trkpt>
      <trkpt lat="31.22158" lon="-7.14341"></trkpt>
      <trkpt lat="31.22430" lon="-7.14388"></trkpt>
      <trkpt lat="31.22580" lon="-7.14491"></trkpt>
      <trkpt lat="31.22794" lon="-7.14560"></trkpt>
      <trkpt lat="31.22934" lon="-7.14560"></trkpt>
      <trkpt lat="31.23160" lon="-7.14813"></trkpt>
      <trkpt lat="31.23407" lon="-7.14883"></trkpt>
      <trkpt lat="31.23535" lon="-7.14958"></trkpt>
      <trkpt lat="31.23680" lon="-7.15141"></trkpt>
      <trkpt lat="31.23744" lon="-7.15144"></trkpt>
      <trkpt lat="31.23801" lon="-7.15201"></trkpt>
      <trkpt lat="31.24001" lon="-7.15184"></trkpt>
      <trkpt lat="31.24229" lon="-7.15391"></trkpt>
      <trkpt lat="31.24410" lon="-7.15404"></trkpt>
      <trkpt lat="31.24524" lon="-7.15495"></trkpt>
      <trkpt lat="31.24852" lon="-7.15298"></trkpt>
      <trkpt lat="31.25032" lon="-7.15229"></trkpt>
      <trkpt lat="31.25329" lon="-7.15160"></trkpt>
      <trkpt lat="31.25492" lon="-7.15164"></trkpt>
      <trkpt lat="31.25556" lon="-7.15187"></trkpt>
      <trkpt lat="31.25636" lon="-7.15292"></trkpt>
      <trkpt lat="31.25923" lon="-7.15286"></trkpt>
      <trkpt lat="31.25963" lon="-7.15353"></trkpt>
      <trkpt lat="31.26051" lon="-7.15416"></trkpt>
      <trkpt lat="31.26309" lon="-7.15488"></trkpt>
      <trkpt lat="31.26683" lon="-7.15188"></trkpt>
      <trkpt lat="31.26895" lon="-7.15211"></trkpt>
      <trkpt lat="31.26937" lon="-7.15186"></trkpt>
      <trkpt lat="31.27057" lon="-7.15200"></trkpt>
      <trkpt lat="31.27089" lon="-7.15236"></trkpt>
      <trkpt lat="31.27164" lon="-7.15239"></trkpt>
      <trkpt lat="31.27219" lon="-7.15272"></trkpt>
      <trkpt lat="31.27322" lon="-7.15247"></trkpt>
      <trkpt lat="31.27360" lon="-7.15215"></trkpt>
      <trkpt lat="31.27587" lon="-7.15189"></trkpt>
      <trkpt lat="31.27681" lon="-7.15216"></trkpt>
      <trkpt lat="31.27729" lon="-7.15269"></trkpt>
      <trkpt lat="31.27767" lon="-7.15118"></trkpt>
      <trkpt lat="31.27822" lon="-7.15060"></trkpt>
      <trkpt lat="31.28331" lon="-7.15063"></trkpt>
      <trkpt lat="31.28401" lon="-7.15100"></trkpt>
      <trkpt lat="31.28513" lon="-7.14969"></trkpt>
      <trkpt lat="31.28622" lon="-7.14931"></trkpt>
      <trkpt lat="31.28677" lon="-7.14950"></trkpt>
      <trkpt lat="31.28711" lon="-7.14993"></trkpt>
      <trkpt lat="31.28719" lon="-7.15054"></trkpt>
      <trkpt lat="31.28701" lon="-7.15356"></trkpt>
      <trkpt lat="31.28794" lon="-7.15447"></trkpt>
      <trkpt lat="31.28891" lon="-7.15619"></trkpt>
      <trkpt lat="31.28918" lon="-7.15849"></trkpt>
      <trkpt lat="31.28904" lon="-7.15921"></trkpt>
      <trkpt lat="31.28830" lon="-7.16012"></trkpt>
      <trkpt lat="31.28778" lon="-7.16317"></trkpt>
      <trkpt lat="31.28810" lon="-7.16729"></trkpt>
      <trkpt lat="31.28837" lon="-7.16826"></trkpt>
      <trkpt lat="31.28822" lon="-7.16939"></trkpt>
      <trkpt lat="31.28908" lon="-7.17490"></trkpt>
      <trkpt lat="31.28902" lon="-7.17626"></trkpt>
      <trkpt lat="31.28812" lon="-7.17846"></trkpt>
      <trkpt lat="31.28737" lon="-7.17964"></trkpt>
      <trkpt lat="31.28644" lon="-7.18241"></trkpt>
      <trkpt lat="31.28633" lon="-7.18473"></trkpt>
      <trkpt lat="31.28673" lon="-7.18651"></trkpt>
      <trkpt lat="31.28651" lon="-7.18864"></trkpt>
      <trkpt lat="31.28681" lon="-7.19487"></trkpt>
      <trkpt lat="31.28795" lon="-7.19691"></trkpt>
      <trkpt lat="31.28916" lon="-7.19769"></trkpt>
      <trkpt lat="31.28984" lon="-7.19780"></trkpt>
      <trkpt lat="31.29034" lon="-7.19830"></trkpt>
      <trkpt lat="31.29113" lon="-7.20001"></trkpt>
      <trkpt lat="31.29216" lon="-7.20133"></trkpt>
      <trkpt lat="31.29310" lon="-7.20728"></trkpt>
      <trkpt lat="31.29518" lon="-7.20905"></trkpt>
      <trkpt lat="31.29686" lon="-7.21371"></trkpt>
      <trkpt lat="31.29717" lon="-7.21586"></trkpt>
      <trkpt lat="31.29918" lon="-7.21822"></trkpt>
      <trkpt lat="31.29936" lon="-7.22611"></trkpt>
      <trkpt lat="31.29904" lon="-7.22746"></trkpt>
      <trkpt lat="31.29792" lon="-7.22926"></trkpt>
      <trkpt lat="31.29219" lon="-7.23364"></trkpt>
      <trkpt lat="31.28995" lon="-7.23595"></trkpt>
      <trkpt lat="31.28965" lon="-7.23578"></trkpt>
      <trkpt lat="31.28822" lon="-7.23607"></trkpt>
      <trkpt lat="31.28753" lon="-7.23534"></trkpt>
      <trkpt lat="31.28679" lon="-7.23521"></trkpt>
      <trkpt lat="31.28650" lon="-7.23698"></trkpt>
      <trkpt lat="31.28744" lon="-7.23830"></trkpt>
      <trkpt lat="31.28733" lon="-7.23994"></trkpt>
      <trkpt lat="31.28705" lon="-7.24051"></trkpt>
      <trkpt lat="31.28643" lon="-7.24038"></trkpt>
      <trkpt lat="31.28644" lon="-7.24143"></trkpt>
      <trkpt lat="31.28607" lon="-7.24249"></trkpt>
      <trkpt lat="31.28550" lon="-7.24231"></trkpt>
      <trkpt lat="31.28468" lon="-7.24261"></trkpt>
      <trkpt lat="31.28420" lon="-7.24338"></trkpt>
      <trkpt lat="31.28197" lon="-7.24551"></trkpt>
      <trkpt lat="31.28064" lon="-7.24728"></trkpt>
      <trkpt lat="31.27830" lon="-7.24796"></trkpt>
      <trkpt lat="31.27649" lon="-7.25012"></trkpt>
      <trkpt lat="31.27313" lon="-7.25195"></trkpt>
      <trkpt lat="31.27187" lon="-7.25206"></trkpt>
      <trkpt lat="31.26951" lon="-7.25296"></trkpt>
      <trkpt lat="31.26863" lon="-7.25406"></trkpt>
      <trkpt lat="31.26816" lon="-7.25545"></trkpt>
      <trkpt lat="31.26705" lon="-7.25741"></trkpt>
      <trkpt lat="31.26712" lon="-7.25986"></trkpt>
      <trkpt lat="31.26773" lon="-7.26330"></trkpt>
      <trkpt lat="31.26691" lon="-7.26961"></trkpt>
      <trkpt lat="31.26705" lon="-7.27653"></trkpt>
      <trkpt lat="31.26665" lon="-7.27835"></trkpt>
      <trkpt lat="31.26522" lon="-7.28124"></trkpt>
      <trkpt lat="31.26513" lon="-7.28242"></trkpt>
      <trkpt lat="31.26552" lon="-7.28568"></trkpt>
      <trkpt lat="31.26516" lon="-7.28740"></trkpt>
      <trkpt lat="31.26540" lon="-7.28801"></trkpt>
      <trkpt lat="31.26625" lon="-7.28879"></trkpt>
      <trkpt lat="31.26681" lon="-7.29073"></trkpt>
      <trkpt lat="31.26754" lon="-7.29214"></trkpt>
      <trkpt lat="31.26823" lon="-7.29276"></trkpt>
      <trkpt lat="31.26880" lon="-7.29375"></trkpt>
      <trkpt lat="31.27001" lon="-7.29442"></trkpt>
      <trkpt lat="31.27037" lon="-7.29694"></trkpt>
      <trkpt lat="31.27011" lon="-7.29775"></trkpt>
      <trkpt lat="31.26921" lon="-7.29891"></trkpt>
      <trkpt lat="31.26860" lon="-7.30170"></trkpt>
      <trkpt lat="31.26842" lon="-7.30640"></trkpt>
      <trkpt lat="31.26733" lon="-7.30865"></trkpt>
      <trkpt lat="31.26604" lon="-7.30931"></trkpt>
      <trkpt lat="31.26543" lon="-7.31185"></trkpt>
      <trkpt lat="31.26499" lon="-7.31209"></trkpt>
      <trkpt lat="31.26405" lon="-7.31117"></trkpt>
      <trkpt lat="31.26357" lon="-7.31306"></trkpt>
      <trkpt lat="31.26267" lon="-7.31293"></trkpt>
      <trkpt lat="31.26235" lon="-7.31404"></trkpt>
      <trkpt lat="31.26129" lon="-7.31443"></trkpt>
      <trkpt lat="31.26024" lon="-7.31538"></trkpt>
      <trkpt lat="31.25956" lon="-7.31528"></trkpt>
      <trkpt lat="31.25901" lon="-7.31548"></trkpt>
      <trkpt lat="31.25819" lon="-7.31635"></trkpt>
      <trkpt lat="31.25842" lon="-7.31678"></trkpt>
      <trkpt lat="31.26032" lon="-7.31805"></trkpt>
      <trkpt lat="31.25919" lon="-7.31991"></trkpt>
      <trkpt lat="31.25950" lon="-7.32083"></trkpt>
      <trkpt lat="31.25902" lon="-7.32234"></trkpt>
      <trkpt lat="31.25849" lon="-7.32318"></trkpt>
      <trkpt lat="31.25812" lon="-7.32652"></trkpt>
      <trkpt lat="31.25880" lon="-7.32868"></trkpt>
      <trkpt lat="31.25852" lon="-7.33028"></trkpt>
      <trkpt lat="31.25886" lon="-7.33176"></trkpt>
      <trkpt lat="31.25888" lon="-7.33366"></trkpt>
      <trkpt lat="31.25859" lon="-7.33568"></trkpt>
      <trkpt lat="31.25924" lon="-7.33692"></trkpt>
      <trkpt lat="31.25956" lon="-7.33820"></trkpt>
      <trkpt lat="31.25908" lon="-7.34025"></trkpt>
      <trkpt lat="31.25925" lon="-7.34274"></trkpt>
      <trkpt lat="31.25949" lon="-7.34328"></trkpt>
      <trkpt lat="31.26075" lon="-7.34369"></trkpt>
      <trkpt lat="31.26128" lon="-7.34456"></trkpt>
      <trkpt lat="31.26295" lon="-7.34945"></trkpt>
      <trkpt lat="31.26380" lon="-7.35345"></trkpt>
      <trkpt lat="31.26363" lon="-7.35394"></trkpt>
      <trkpt lat="31.26270" lon="-7.35488"></trkpt>
      <trkpt lat="31.26209" lon="-7.35622"></trkpt>
      <trkpt lat="31.26235" lon="-7.35703"></trkpt>
      <trkpt lat="31.26306" lon="-7.35794"></trkpt>
      <trkpt lat="31.26313" lon="-7.35858"></trkpt>
      <trkpt lat="31.26281" lon="-7.35958"></trkpt>
      <trkpt lat="31.26204" lon="-7.36022"></trkpt>
      <trkpt lat="31.26137" lon="-7.36137"></trkpt>
      <trkpt lat="31.26214" lon="-7.36532"></trkpt>
      <trkpt lat="31.26209" lon="-7.36752"></trkpt>
      <trkpt lat="31.26086" lon="-7.37059"></trkpt>
      <trkpt lat="31.26024" lon="-7.37520"></trkpt>
      <trkpt lat="31.26033" lon="-7.37664"></trkpt>
      <trkpt lat="31.25895" lon="-7.37912"></trkpt>
      <trkpt lat="31.25763" lon="-7.38006"></trkpt>
      <trkpt lat="31.25650" lon="-7.38038"></trkpt>
      <trkpt lat="31.25755" lon="-7.38090"></trkpt>
      <trkpt lat="31.25883" lon="-7.38498"></trkpt>
      <trkpt lat="31.25936" lon="-7.38564"></trkpt>
      <trkpt lat="31.25905" lon="-7.38781"></trkpt>
      <trkpt lat="31.25994" lon="-7.38960"></trkpt>
      <trkpt lat="31.26026" lon="-7.38964"></trkpt>
      <trkpt lat="31.26011" lon="-7.38836"></trkpt>
      <trkpt lat="31.26066" lon="-7.38717"></trkpt>
      <trkpt lat="31.26091" lon="-7.38589"></trkpt>
      <trkpt lat="31.26216" lon="-7.38418"></trkpt>
      <trkpt lat="31.26487" lon="-7.38361"></trkpt>
      <trkpt lat="31.26650" lon="-7.38431"></trkpt>
      <trkpt lat="31.26752" lon="-7.38417"></trkpt>
      <trkpt lat="31.26789" lon="-7.38354"></trkpt>
      <trkpt lat="31.26770" lon="-7.38186"></trkpt>
      <trkpt lat="31.26863" lon="-7.38060"></trkpt>
      <trkpt lat="31.26926" lon="-7.38055"></trkpt>
      <trkpt lat="31.27066" lon="-7.38105"></trkpt>
      <trkpt lat="31.27131" lon="-7.38089"></trkpt>
      <trkpt lat="31.27225" lon="-7.37950"></trkpt>
      <trkpt lat="31.27365" lon="-7.37901"></trkpt>
      <trkpt lat="31.27497" lon="-7.37673"></trkpt>
      <trkpt lat="31.27620" lon="-7.37594"></trkpt>
      <trkpt lat="31.27672" lon="-7.37594"></trkpt>
      <trkpt lat="31.27805" lon="-7.37662"></trkpt>
      <trkpt lat="31.27960" lon="-7.37857"></trkpt>
      <trkpt lat="31.28022" lon="-7.37844"></trkpt>
      <trkpt lat="31.28122" lon="-7.37888"></trkpt>
      <trkpt lat="31.28153" lon="-7.37981"></trkpt>
      <trkpt lat="31.28247" lon="-7.38070"></trkpt>
      <trkpt lat="31.28260" lon="-7.38245"></trkpt>
      <trkpt lat="31.28300" lon="-7.38300"></trkpt>
      <trkpt lat="31.28374" lon="-7.38276"></trkpt>
      <trkpt lat="31.28509" lon="-7.38139"></trkpt>
      <trkpt lat="31.28606" lon="-7.38109"></trkpt>
      <trkpt lat="31.28642" lon="-7.38128"></trkpt>
      <trkpt lat="31.28653" lon="-7.38175"></trkpt>
      <trkpt lat="31.28536" lon="-7.38356"></trkpt>
      <trkpt lat="31.28529" lon="-7.38410"></trkpt>
      <trkpt lat="31.28554" lon="-7.38429"></trkpt>
      <trkpt lat="31.28652" lon="-7.38320"></trkpt>
      <trkpt lat="31.28841" lon="-7.38221"></trkpt>
      <trkpt lat="31.28878" lon="-7.38219"></trkpt>
      <trkpt lat="31.28971" lon="-7.38288"></trkpt>
      <trkpt lat="31.29002" lon="-7.38286"></trkpt>
      <trkpt lat="31.29347" lon="-7.37782"></trkpt>
      <trkpt lat="31.29627" lon="-7.37548"></trkpt>
      <trkpt lat="31.29759" lon="-7.37249"></trkpt>
      <trkpt lat="31.29912" lon="-7.37148"></trkpt>
      <trkpt lat="31.30157" lon="-7.37116"></trkpt>
      <trkpt lat="31.30259" lon="-7.37200"></trkpt>
      <trkpt lat="31.30402" lon="-7.37226"></trkpt>
      <trkpt lat="31.30698" lon="-7.37371"></trkpt>
      <trkpt lat="31.30864" lon="-7.37286"></trkpt>
      <trkpt lat="31.30985" lon="-7.37304"></trkpt>
      <trkpt lat="31.31218" lon="-7.37026"></trkpt>
      <trkpt lat="31.31299" lon="-7.37114"></trkpt>
      <trkpt lat="31.31351" lon="-7.37246"></trkpt>
      <trkpt lat="31.31355" lon="-7.37397"></trkpt>
      <trkpt lat="31.31562" lon="-7.37539"></trkpt>
      <trkpt lat="31.31561" lon="-7.37582"></trkpt>
      <trkpt lat="31.31497" lon="-7.37696"></trkpt>
      <trkpt lat="31.31578" lon="-7.37761"></trkpt>
      <trkpt lat="31.31614" lon="-7.37888"></trkpt>
      <trkpt lat="31.31642" lon="-7.37916"></trkpt>
      <trkpt lat="31.31759" lon="-7.37930"></trkpt>
      <trkpt lat="31.31839" lon="-7.37898"></trkpt>
      <trkpt lat="31.31895" lon="-7.37915"></trkpt>
      <trkpt lat="31.31970" lon="-7.37867"></trkpt>
      <trkpt lat="31.31964" lon="-7.37836"></trkpt>
      <trkpt lat="31.31838" lon="-7.37845"></trkpt>
      <trkpt lat="31.31956" lon="-7.37743"></trkpt>
      <trkpt lat="31.31944" lon="-7.37682"></trkpt>
      <trkpt lat="31.31870" lon="-7.37598"></trkpt>
      <trkpt lat="31.31875" lon="-7.37573"></trkpt>
      <trkpt lat="31.31972" lon="-7.37667"></trkpt>
      <trkpt lat="31.32022" lon="-7.37761"></trkpt>
      <trkpt lat="31.32135" lon="-7.37784"></trkpt>
      <trkpt lat="31.32271" lon="-7.37759"></trkpt>
      <trkpt lat="31.32308" lon="-7.37730"></trkpt>
      <trkpt lat="31.32312" lon="-7.37697"></trkpt>
      <trkpt lat="31.32249" lon="-7.37668"></trkpt>
      <trkpt lat="31.32074" lon="-7.37658"></trkpt>
      <trkpt lat="31.32073" lon="-7.37617"></trkpt>
      <trkpt lat="31.32308" lon="-7.37639"></trkpt>
      <trkpt lat="31.32387" lon="-7.37621"></trkpt>
      <trkpt lat="31.32404" lon="-7.37661"></trkpt>
      <trkpt lat="31.32355" lon="-7.37775"></trkpt>
      <trkpt lat="31.32299" lon="-7.37834"></trkpt>
      <trkpt lat="31.32139" lon="-7.37909"></trkpt>
      <trkpt lat="31.32153" lon="-7.38045"></trkpt>
      <trkpt lat="31.32270" lon="-7.38101"></trkpt>
      <trkpt lat="31.32473" lon="-7.38088"></trkpt>
      <trkpt lat="31.32763" lon="-7.38174"></trkpt>
      <trkpt lat="31.32835" lon="-7.38170"></trkpt>
      <trkpt lat="31.32895" lon="-7.38110"></trkpt>
      <trkpt lat="31.32938" lon="-7.38108"></trkpt>
      <trkpt lat="31.33074" lon="-7.38242"></trkpt>
      <trkpt lat="31.33142" lon="-7.38394"></trkpt>
      <trkpt lat="31.33161" lon="-7.38367"></trkpt>
      <trkpt lat="31.33094" lon="-7.38140"></trkpt>
      <trkpt lat="31.33026" lon="-7.38053"></trkpt>
      <trkpt lat="31.32862" lon="-7.38014"></trkpt>
      <trkpt lat="31.32803" lon="-7.38065"></trkpt>
      <trkpt lat="31.32741" lon="-7.38003"></trkpt>
      <trkpt lat="31.32619" lon="-7.37960"></trkpt>
      <trkpt lat="31.32614" lon="-7.37926"></trkpt>
      <trkpt lat="31.32760" lon="-7.37913"></trkpt>
      <trkpt lat="31.32847" lon="-7.37848"></trkpt>
      <trkpt lat="31.32856" lon="-7.37803"></trkpt>
      <trkpt lat="31.32803" lon="-7.37738"></trkpt>
      <trkpt lat="31.32838" lon="-7.37695"></trkpt>
      <trkpt lat="31.32944" lon="-7.37749"></trkpt>
      <trkpt lat="31.32972" lon="-7.37883"></trkpt>
      <trkpt lat="31.33261" lon="-7.37918"></trkpt>
      <trkpt lat="31.33365" lon="-7.38166"></trkpt>
      <trkpt lat="31.33500" lon="-7.38171"></trkpt>
      <trkpt lat="31.33559" lon="-7.38247"></trkpt>
      <trkpt lat="31.33590" lon="-7.38362"></trkpt>
      <trkpt lat="31.33690" lon="-7.38436"></trkpt>
      <trkpt lat="31.33760" lon="-7.38643"></trkpt>
      <trkpt lat="31.33677" lon="-7.38788"></trkpt>
      <trkpt lat="31.33782" lon="-7.38951"></trkpt>
      <trkpt lat="31.33901" lon="-7.39073"></trkpt>
      <trkpt lat="31.33991" lon="-7.39099"></trkpt>
      <trkpt lat="31.34130" lon="-7.39207"></trkpt>
      <trkpt lat="31.34255" lon="-7.39335"></trkpt>
      <trkpt lat="31.34356" lon="-7.39329"></trkpt>
      <trkpt lat="31.34476" lon="-7.39151"></trkpt>
      <trkpt lat="31.34621" lon="-7.39067"></trkpt>
      <trkpt lat="31.34858" lon="-7.39147"></trkpt>
      <trkpt lat="31.35114" lon="-7.39126"></trkpt>
      <trkpt lat="31.35203" lon="-7.39189"></trkpt>
      <trkpt lat="31.35387" lon="-7.39215"></trkpt>
      <trkpt lat="31.35473" lon="-7.39186"></trkpt>
      <trkpt lat="31.35547" lon="-7.39121"></trkpt>
      <trkpt lat="31.35715" lon="-7.39168"></trkpt>
      <trkpt lat="31.35853" lon="-7.39146"></trkpt>
      <trkpt lat="31.35971" lon="-7.39073"></trkpt>
      <trkpt lat="31.36022" lon="-7.39010"></trkpt>
      <trkpt lat="31.36071" lon="-7.38996"></trkpt>
      <trkpt lat="31.36136" lon="-7.39015"></trkpt>
      <trkpt lat="31.36249" lon="-7.39178"></trkpt>
      <trkpt lat="31.36404" lon="-7.39159"></trkpt>
      <trkpt lat="31.36549" lon="-7.39230"></trkpt>
      <trkpt lat="31.36699" lon="-7.39232"></trkpt>
      <trkpt lat="31.36751" lon="-7.39179"></trkpt>
      <trkpt lat="31.36794" lon="-7.38881"></trkpt>
      <trkpt lat="31.36889" lon="-7.38802"></trkpt>
      <trkpt lat="31.36944" lon="-7.38807"></trkpt>
      <trkpt lat="31.37067" lon="-7.39166"></trkpt>
      <trkpt lat="31.36948" lon="-7.39286"></trkpt>
      <trkpt lat="31.36933" lon="-7.39370"></trkpt>
      <trkpt lat="31.36959" lon="-7.39415"></trkpt>
      <trkpt lat="31.37090" lon="-7.39516"></trkpt>
      <trkpt lat="31.37111" lon="-7.39569"></trkpt>
      <trkpt lat="31.37103" lon="-7.39614"></trkpt>
      <trkpt lat="31.37024" lon="-7.39718"></trkpt>
      <trkpt lat="31.37021" lon="-7.39773"></trkpt>
      <trkpt lat="31.37147" lon="-7.39884"></trkpt>
      <trkpt lat="31.37254" lon="-7.40224"></trkpt>
      <trkpt lat="31.37245" lon="-7.40274"></trkpt>
      <trkpt lat="31.37155" lon="-7.40347"></trkpt>
      <trkpt lat="31.37099" lon="-7.40472"></trkpt>
      <trkpt lat="31.37145" lon="-7.40668"></trkpt>
      <trkpt lat="31.37110" lon="-7.40807"></trkpt>
      <trkpt lat="31.37143" lon="-7.40917"></trkpt>
      <trkpt lat="31.37251" lon="-7.41001"></trkpt>
      <trkpt lat="31.37281" lon="-7.41185"></trkpt>
      <trkpt lat="31.37435" lon="-7.41237"></trkpt>
      <trkpt lat="31.37488" lon="-7.41233"></trkpt>
      <trkpt lat="31.37519" lon="-7.41205"></trkpt>
      <trkpt lat="31.37751" lon="-7.40879"></trkpt>
      <trkpt lat="31.37941" lon="-7.40798"></trkpt>
      <trkpt lat="31.38199" lon="-7.40869"></trkpt>
      <trkpt lat="31.38329" lon="-7.40962"></trkpt>
      <trkpt lat="31.38496" lon="-7.40899"></trkpt>
      <trkpt lat="31.38649" lon="-7.40943"></trkpt>
      <trkpt lat="31.38745" lon="-7.40880"></trkpt>
      <trkpt lat="31.38845" lon="-7.40946"></trkpt>
      <trkpt lat="31.38897" lon="-7.40948"></trkpt>
      <trkpt lat="31.39045" lon="-7.40773"></trkpt>
      <trkpt lat="31.39106" lon="-7.40630"></trkpt>
      <trkpt lat="31.39139" lon="-7.40466"></trkpt>
      <trkpt lat="31.39233" lon="-7.40474"></trkpt>
      <trkpt lat="31.39286" lon="-7.40432"></trkpt>
      <trkpt lat="31.39300" lon="-7.40384"></trkpt>
      <trkpt lat="31.39267" lon="-7.40221"></trkpt>
      <trkpt lat="31.39278" lon="-7.40174"></trkpt>
      <trkpt lat="31.39445" lon="-7.40038"></trkpt>
      <trkpt lat="31.39531" lon="-7.40001"></trkpt>
      <trkpt lat="31.39629" lon="-7.39833"></trkpt>
      <trkpt lat="31.39701" lon="-7.39800"></trkpt>
      <trkpt lat="31.39832" lon="-7.39790"></trkpt>
      <trkpt lat="31.40083" lon="-7.39527"></trkpt>
      <trkpt lat="31.40302" lon="-7.39622"></trkpt>
      <trkpt lat="31.40438" lon="-7.39544"></trkpt>
      <trkpt lat="31.40583" lon="-7.39637"></trkpt>
      <trkpt lat="31.40636" lon="-7.39633"></trkpt>
      <trkpt lat="31.40680" lon="-7.39572"></trkpt>
      <trkpt lat="31.40655" lon="-7.39384"></trkpt>
      <trkpt lat="31.40754" lon="-7.39253"></trkpt>
      <trkpt lat="31.40887" lon="-7.39168"></trkpt>
      <trkpt lat="31.41025" lon="-7.39216"></trkpt>
      <trkpt lat="31.41244" lon="-7.39108"></trkpt>
      <trkpt lat="31.41392" lon="-7.39157"></trkpt>
      <trkpt lat="31.41529" lon="-7.39154"></trkpt>
      <trkpt lat="31.41569" lon="-7.39195"></trkpt>
      <trkpt lat="31.41568" lon="-7.39273"></trkpt>
      <trkpt lat="31.41490" lon="-7.39388"></trkpt>
      <trkpt lat="31.41455" lon="-7.39513"></trkpt>
      <trkpt lat="31.41352" lon="-7.39609"></trkpt>
      <trkpt lat="31.41339" lon="-7.39696"></trkpt>
      <trkpt lat="31.41397" lon="-7.39883"></trkpt>
      <trkpt lat="31.41456" lon="-7.39955"></trkpt>
      <trkpt lat="31.41468" lon="-7.40099"></trkpt>
      <trkpt lat="31.41627" lon="-7.40322"></trkpt>
      <trkpt lat="31.41765" lon="-7.40395"></trkpt>
      <trkpt lat="31.41791" lon="-7.40587"></trkpt>
      <trkpt lat="31.41939" lon="-7.40647"></trkpt>
      <trkpt lat="31.42037" lon="-7.40618"></trkpt>
      <trkpt lat="31.42087" lon="-7.40631"></trkpt>
      <trkpt lat="31.42160" lon="-7.40773"></trkpt>
      <trkpt lat="31.42292" lon="-7.40803"></trkpt>
      <trkpt lat="31.42517" lon="-7.40927"></trkpt>
      <trkpt lat="31.42538" lon="-7.41080"></trkpt>
      <trkpt lat="31.42581" lon="-7.41112"></trkpt>
      <trkpt lat="31.42703" lon="-7.41063"></trkpt>
      <trkpt lat="31.42841" lon="-7.40872"></trkpt>
      <trkpt lat="31.42966" lon="-7.40936"></trkpt>
      <trkpt lat="31.43130" lon="-7.41100"></trkpt>
      <trkpt lat="31.43234" lon="-7.41117"></trkpt>
      <trkpt lat="31.43265" lon="-7.40986"></trkpt>
      <trkpt lat="31.43391" lon="-7.40854"></trkpt>
      <trkpt lat="31.43593" lon="-7.40781"></trkpt>
      <trkpt lat="31.43638" lon="-7.40569"></trkpt>
      <trkpt lat="31.43749" lon="-7.40569"></trkpt>
      <trkpt lat="31.43804" lon="-7.40654"></trkpt>
      <trkpt lat="31.43843" lon="-7.40651"></trkpt>
      <trkpt lat="31.43862" lon="-7.40544"></trkpt>
      <trkpt lat="31.43986" lon="-7.40480"></trkpt>
      <trkpt lat="31.44024" lon="-7.40346"></trkpt>
      <trkpt lat="31.44123" lon="-7.40284"></trkpt>
      <trkpt lat="31.44149" lon="-7.40197"></trkpt>
      <trkpt lat="31.44234" lon="-7.40162"></trkpt>
      <trkpt lat="31.44364" lon="-7.39999"></trkpt>
      <trkpt lat="31.44411" lon="-7.39883"></trkpt>
      <trkpt lat="31.44599" lon="-7.39771"></trkpt>
      <trkpt lat="31.44648" lon="-7.39622"></trkpt>
      <trkpt lat="31.44921" lon="-7.39421"></trkpt>
      <trkpt lat="31.44974" lon="-7.39421"></trkpt>
      <trkpt lat="31.45131" lon="-7.39493"></trkpt>
      <trkpt lat="31.45152" lon="-7.39543"></trkpt>
      <trkpt lat="31.45148" lon="-7.39671"></trkpt>
      <trkpt lat="31.45178" lon="-7.39722"></trkpt>
      <trkpt lat="31.45271" lon="-7.39750"></trkpt>
      <trkpt lat="31.45394" lon="-7.39720"></trkpt>
      <trkpt lat="31.45434" lon="-7.39750"></trkpt>
      <trkpt lat="31.45507" lon="-7.40146"></trkpt>
      <trkpt lat="31.45696" lon="-7.40255"></trkpt>
      <trkpt lat="31.45723" lon="-7.40545"></trkpt>
      <trkpt lat="31.45764" lon="-7.40612"></trkpt>
      <trkpt lat="31.45832" lon="-7.40654"></trkpt>
      <trkpt lat="31.45978" lon="-7.40600"></trkpt>
      <trkpt lat="31.46098" lon="-7.40722"></trkpt>
      <trkpt lat="31.46141" lon="-7.40714"></trkpt>
      <trkpt lat="31.46260" lon="-7.40617"></trkpt>
      <trkpt lat="31.46382" lon="-7.40463"></trkpt>
      <trkpt lat="31.46865" lon="-7.39998"></trkpt>
      <trkpt lat="31.46969" lon="-7.39856"></trkpt>
      <trkpt lat="31.47043" lon="-7.39841"></trkpt>
      <trkpt lat="31.47080" lon="-7.39889"></trkpt>
      <trkpt lat="31.47160" lon="-7.40193"></trkpt>
      <trkpt lat="31.47153" lon="-7.40571"></trkpt>
      <trkpt lat="31.47202" lon="-7.40725"></trkpt>
      <trkpt lat="31.47201" lon="-7.40875"></trkpt>
      <trkpt lat="31.47312" lon="-7.41286"></trkpt>
      <trkpt lat="31.47378" lon="-7.41655"></trkpt>
      <trkpt lat="31.47488" lon="-7.41877"></trkpt>
      <trkpt lat="31.47501" lon="-7.41961"></trkpt>
      <trkpt lat="31.47494" lon="-7.42188"></trkpt>
      <trkpt lat="31.47546" lon="-7.42459"></trkpt>
      <trkpt lat="31.47535" lon="-7.42793"></trkpt>
      <trkpt lat="31.47514" lon="-7.42895"></trkpt>
      <trkpt lat="31.47360" lon="-7.43176"></trkpt>
      <trkpt lat="31.47374" lon="-7.43326"></trkpt>
      <trkpt lat="31.47467" lon="-7.43405"></trkpt>
      <trkpt lat="31.47793" lon="-7.43383"></trkpt>
      <trkpt lat="31.47922" lon="-7.43471"></trkpt>
      <trkpt lat="31.48047" lon="-7.43332"></trkpt>
      <trkpt lat="31.48205" lon="-7.43256"></trkpt>
      <trkpt lat="31.48277" lon="-7.43161"></trkpt>
      <trkpt lat="31.48343" lon="-7.43150"></trkpt>
      <trkpt lat="31.48408" lon="-7.43179"></trkpt>
      <trkpt lat="31.48582" lon="-7.43188"></trkpt>
      <trkpt lat="31.48655" lon="-7.43250"></trkpt>
      <trkpt lat="31.48733" lon="-7.43428"></trkpt>
      <trkpt lat="31.48965" lon="-7.43818"></trkpt>
      <trkpt lat="31.48957" lon="-7.43927"></trkpt>
      <trkpt lat="31.48816" lon="-7.44156"></trkpt>
      <trkpt lat="31.48817" lon="-7.44378"></trkpt>
      <trkpt lat="31.48784" lon="-7.44485"></trkpt>
      <trkpt lat="31.48698" lon="-7.44667"></trkpt>
      <trkpt lat="31.48620" lon="-7.44759"></trkpt>
      <trkpt lat="31.48575" lon="-7.44890"></trkpt>
      <trkpt lat="31.48406" lon="-7.45012"></trkpt>
      <trkpt lat="31.48388" lon="-7.45057"></trkpt>
      <trkpt lat="31.48404" lon="-7.45124"></trkpt>
      <trkpt lat="31.48454" lon="-7.45150"></trkpt>
      <trkpt lat="31.48605" lon="-7.45091"></trkpt>
      <trkpt lat="31.48822" lon="-7.45118"></trkpt>
      <trkpt lat="31.48942" lon="-7.45103"></trkpt>
      <trkpt lat="31.49112" lon="-7.45142"></trkpt>
      <trkpt lat="31.49320" lon="-7.45269"></trkpt>
      <trkpt lat="31.49423" lon="-7.45381"></trkpt>
      <trkpt lat="31.49521" lon="-7.45573"></trkpt>
      <trkpt lat="31.49618" lon="-7.45886"></trkpt>
      <trkpt lat="31.49615" lon="-7.46124"></trkpt>
      <trkpt lat="31.49662" lon="-7.46230"></trkpt>
      <trkpt lat="31.49805" lon="-7.46350"></trkpt>
      <trkpt lat="31.50101" lon="-7.46432"></trkpt>
      <trkpt lat="31.50190" lon="-7.46438"></trkpt>
      <trkpt lat="31.50330" lon="-7.46387"></trkpt>
      <trkpt lat="31.50406" lon="-7.46392"></trkpt>
      <trkpt lat="31.50582" lon="-7.46558"></trkpt>
      <trkpt lat="31.50934" lon="-7.46692"></trkpt>
      <trkpt lat="31.51083" lon="-7.46858"></trkpt>
      <trkpt lat="31.51249" lon="-7.46889"></trkpt>
      <trkpt lat="31.51285" lon="-7.46936"></trkpt>
      <trkpt lat="31.51284" lon="-7.46989"></trkpt>
      <trkpt lat="31.51252" lon="-7.47029"></trkpt>
      <trkpt lat="31.51148" lon="-7.47057"></trkpt>
      <trkpt lat="31.51115" lon="-7.47089"></trkpt>
      <trkpt lat="31.51107" lon="-7.47163"></trkpt>
      <trkpt lat="31.51136" lon="-7.47204"></trkpt>
      <trkpt lat="31.51442" lon="-7.47291"></trkpt>
      <trkpt lat="31.51620" lon="-7.47224"></trkpt>
      <trkpt lat="31.51801" lon="-7.47291"></trkpt>
      <trkpt lat="31.52115" lon="-7.47274"></trkpt>
      <trkpt lat="31.52336" lon="-7.47336"></trkpt>
      <trkpt lat="31.52402" lon="-7.47398"></trkpt>
      <trkpt lat="31.52630" lon="-7.47819"></trkpt>
      <trkpt lat="31.52827" lon="-7.48047"></trkpt>
      <trkpt lat="31.52905" lon="-7.48320"></trkpt>
      <trkpt lat="31.53030" lon="-7.48509"></trkpt>
      <trkpt lat="31.53130" lon="-7.48625"></trkpt>
      <trkpt lat="31.53362" lon="-7.48739"></trkpt>
      <trkpt lat="31.53389" lon="-7.48813"></trkpt>
      <trkpt lat="31.53385" lon="-7.49171"></trkpt>
      <trkpt lat="31.53532" lon="-7.49319"></trkpt>
      <trkpt lat="31.53582" lon="-7.49597"></trkpt>
      <trkpt lat="31.53682" lon="-7.49741"></trkpt>
      <trkpt lat="31.53614" lon="-7.49998"></trkpt>
      <trkpt lat="31.53679" lon="-7.50216"></trkpt>
      <trkpt lat="31.53612" lon="-7.50448"></trkpt>
      <trkpt lat="31.53638" lon="-7.50650"></trkpt>
      <trkpt lat="31.53630" lon="-7.50937"></trkpt>
      <trkpt lat="31.53668" lon="-7.51030"></trkpt>
      <trkpt lat="31.53834" lon="-7.51258"></trkpt>
      <trkpt lat="31.54086" lon="-7.51914"></trkpt>
      <trkpt lat="31.54253" lon="-7.52815"></trkpt>
      <trkpt lat="31.54268" lon="-7.53077"></trkpt>
      <trkpt lat="31.54340" lon="-7.53495"></trkpt>
      <trkpt lat="31.54340" lon="-7.54025"></trkpt>
      <trkpt lat="31.54396" lon="-7.54448"></trkpt>
      <trkpt lat="31.54382" lon="-7.54633"></trkpt>
      <trkpt lat="31.54407" lon="-7.54961"></trkpt>
      <trkpt lat="31.54399" lon="-7.55310"></trkpt>
      <trkpt lat="31.54442" lon="-7.55563"></trkpt>
      <trkpt lat="31.54507" lon="-7.55768"></trkpt>
      <trkpt lat="31.54774" lon="-7.56346"></trkpt>
      <trkpt lat="31.54747" lon="-7.56482"></trkpt>
      <trkpt lat="31.54603" lon="-7.56622"></trkpt>
      <trkpt lat="31.54572" lon="-7.56687"></trkpt>
      <trkpt lat="31.54544" lon="-7.56918"></trkpt>
      <trkpt lat="31.54556" lon="-7.57169"></trkpt>
      <trkpt lat="31.54959" lon="-7.57746"></trkpt>
      <trkpt lat="31.55127" lon="-7.58508"></trkpt>
      <trkpt lat="31.55217" lon="-7.58736"></trkpt>
      <trkpt lat="31.55070" lon="-7.59435"></trkpt>
      <trkpt lat="31.54908" lon="-7.59582"></trkpt>
      <trkpt lat="31.54876" lon="-7.59651"></trkpt>
      <trkpt lat="31.54841" lon="-7.60215"></trkpt>
      <trkpt lat="31.54887" lon="-7.60671"></trkpt>
      <trkpt lat="31.54832" lon="-7.61012"></trkpt>
      <trkpt lat="31.54602" lon="-7.61756"></trkpt>
      <trkpt lat="31.54555" lon="-7.61820"></trkpt>
      <trkpt lat="31.54397" lon="-7.61934"></trkpt>
      <trkpt lat="31.54304" lon="-7.62130"></trkpt>
      <trkpt lat="31.54304" lon="-7.62224"></trkpt>
      <trkpt lat="31.54357" lon="-7.62374"></trkpt>
      <trkpt lat="31.54383" lon="-7.62638"></trkpt>
      <trkpt lat="31.54316" lon="-7.62827"></trkpt>
      <trkpt lat="31.54319" lon="-7.62896"></trkpt>
      <trkpt lat="31.54442" lon="-7.63059"></trkpt>
      <trkpt lat="31.54551" lon="-7.63439"></trkpt>
      <trkpt lat="31.54884" lon="-7.63803"></trkpt>
      <trkpt lat="31.54844" lon="-7.63855"></trkpt>
      <trkpt lat="31.54746" lon="-7.64255"></trkpt>
      <trkpt lat="31.54702" lon="-7.64625"></trkpt>
      <trkpt lat="31.54663" lon="-7.64671"></trkpt>
      <trkpt lat="31.54394" lon="-7.64756"></trkpt>
      <trkpt lat="31.54300" lon="-7.64826"></trkpt>
      <trkpt lat="31.54266" lon="-7.64928"></trkpt>
      <trkpt lat="31.54284" lon="-7.65184"></trkpt>
      <trkpt lat="31.54407" lon="-7.65493"></trkpt>
      <trkpt lat="31.54894" lon="-7.65998"></trkpt>
      <trkpt lat="31.55195" lon="-7.66457"></trkpt>
      <trkpt lat="31.55297" lon="-7.66907"></trkpt>
      <trkpt lat="31.55501" lon="-7.68334"></trkpt>
      <trkpt lat="31.55572" lon="-7.68482"></trkpt>
      <trkpt lat="31.55609" lon="-7.68503"></trkpt>
      <trkpt lat="31.55680" lon="-7.68683"></trkpt>
      <trkpt lat="31.55964" lon="-7.69111"></trkpt>
      <trkpt lat="31.56013" lon="-7.69236"></trkpt>
      <trkpt lat="31.56660" lon="-7.72780"></trkpt>
      <trkpt lat="31.56896" lon="-7.74407"></trkpt>
      <trkpt lat="31.57304" lon="-7.76461"></trkpt>
      <trkpt lat="31.57826" lon="-7.78820"></trkpt>
      <trkpt lat="31.57904" lon="-7.78992"></trkpt>
      <trkpt lat="31.58206" lon="-7.79430"></trkpt>
      <trkpt lat="31.58173" lon="-7.79609"></trkpt>
      <trkpt lat="31.57932" lon="-7.79924"></trkpt>
      <trkpt lat="31.57873" lon="-7.80053"></trkpt>
      <trkpt lat="31.57863" lon="-7.80599"></trkpt>
      <trkpt lat="31.57637" lon="-7.81414"></trkpt>
      <trkpt lat="31.57648" lon="-7.81571"></trkpt>
      <trkpt lat="31.57757" lon="-7.82061"></trkpt>
      <trkpt lat="31.57716" lon="-7.83173"></trkpt>
      <trkpt lat="31.57499" lon="-7.84503"></trkpt>
      <trkpt lat="31.57719" lon="-7.85237"></trkpt>
      <trkpt lat="31.57826" lon="-7.86351"></trkpt>
      <trkpt lat="31.58297" lon="-7.87428"></trkpt>
      <trkpt lat="31.58432" lon="-7.88100"></trkpt>
      <trkpt lat="31.58680" lon="-7.88753"></trkpt>
      <trkpt lat="31.58734" lon="-7.88835"></trkpt>
      <trkpt lat="31.58690" lon="-7.88978"></trkpt>
      <trkpt lat="31.58847" lon="-7.89401"></trkpt>
      <trkpt lat="31.59174" lon="-7.89890"></trkpt>
      <trkpt lat="31.59254" lon="-7.90127"></trkpt>
      <trkpt lat="31.59471" lon="-7.90533"></trkpt>
      <trkpt lat="31.59781" lon="-7.91401"></trkpt>
      <trkpt lat="31.59840" lon="-7.91631"></trkpt>
      <trkpt lat="31.59874" lon="-7.91916"></trkpt>
      <trkpt lat="31.60090" lon="-7.92356"></trkpt>
      <trkpt lat="31.60498" lon="-7.92922"></trkpt>
      <trkpt lat="31.60840" lon="-7.93676"></trkpt>
      <trkpt lat="31.61058" lon="-7.93991"></trkpt>
      <trkpt lat="31.61210" lon="-7.94385"></trkpt>
      <trkpt lat="31.61264" lon="-7.94588"></trkpt>
      <trkpt lat="31.61568" lon="-7.95098"></trkpt>
      <trkpt lat="31.61731" lon="-7.95589"></trkpt>
      <trkpt lat="31.61862" lon="-7.95813"></trkpt>
      <trkpt lat="31.62061" lon="-7.96456"></trkpt>
      <trkpt lat="31.62093" lon="-7.96645"></trkpt>
      <trkpt lat="31.62233" lon="-7.96875"></trkpt>
      <trkpt lat="31.62269" lon="-7.97091"></trkpt>
      <trkpt lat="31.62145" lon="-7.97106"></trkpt>
      <trkpt lat="31.61941" lon="-7.97190"></trkpt>
      <trkpt lat="31.61744" lon="-7.97313"></trkpt>
      <trkpt lat="31.61500" lon="-7.97540"></trkpt>
      <trkpt lat="31.61442" lon="-7.97726"></trkpt>
      <trkpt lat="31.61411" lon="-7.97992"></trkpt>
      <trkpt lat="31.61319" lon="-7.98132"></trkpt>
      <trkpt lat="31.61251" lon="-7.98426"></trkpt>
      <trkpt lat="31.61166" lon="-7.98522"></trkpt>
      <trkpt lat="31.61072" lon="-7.98918"></trkpt>
      <trkpt lat="31.61307" lon="-7.99258"></trkpt>
      <trkpt lat="31.61349" lon="-7.99289"></trkpt>
      <trkpt lat="31.61588" lon="-7.99156"></trkpt>
      <trkpt lat="31.61683" lon="-7.99063"></trkpt>
      <trkpt lat="31.62015" lon="-7.99100"></trkpt>
      <trkpt lat="31.62195" lon="-7.99167"></trkpt>
      <trkpt lat="31.62233" lon="-7.99131"></trkpt>
      <trkpt lat="31.62250" lon="-7.99000"></trkpt>
      <trkpt lat="31.62363" lon="-7.99060"></trkpt>
      <trkpt lat="31.62594" lon="-7.98953"></trkpt>
    </trkseg>
  </trk>
</gpx>
