<?xml version="1.0" encoding="UTF-8"?>
<gpx version="1.1" creator="Morocco Motorcycle Tour 2026" xmlns="http://www.topografix.com/GPX/1/1"
     xmlns:xsi="http://www.w3.org/2001/XMLSchema-instance"
     xsi:schemaLocation="http://www.topografix.com/GPX/1/1 http://www.topografix.com/GPX/1/1/gpx.xsd">
  <metadata><name>Day 2 (13 Oct) Guercif - Midelt (N15)</name></metadata>
  <rte>
    <name>Day 2 (13 Oct) Guercif - Midelt (N15)</name>
    <desc>238 km. Favourite road N15: flowing, quiet, climbing mountain landscape.</desc>
    <rtept lat="34.2270" lon="-3.3530"><name>Guercif</name></rtept>
    <rtept lat="33.6870" lon="-3.9880"><name>N15 plateau</name></rtept>
    <rtept lat="33.0470" lon="-3.9890"><name>Missour</name></rtept>
    <rtept lat="32.8300" lon="-4.3000"><name>N15 towards Midelt</name></rtept>
    <rtept lat="32.6800" lon="-4.7450"><name>Midelt - Riad Villa Midelt</name></rtept>
  </rte>
</gpx>
