<?xml version="1.0" encoding="UTF-8"?>
<gpx version="1.1" creator="Morocco Motorcycle Tour 2026" xmlns="http://www.topografix.com/GPX/1/1"
     xmlns:xsi="http://www.w3.org/2001/XMLSchema-instance"
     xsi:schemaLocation="http://www.topografix.com/GPX/1/1 http://www.topografix.com/GPX/1/1/gpx.xsd">
  <metadata><name>Day 3 (14 Oct) Midelt - Ifrane - Azrou - Midelt (loop)</name></metadata>
  <rte>
    <name>Day 3 (14 Oct) Midelt - Ifrane - Azrou - Midelt (loop)</name>
    <desc>285 km loop without luggage. Cedar forest, monkeys, Ifrane. Back to Moonrise Villa VIP Midelt.</desc>
    <rtept lat="32.6800" lon="-4.7450"><name>Midelt</name></rtept>
    <rtept lat="33.2350" lon="-5.0600"><name>Timahdite (N13)</name></rtept>
    <rtept lat="33.4342" lon="-5.2214"><name>Azrou</name></rtept>
    <rtept lat="33.5228" lon="-5.1106"><name>Ifrane</name></rtept>
    <rtept lat="33.4342" lon="-5.2214"><name>Azrou (lunch)</name></rtept>
    <rtept lat="32.6800" lon="-4.7450"><name>Midelt - Moonrise Villa VIP</name></rtept>
  </rte>
</gpx>
