<?xml version="1.0" encoding="UTF-8"?>
<gpx version="1.1" creator="Morocco Motorcycle Tour 2026" xmlns="http://www.topografix.com/GPX/1/1"
     xmlns:xsi="http://www.w3.org/2001/XMLSchema-instance"
     xsi:schemaLocation="http://www.topografix.com/GPX/1/1 http://www.topografix.com/GPX/1/1/gpx.xsd">
  <metadata><name>Day 7 (18 Oct) Ait Benhaddou - Tizi n'Tichka - Marrakech</name></metadata>
  <rte>
    <name>Day 7 (18 Oct) Ait Benhaddou - Tizi n'Tichka - Marrakech</name>
    <desc>195 km. Highest pass of the trip (2260m). Dress warmly. Ride defensively in Marrakech.</desc>
    <rtept lat="31.0472" lon="-7.1290"><name>Ait Benhaddou</name></rtept>
    <rtept lat="31.2870" lon="-7.2400"><name>Kasbah Telouet (optional)</name></rtept>
    <rtept lat="31.2960" lon="-7.3810"><name>Tizi n'Tichka pass 2260m</name></rtept>
    <rtept lat="31.4670" lon="-7.6580"><name>Taddert</name></rtept>
    <rtept lat="31.6258" lon="-7.9891"><name>Marrakech - medina</name></rtept>
  </rte>
</gpx>
