<?xml version="1.0" encoding="UTF-8"?>
<gpx version="1.1" creator="Marokko Motorreis 2026"
     xmlns="http://www.topografix.com/GPX/1/1"
     xmlns:xsi="http://www.w3.org/2001/XMLSchema-instance"
     xsi:schemaLocation="http://www.topografix.com/GPX/1/1 http://www.topografix.com/GPX/1/1/gpx.xsd">
  <metadata><name>Dag 1 (12 okt) Nador - Guercif</name><desc>173 km, ca. 2u42 rijden. Grens Beni Ansar, dan Rif-uitlopers zuidwaarts. Rustige eerste dag.</desc></metadata>
  <rte>
    <name>Dag 1 (12 okt) Nador - Guercif</name>
    <desc>173 km, ca. 2u42 rijden. Grens Beni Ansar, dan Rif-uitlopers zuidwaarts. Rustige eerste dag.</desc>
    <rtept lat="35.268173" lon="-2.933074"><name>Haven Nador (Beni Ansar)</name><sym>Waypoint</sym></rtept>
    <rtept lat="35.064506" lon="-2.928615"><name>Selouane</name><sym>Waypoint</sym></rtept>
    <rtept lat="34.412841" lon="-2.894402"><name>Taourirt</name><sym>Waypoint</sym></rtept>
    <rtept lat="34.227190" lon="-3.353116"><name>Guercif</name><sym>Waypoint</sym></rtept>
  </rte>
</gpx>
