<?xml version="1.0" encoding="UTF-8"?>
<gpx version="1.1" creator="Marokko Motorreis 2026"
     xmlns="http://www.topografix.com/GPX/1/1"
     xmlns:xsi="http://www.w3.org/2001/XMLSchema-instance"
     xsi:schemaLocation="http://www.topografix.com/GPX/1/1 http://www.topografix.com/GPX/1/1/gpx.xsd">
  <metadata><name>Dag 0 (11 okt) Moraira - Almeria + nachtferry</name><desc>405 km, ca. 4u58 rijden. Kust en binnenland naar de haven. Avond/nachtferry naar Nador.</desc></metadata>
  <rte>
    <name>Dag 0 (11 okt) Moraira - Almeria + nachtferry</name>
    <desc>405 km, ca. 4u58 rijden. Kust en binnenland naar de haven. Avond/nachtferry naar Nador.</desc>
    <rtept lat="38.687186" lon="0.144026"><name>Moraira</name><sym>Waypoint</sym></rtept>
    <rtept lat="38.345200" lon="-0.481000"><name>Alicante (kust)</name><sym>Waypoint</sym></rtept>
    <rtept lat="37.991916" lon="-1.131239"><name>Murcia</name><sym>Waypoint</sym></rtept>
    <rtept lat="37.177461" lon="-1.822248"><name>Aguilas (kust)</name><sym>Waypoint</sym></rtept>
    <rtept lat="36.831943" lon="-2.476101"><name>Haven Almeria</name><sym>Waypoint</sym></rtept>
  </rte>
</gpx>
