<?xml version="1.0" encoding="UTF-8"?>
<gpx version="1.1" creator="Marokko Motorreis 2026"
     xmlns="http://www.topografix.com/GPX/1/1"
     xmlns:xsi="http://www.w3.org/2001/XMLSchema-instance"
     xsi:schemaLocation="http://www.topografix.com/GPX/1/1 http://www.topografix.com/GPX/1/1/gpx.xsd">
  <metadata><name>Dag 9 (20 okt) Beni Mellal - Khenifra - Midelt</name><desc>267 km, ca. 4u40 rijden. Beboste Midden-Atlaswegen terug naar Moonrise Villa VIP in Midelt.</desc></metadata>
  <rte>
    <name>Dag 9 (20 okt) Beni Mellal - Khenifra - Midelt</name>
    <desc>267 km, ca. 4u40 rijden. Beboste Midden-Atlaswegen terug naar Moonrise Villa VIP in Midelt.</desc>
    <rtept lat="32.337344" lon="-6.349810"><name>Beni Mellal</name><sym>Waypoint</sym></rtept>
    <rtept lat="32.598020" lon="-6.267983"><name>Kasba Tadla</name><sym>Waypoint</sym></rtept>
    <rtept lat="32.934989" lon="-5.667953"><name>Khenifra - lunch</name><sym>Waypoint</sym></rtept>
    <rtept lat="32.680360" lon="-4.744051"><name>Midelt - Moonrise Villa VIP</name><sym>Waypoint</sym></rtept>
  </rte>
</gpx>
