<?xml version="1.0" encoding="UTF-8"?>
<gpx version="1.1" creator="Marokko Motorreis 2026"
     xmlns="http://www.topografix.com/GPX/1/1"
     xmlns:xsi="http://www.w3.org/2001/XMLSchema-instance"
     xsi:schemaLocation="http://www.topografix.com/GPX/1/1 http://www.topografix.com/GPX/1/1/gpx.xsd">
  <metadata><name>Dag 10 (21 okt) Midelt - Missour - Guercif - Nador + ferry</name><desc>435 km, ca. 6u55 rijden. N15/N2. Vroeg weg 07:30. Tanken in Guercif. Min. 3u voor vertrek bij de terminal.</desc></metadata>
  <rte>
    <name>Dag 10 (21 okt) Midelt - Missour - Guercif - Nador + ferry</name>
    <desc>435 km, ca. 6u55 rijden. N15/N2. Vroeg weg 07:30. Tanken in Guercif. Min. 3u voor vertrek bij de terminal.</desc>
    <rtept lat="32.680360" lon="-4.744051"><name>Midelt</name><sym>Waypoint</sym></rtept>
    <rtept lat="33.047297" lon="-3.989184"><name>Missour - koffie</name><sym>Waypoint</sym></rtept>
    <rtept lat="34.227190" lon="-3.353116"><name>Guercif - lunch + tank</name><sym>Waypoint</sym></rtept>
    <rtept lat="34.412841" lon="-2.894402"><name>Taourirt</name><sym>Waypoint</sym></rtept>
    <rtept lat="35.064506" lon="-2.928615"><name>Selouane</name><sym>Waypoint</sym></rtept>
    <rtept lat="35.268173" lon="-2.933074"><name>Haven Nador (Beni Ansar) - FERRY</name><sym>Waypoint</sym></rtept>
  </rte>
</gpx>
