<?xml version="1.0" encoding="UTF-8"?>
<gpx version="1.1" creator="Marokko Motorreis 2026"
     xmlns="http://www.topografix.com/GPX/1/1"
     xmlns:xsi="http://www.w3.org/2001/XMLSchema-instance"
     xsi:schemaLocation="http://www.topografix.com/GPX/1/1 http://www.topografix.com/GPX/1/1/gpx.xsd">
  <metadata><name>Dag 7 (18 okt) Ait Benhaddou - Tizi n Tichka - Marrakech</name><desc>175 km, ca. 3u41 rijden. Hoogste pas van de reis (2260 m). Warm aankleden. Defensief rijden in Marrakech.</desc></metadata>
  <rte>
    <name>Dag 7 (18 okt) Ait Benhaddou - Tizi n Tichka - Marrakech</name>
    <desc>175 km, ca. 3u41 rijden. Hoogste pas van de reis (2260 m). Warm aankleden. Defensief rijden in Marrakech.</desc>
    <rtept lat="31.044800" lon="-7.130802"><name>Ait Benhaddou</name><sym>Waypoint</sym></rtept>
    <rtept lat="31.286985" lon="-7.235167"><name>Kasbah Telouet (optioneel)</name><sym>Waypoint</sym></rtept>
    <rtept lat="31.286101" lon="-7.381095"><name>Tizi n Tichka pas 2260 m</name><sym>Waypoint</sym></rtept>
    <rtept lat="31.355318" lon="-7.391246"><name>Taddert</name><sym>Waypoint</sym></rtept>
    <rtept lat="31.625941" lon="-7.989529"><name>Marrakech - medina</name><sym>Waypoint</sym></rtept>
  </rte>
</gpx>
