<?xml version="1.0" encoding="UTF-8"?>
<gpx version="1.1" creator="Marokko Motorreis 2026"
     xmlns="http://www.topografix.com/GPX/1/1"
     xmlns:xsi="http://www.w3.org/2001/XMLSchema-instance"
     xsi:schemaLocation="http://www.topografix.com/GPX/1/1 http://www.topografix.com/GPX/1/1/gpx.xsd">
  <metadata><name>Dag 3 (14 okt) Midelt - Ifrane - Azrou - Midelt</name><desc>289 km, ca. 5u37 rijden. Lus zonder bagage. Cederbos, berbermakaken, Ifrane. Terug naar Midelt.</desc></metadata>
  <rte>
    <name>Dag 3 (14 okt) Midelt - Ifrane - Azrou - Midelt</name>
    <desc>289 km, ca. 5u37 rijden. Lus zonder bagage. Cederbos, berbermakaken, Ifrane. Terug naar Midelt.</desc>
    <rtept lat="32.680360" lon="-4.744051"><name>Midelt</name><sym>Waypoint</sym></rtept>
    <rtept lat="33.235013" lon="-5.060033"><name>Timahdite (N13)</name><sym>Waypoint</sym></rtept>
    <rtept lat="33.522763" lon="-5.110529"><name>Ifrane</name><sym>Waypoint</sym></rtept>
    <rtept lat="33.407935" lon="-5.233286"><name>Cederbos Cedre Gouraud</name><sym>Waypoint</sym></rtept>
    <rtept lat="33.434065" lon="-5.221366"><name>Azrou (lunch)</name><sym>Waypoint</sym></rtept>
    <rtept lat="32.680360" lon="-4.744051"><name>Midelt - Moonrise Villa VIP</name><sym>Waypoint</sym></rtept>
  </rte>
</gpx>
