<?xml version="1.0" encoding="UTF-8"?>
<gpx version="1.1" creator="Marokko Motorreis 2026" xmlns="http://www.topografix.com/GPX/1/1"
     xmlns:xsi="http://www.w3.org/2001/XMLSchema-instance"
     xsi:schemaLocation="http://www.topografix.com/GPX/1/1 http://www.topografix.com/GPX/1/1/gpx.xsd">
  <metadata><name>Dag 9 (20 okt) Beni Mellal - Khenifra - Midelt</name></metadata>
  <rte>
    <name>Dag 9 (20 okt) Beni Mellal - Khenifra - Midelt</name>
    <desc>285 km. Bosrijke Midden-Atlas-wegen terug naar Riad Villa Midelt.</desc>
    <rtept lat="32.3373" lon="-6.3498"><name>Beni Mellal</name></rtept>
    <rtept lat="32.5980" lon="-6.2680"><name>Kasba Tadla</name></rtept>
    <rtept lat="32.9350" lon="-5.6680"><name>Khenifra - lunch</name></rtept>
    <rtept lat="32.7860" lon="-5.1050"><name>Midden-Atlas hoogvlakte</name></rtept>
    <rtept lat="32.6800" lon="-4.7450"><name>Midelt - Riad Villa Midelt</name></rtept>
  </rte>
</gpx>
