<?xml version="1.0" encoding="UTF-8"?>
<gpx version="1.1" creator="Marokko Motorreis 2026" xmlns="http://www.topografix.com/GPX/1/1"
     xmlns:xsi="http://www.w3.org/2001/XMLSchema-instance"
     xsi:schemaLocation="http://www.topografix.com/GPX/1/1 http://www.topografix.com/GPX/1/1/gpx.xsd">
  <metadata><name>Dag 1 (12 okt) Nador - Guercif</name></metadata>
  <rte>
    <name>Dag 1 (12 okt) Nador - Guercif</name>
    <desc>202 km. Grens Beni Ansar, dan Rif-uitlopers zuidwaarts. Rustige eerste dag.</desc>
    <rtept lat="35.2680" lon="-2.9330"><name>Haven Nador (Beni Ansar)</name></rtept>
    <rtept lat="34.9130" lon="-2.9420"><name>Selouane</name></rtept>
    <rtept lat="34.6180" lon="-3.0630"><name>Driouch-richting</name></rtept>
    <rtept lat="34.4127" lon="-2.8942"><name>Taourirt</name></rtept>
    <rtept lat="34.2270" lon="-3.3530"><name>Guercif</name></rtept>
  </rte>
</gpx>
